{"type": "Feature","bbox": [-170.7876,-14.3527,-170.7667,-14.3144],"geometry": {"type": "MultiPolygon","coordinates": [[[[-170.7874,-14.3393,2.518],[-170.7876,-14.3461,5.3325],[-170.7833,-14.3465,17.7522],[-170.7789,-14.3527,20.6704],[-170.7749,-14.3497,32.0537],[-170.7791,-14.345,30.1326],[-170.7763,-14.3413,35.8924],[-170.7778,-14.3294,179.3912],[-170.7667,-14.3167,445.3689],[-170.7729,-14.3144,397.2588],[-170.7838,-14.3144,382.9616],[-170.7875,-14.3281,132.6489],[-170.7836,-14.3313,44.6388],[-170.7874,-14.3393,2.518]]]]}
,"properties": {"GID_3": "ASM.4.5.2_1","GID_0": "ASM","country": "AmericanSamoa","GID_1": "ASM.4_1","state": "Western","NL_NAME_1": "NA","GID_2": "ASM.4.5_1","county": "Fofo","NL_NAME_2": "NA","city": "Leone","VARNAME_3": "NA","NL_NAME_3": "NA","TYPE_3": "Village","ENGTYPE_3": "Village","CC_3": "NA","HASC_3": "NA","name": "Leone.city","area_km2": 4.580983,"hist_schema_id": "Elevation0-9000","hist_area_km2": {"0": 0.595712,"25": 1.027066,"50": 0.246505,"75": 0.164339,"100": 0.164339,"125": 0.225969,"150": 0.287601,"175": 0.20543,"200": 0.267061,"225": 0.143803,"250": 0.267063,"275": 0.143804,"300": 0.143804,"325": 0.123261,"350": 0.123262,"375": 0.184893,"400": 0.143806,"425": 0.102719,"450": 0.020544}}}