{"type":"Feature","properties":{"ISO3166-1-Alpha-3":"COK","country":"Cook Islands","fill":"#F0F","id":"4959","name":"Pukapuka"},
"geometry":{"type": "MultiPolygon","coordinates": [[[[-163.17422,-13.28118,0.0],[-163.17565,-13.27923,0.0],[-163.17618,-13.28135,0.0],[-163.17422,-13.28118,0.0]]],
[[[-163.08243,-13.25628,0.0],[-163.0845,-13.25384,0.0],[-163.08434,-13.25595,0.0],[-163.08239,-13.25807,0.0],[-163.08243,-13.25628,0.0]]],
[[[-165.41291,-11.55918,15.6482],[-165.41881,-11.55552,2.3352],[-165.41849,-11.56072,9.5267],[-165.41255,-11.5643,17.4881],[-165.41291,-11.55918,15.6482]]],
[[[-165.80382,-10.94752,0.0],[-165.80541,-10.9389,0.0],[-165.81208,-10.93947,0.0],[-165.81416,-10.94793,0.0],[-165.82307,-10.94695,0.0],[-165.82474,-10.94915,0.0],[-165.81522,-10.95298,0.0],[-165.80382,-10.94752,0.0]]],
[[[-165.81404,-10.88909,0.0],[-165.80769,-10.88128,0.0],[-165.81176,-10.88014,0.0],[-165.81587,-10.8803,0.0],[-165.82453,-10.88177,0.0],[-165.82209,-10.88909,0.0],[-165.81871,-10.89153,0.0],[-165.81404,-10.88909,0.0]]]]}}