{"type":"Feature","properties":{"GID_1":"COK.9_1","GID_0":"COK","country":"CookIslands","province":"Pukapuka","VARNAME_1":"NA","NL_NAME_1":"NA","TYPE_1":"IslandCouncil","ENGTYPE_1":"IslandCouncil","CC_1":"NA","HASC_1":"NA","ISO_1":"NA","name":"Pukapuka.province"},
"geometry":{"type": "MultiPolygon","coordinates": [[[[-163.1155,-13.3323,1.4838],[-163.1135,-13.3333,0.421],[-163.1158,-13.3297,0.6565],[-163.1162,-13.3303,0.6565],[-163.1155,-13.3323,1.4838]]],
[[[-163.0494,-13.2917,0.0],[-163.0475,-13.2889,2.0184],[-163.0495,-13.285,2.9663],[-163.0517,-13.2885,2.3061],[-163.0494,-13.2917,0.0]]],
[[[-163.047,-13.2767,0.7019],[-163.0481,-13.2752,0.3556],[-163.0494,-13.275,0.0],[-163.048,-13.2775,0.7019],[-163.047,-13.2767,0.7019]]],
[[[-163.0758,-13.2489,0.7911],[-163.0778,-13.2481,1.9373],[-163.0792,-13.2494,1.9373],[-163.0753,-13.2508,1.0742],[-163.0758,-13.2489,0.7911]]],
[[[-163.1024,-13.2529,4.1702],[-163.1048,-13.2456,0.6457],[-163.1064,-13.2447,0.7974],[-163.1061,-13.25,0.0],[-163.1024,-13.2529,4.1702]]],
[[[-163.1314,-13.221,2.2472],[-163.1303,-13.2212,0.5079],[-163.1304,-13.2184,1.6356],[-163.1312,-13.2183,1.7259],[-163.1314,-13.221,2.2472]]],
[[[-163.1319,-13.2131,1.9772],[-163.1294,-13.2157,2.5901],[-163.1281,-13.2149,0.8852],[-163.1285,-13.2125,1.125],[-163.1319,-13.2131,1.9772]]],
[[[-163.1294,-13.2083,0.4799],[-163.1297,-13.2105,1.4411],[-163.127,-13.2116,1.125],[-163.1255,-13.2058,0.4396],[-163.1272,-13.2047,0.4965],[-163.1294,-13.2083,0.4799]]],
[[[-163.1931,-13.2778,0.0],[-163.1969,-13.2786,0.0],[-163.193,-13.2797,0.0],[-163.1919,-13.2784,0.0],[-163.1931,-13.2778,0.0]]],
[[[-163.1794,-13.2439,1.0243],[-163.1781,-13.2433,1.0243],[-163.1828,-13.2389,0.4159],[-163.1839,-13.2411,1.9698],[-163.1794,-13.2439,1.0243]]],
[[[-163.1161,-13.2406,0.0],[-163.1203,-13.2372,0.0],[-163.1219,-13.2386,0.2791],[-163.1144,-13.2442,0.627],[-163.1133,-13.2423,0.0],[-163.1161,-13.2406,0.0]]],
[[[-163.1276,-13.2271,0.9837],[-163.1269,-13.2286,0.0],[-163.1258,-13.2281,0.0],[-163.1289,-13.2219,0.154],[-163.1272,-13.2264,0.9837],[-163.1276,-13.2271,0.9837]]],
[[[-163.1964,-13.2742,1.8835],[-163.1997,-13.2714,7.4324],[-163.2017,-13.2738,3.001],[-163.1942,-13.2761,0.0],[-163.1964,-13.2742,1.8835]]],
[[[-165.412,-11.5567,1.8188],[-165.4161,-11.555,4.8989],[-165.4214,-11.5575,0.794],[-165.4197,-11.5611,8.5519],[-165.4138,-11.5667,0.0],[-165.4089,-11.5642,6.8365],[-165.4097,-11.5592,0.8998],[-165.412,-11.5567,1.8188]]],
[[[-165.8309,-10.9133,0.8598],[-165.8306,-10.9106,1.087],[-165.8401,-10.9005,0.0],[-165.8427,-10.9022,8.5846],[-165.8387,-10.9086,0.0],[-165.8396,-10.9106,1.6506],[-165.8481,-10.9108,1.1898],[-165.8502,-10.9074,0.0],[-165.8519,-10.9086,9.2489],[-165.8496,-10.9134,1.9536],[-165.846,-10.9158,3.9945],[-165.8344,-10.9149,0.0],[-165.8309,-10.9133,0.8598]]],
[[[-165.8683,-10.8911,0.0],[-165.8711,-10.8906,0.0],[-165.8794,-10.8936,0.5985],[-165.8655,-10.8961,7.4447],[-165.8647,-10.8941,0.0],[-165.8683,-10.8911,0.0]]],
[[[-165.8448,-10.8888,0.9399],[-165.8429,-10.8884,0.9399],[-165.8444,-10.8846,1.7158],[-165.8455,-10.8853,0.0],[-165.8448,-10.8888,0.9399]]],
[[[-165.845,-10.8734,0.0],[-165.8433,-10.8733,0.8567],[-165.8426,-10.869,0.0],[-165.8449,-10.8695,0.0],[-165.845,-10.8734,0.0]]],
[[[-165.8332,-10.8477,1.0818],[-165.8358,-10.8453,4.3549],[-165.8462,-10.8481,5.8704],[-165.8502,-10.8509,7.4077],[-165.8475,-10.8549,0.0],[-165.845,-10.8525,2.8891],[-165.8423,-10.8534,4.3726],[-165.843,-10.8594,0.0],[-165.8417,-10.86,0.4975],[-165.8356,-10.8534,4.3446],[-165.8332,-10.8477,1.0818]]]]}}