{"type":"Feature","properties":{"GID_2":"WLF.3.2_1","GID_0":"WLF","country":"WallisandFutuna","GID_1":"WLF.3_1","province":"Uvéa","NL_NAME_1":"NA","county":"Hihifo","VARNAME_2":"NA","NL_NAME_2":"NA","TYPE_2":"District","ENGTYPE_2":"District","CC_2":"NA","HASC_2":"WF.UV.HI","name":"Hihifo.county"},
"geometry":{"type": "MultiPolygon","coordinates": [[[[-176.1683,-13.2636,28.9188],[-176.1644,-13.2631,1.6903],[-176.1672,-13.2528,0.0],[-176.1742,-13.2517,10.4998],[-176.1764,-13.2494,0.1474],[-176.1758,-13.2475,0.0],[-176.1789,-13.245,1.8612],[-176.1806,-13.2369,0.0],[-176.1847,-13.2322,-0.5779],[-176.1842,-13.2303,-0.3532],[-176.188,-13.2242,0.0],[-176.1906,-13.2244,0.0],[-176.2,-13.2186,0.0151],[-176.2133,-13.2233,3.4611],[-176.2142,-13.2269,0.7104],[-176.2211,-13.2344,0.0],[-176.2206,-13.2375,0.0],[-176.2244,-13.2467,0.0],[-176.2233,-13.2492,7.3715],[-176.2269,-13.2544,0.0],[-176.2256,-13.2569,21.0843],[-176.2272,-13.2611,0.0],[-176.2242,-13.2647,0.0],[-176.2242,-13.268,0.0746],[-176.1851,-13.2574,73.3911],[-176.1749,-13.2644,120.2486],[-176.1683,-13.2636,28.9188]]],
[[[-176.1681,-13.2181,2.8392],[-176.1703,-13.2189,3.8962],[-176.1686,-13.2211,0.0],[-176.1675,-13.2203,1.6456],[-176.1681,-13.2181,2.8392]]],
[[[-176.1981,-13.1864,7.4327],[-176.1997,-13.1844,0.0],[-176.2022,-13.1894,0.1638],[-176.1992,-13.1883,4.7055],[-176.1922,-13.1961,0.0],[-176.1897,-13.1956,0.0],[-176.1894,-13.1978,0.0],[-176.1875,-13.1975,0.0],[-176.1764,-13.2081,0.0],[-176.1722,-13.2081,0.0],[-176.1931,-13.1872,0.0],[-176.1942,-13.1881,2.9188],[-176.1981,-13.1864,7.4327]]],
[[[-176.205,-13.1872,0.0],[-176.2036,-13.1861,4.938],[-176.2039,-13.1828,0.0],[-176.2056,-13.1839,0.0],[-176.205,-13.1872,0.0]]]]}}