{"type":"Feature","properties":{"GID_3":"ASM.4.4.7_1","GID_0":"ASM","country":"AmericanSamoa","GID_1":"ASM.4_1","state":"Western","NL_NAME_1":"NA","GID_2":"ASM.4.4_1","county":"Tualauta","NL_NAME_2":"NA","city":"Tafuna","VARNAME_3":"NA","NL_NAME_3":"NA","TYPE_3":"Village","ENGTYPE_3":"Village","CC_3":"NA","HASC_3":"NA","name":"Tafuna.city"},
"geometry":{"type": "MultiPolygon","coordinates": [[[[-170.7321,-14.3207,40.0563],[-170.7366,-14.3243,37.7111],[-170.7456,-14.3398,56.0537],[-170.7361,-14.3418,30.9415],[-170.7193,-14.3382,0.0],[-170.7134,-14.3361,1.7439],[-170.7021,-14.3268,1.7436],[-170.7125,-14.3235,0.4573],[-170.7147,-14.3188,0.0],[-170.7213,-14.3216,13.2089],[-170.7257,-14.3194,20.9249],[-170.7321,-14.3207,40.0563]]]]}}