{"type":"Feature","properties":{"GID_1":"WSM.2_1","GID_0":"WSM","country":"Samoa","province":"Aiga-i-le-Tai","VARNAME_1":"NA","NL_NAME_1":"NA","TYPE_1":"Itumalo","ENGTYPE_1":"District","CC_1":"NA","HASC_1":"WS.AL","ISO_1":"NA","name":"Aiga-i-le-Tai.province"},
"geometry":{"type": "MultiPolygon","coordinates": [[[[-172.0591,-13.8681,20.7685],[-172.0605,-13.8619,3.0302],[-172.0631,-13.8595,0.468],[-172.0732,-13.8659,0.0],[-172.0722,-13.8739,0.0],[-172.0692,-13.8769,4.304],[-172.0656,-13.885,0.4734],[-172.0669,-13.8922,2.2501],[-172.0652,-13.8898,8.5325],[-172.0602,-13.894,6.8317],[-172.0507,-13.8837,35.7573],[-172.0577,-13.8759,27.7171],[-172.0591,-13.8681,20.7685]]],
[[[-172.0534,-13.8719,37.3637],[-172.0493,-13.8769,41.8909],[-172.0507,-13.8837,35.7573],[-172.039,-13.8912,62.4492],[-172.032,-13.8932,59.4974],[-172.0289,-13.8868,61.828],[-172.0245,-13.8896,77.1791],[-172.0216,-13.8884,107.6995],[-172.0214,-13.8855,125.3193],[-172.0168,-13.8797,170.7218],[-172.0188,-13.8757,186.2687],[-172.0109,-13.8709,218.0605],[-172.0174,-13.8574,122.7539],[-172.0207,-13.8567,113.0821],[-172.025,-13.8503,64.5399],[-172.0346,-13.8296,1.6237],[-172.0375,-13.8303,0.0],[-172.0447,-13.8428,0.0],[-172.0542,-13.8481,1.4553],[-172.0589,-13.8528,3.6214],[-172.0472,-13.8645,55.5977],[-172.0534,-13.8719,37.3637]]],
[[[-172.1032,-13.8469,1.7371],[-172.1081,-13.8404,1.3293],[-172.1227,-13.8455,19.2394],[-172.1186,-13.8477,7.7201],[-172.1161,-13.8555,1.5612],[-172.1054,-13.8616,0.0],[-172.1009,-13.8508,2.9508],[-172.1032,-13.8469,1.7371]]],
[[[-172.1484,-13.8189,2.9737],[-172.1527,-13.8184,0.0],[-172.1553,-13.8198,1.3466],[-172.1562,-13.827,0.0],[-172.1523,-13.8297,0.0],[-172.1492,-13.8288,0.0],[-172.1458,-13.8242,4.7741],[-172.1459,-13.8208,0.0],[-172.1484,-13.8189,2.9737]]]]}}