{"type": "Feature","id": "4986","bbox": [-172.06367,-13.91522,-171.97224,-13.82821],"geometry": {"type": "Polygon","coordinates": [[[-172.04064,-13.91522,0.0],[-171.97224,-13.87296,352.3851],[-171.99261,-13.82821,1.2783],[-172.02805,-13.84072,40.5942],[-172.01801,-13.86381,153.9891],[-172.03174,-13.87067,102.8793],[-172.05561,-13.86191,16.4335],[-172.06367,-13.88502,5.0488],[-172.06102,-13.90618,0.0],[-172.04064,-13.91522,0.0]]]}
,"properties": {"ISO3166-1-Alpha-3": "WSM","country": "Samoa","fill": "#FF0","name": "Aiga-i-le-Tai","area_km2": 49.44193,"hist_schema_id": "Elevation0-9000","hist_area_km2": {"0": 4.01342,"25": 6.60712,"50": 8.29523,"75": 6.01056,"100": 4.85791,"125": 3.45815,"150": 3.10821,"175": 2.63475,"200": 2.01722,"225": 1.95548,"250": 1.35854,"275": 1.1527,"300": 0.90569,"325": 0.88511,"350": 1.09094,"375": 0.51459,"400": 0.39108,"425": 0.14408,"450": 0.04117}}}