{"type": "Feature","bbox": [-169.6285,-14.1913,-169.6065,-14.1695],"geometry": {"type": "MultiPolygon","coordinates": [[[[-169.61,-14.1703,0.0],[-169.6135,-14.1727,203.2889],[-169.6285,-14.1695,71.1453],[-169.6161,-14.1889,8.0598],[-169.6123,-14.1913,0.0],[-169.6065,-14.1797,66.4769],[-169.61,-14.1703,0.0]]]]}
,"properties": {"GID_3": "ASM.2.4.1_1","GID_0": "ASM","country": "AmericanSamoa","GID_1": "ASM.2_1","state": "Manu'a","NL_NAME_1": "NA","GID_2": "ASM.2.4_1","county": "Olosega","NL_NAME_2": "NA","city": "Olosega","VARNAME_3": "NA","NL_NAME_3": "NA","TYPE_3": "Village","ENGTYPE_3": "Village","CC_3": "NA","HASC_3": "NA","name": "Olosega.city","area_km2": 2.857325,"hist_schema_id": "Elevation0-9000","hist_area_km2": {"0": 0.349456,"25": 0.185005,"50": 0.123337,"75": 0.143892,"100": 0.082224,"125": 0.20556,"150": 0.328898,"175": 0.267235,"200": 0.185006,"225": 0.185008,"250": 0.10278,"275": 0.143894,"300": 0.102782,"325": 0.102783,"350": 0.082227,"375": 0.041113,"400": 0.082227,"425": 0.020557,"450": 0.041114,"475": 0.041114,"500": 0.020557,"525": 0.020557}}}