{"type": "Feature","bbox": [-172.3906,-13.6382,-172.2592,-13.4497],"geometry": {"type": "MultiPolygon","coordinates": [[[[-172.3469,-13.6215,911.2972],[-172.3265,-13.5989,638.8117],[-172.3237,-13.5909,577.9682],[-172.2961,-13.583,347.6473],[-172.2592,-13.5663,128.4302],[-172.2592,-13.5198,6.7315],[-172.2636,-13.5137,20.1961],[-172.2632,-13.5107,9.6302],[-172.2653,-13.5081,10.609],[-172.2701,-13.5077,0.0],[-172.2735,-13.5051,9.0448],[-172.2781,-13.4977,0.0],[-172.284,-13.4926,1.6628],[-172.2904,-13.4793,4.4747],[-172.3026,-13.465,11.7728],[-172.3057,-13.4593,0.0],[-172.3192,-13.4497,4.0497],[-172.3251,-13.4588,20.419],[-172.3424,-13.5296,270.4457],[-172.3508,-13.533,340.6287],[-172.3615,-13.5461,519.0598],[-172.3737,-13.576,817.9668],[-172.3906,-13.6112,1104.2491],[-172.3603,-13.6382,964.2706],[-172.3469,-13.6215,911.2972]]]]}
,"properties": {"GID_2": "WSM.5.2_1","GID_0": "WSM","country": "Samoa","GID_1": "WSM.5_1","province": "Gaga'emauga","NL_NAME_1": "NA","county": "GagaemaugaI","VARNAME_2": "NA","NL_NAME_2": "NA","TYPE_2": "Unknown","ENGTYPE_2": "Unknown","CC_2": "NA","HASC_2": "NA","name": "Gagaemauga_I.county","area_km2": 139.3802,"hist_schema_id": "Elevation0-9000","hist_area_km2": {"0": 2.0412,"25": 11.8139,"50": 11.2359,"75": 9.2358,"100": 9.0497,"125": 8.2455,"150": 7.9154,"175": 6.3075,"200": 4.9469,"225": 4.2873,"250": 4.0398,"275": 4.1016,"300": 3.4215,"325": 2.3084,"350": 2.4115,"375": 2.2054,"400": 2.0199,"425": 1.6695,"450": 1.7313,"475": 2.0198,"500": 1.6282,"525": 1.7107,"550": 1.6282,"575": 1.7931,"600": 1.6488,"625": 1.8961,"650": 1.6693,"675": 1.4632,"700": 1.5045,"725": 1.3396,"750": 1.2159,"775": 1.2159,"800": 1.1747,"825": 1.4013,"850": 1.5868,"875": 1.8547,"900": 2.4729,"925": 2.3698,"950": 2.0813,"975": 1.8958,"1000": 1.3394,"1025": 1.154,"1050": 1.0303,"1075": 0.8449,"1100": 0.4121,"1125": 0.0412}}}