{"type": "Feature","bbox": [-170.5787,-14.2592,-170.563,-14.246],"geometry": {"type": "MultiPolygon","coordinates": [[[[-170.5632,-14.2562,0.0],[-170.5642,-14.2501,6.6142],[-170.563,-14.246,8.8955],[-170.5682,-14.2478,0.0],[-170.5787,-14.2478,9.2019],[-170.5749,-14.2592,199.205],[-170.5632,-14.2562,0.0]]]]}
,"properties": {"GID_3": "ASM.1.5.4_1","GID_0": "ASM","country": "AmericanSamoa","GID_1": "ASM.1_1","state": "Eastern","NL_NAME_1": "NA","GID_2": "ASM.1.5_1","county": "Vaifanua","NL_NAME_2": "NA","city": "Tula","VARNAME_3": "NA","NL_NAME_3": "NA","TYPE_3": "Village","ENGTYPE_3": "Village","CC_3": "NA","HASC_3": "NA","name": "Tula.city","area_km2": 1.664518,"hist_schema_id": "Elevation0-9000","hist_area_km2": {"0": 0.410994,"25": 0.205498,"50": 0.267146,"75": 0.205495,"100": 0.246594,"125": 0.226045,"150": 0.041099,"175": 0.061647}}}