{"type":"Feature","properties":{"GID_2":"ASM.4.4_1","GID_0":"ASM","country":"AmericanSamoa","GID_1":"ASM.4_1","state":"Western","NL_NAME_1":"NA","county":"Tualauta","VARNAME_2":"NA","NL_NAME_2":"NA","TYPE_2":"County","ENGTYPE_2":"County","CC_2":"NA","HASC_2":"AS.WT.TU","name":"Tualauta.county"},
"geometry":{"type": "MultiPolygon","coordinates": [[[[-170.7545,-14.3407,90.9455],[-170.7507,-14.36,0.0],[-170.7428,-14.3655,5.8347],[-170.7389,-14.3635,6.1981],[-170.7367,-14.3593,18.4552],[-170.7211,-14.3441,2.8351],[-170.7193,-14.3382,0.0],[-170.7134,-14.3361,1.7439],[-170.7021,-14.3268,1.7436],[-170.7125,-14.3235,0.4573],[-170.7147,-14.3188,0.0],[-170.7213,-14.3216,13.2089],[-170.7257,-14.3194,20.9249],[-170.7321,-14.3207,40.0563],[-170.7366,-14.3243,37.7111],[-170.744,-14.3247,50.9232],[-170.7448,-14.3188,193.9691],[-170.748,-14.3126,283.7646],[-170.762,-14.3185,288.85],[-170.7619,-14.3273,229.721],[-170.7592,-14.3319,165.0011],[-170.76,-14.3393,127.7144],[-170.7545,-14.3407,90.9455]]]]}}