{"type": "Feature","bbox": [-171.2711,-9.4436,-171.1814,-9.3247],"geometry": {"type": "MultiPolygon","coordinates": [[[[-171.2019,-9.4397,7.0232],[-171.1983,-9.435,0.0],[-171.1986,-9.4319,0.481],[-171.2019,-9.4364,4.6569],[-171.2079,-9.439,0.369],[-171.2078,-9.4435,0.0],[-171.2053,-9.4436,4.3926],[-171.2019,-9.4397,7.0232]]],
[[[-171.2147,-9.4211,0.0],[-171.2153,-9.4222,0.2466],[-171.2142,-9.4222,0.2466],[-171.2119,-9.42,0.6251],[-171.2125,-9.4194,0.0],[-171.2147,-9.4211,0.0]]],
[[[-171.1967,-9.3964,0.0],[-171.1978,-9.3953,3.0401],[-171.2004,-9.3957,1.9338],[-171.1997,-9.3967,0.0],[-171.1967,-9.3964,0.0]]],
[[[-171.1964,-9.3925,0.0],[-171.1967,-9.39,0.0],[-171.2013,-9.3908,0.0],[-171.2005,-9.3939,3.416],[-171.1964,-9.3925,0.0]]],
[[[-171.2167,-9.4176,0.0],[-171.2171,-9.4182,6.0022],[-171.2181,-9.4194,0.1957],[-171.2147,-9.4183,0.0],[-171.2167,-9.4176,0.0]]],
[[[-171.2275,-9.4064,0.8335],[-171.2261,-9.4083,0.0],[-171.2244,-9.4064,0.5853],[-171.2269,-9.4058,0.0],[-171.2275,-9.4064,0.8335]]],
[[[-171.2345,-9.3956,0.6029],[-171.2369,-9.3939,0.0],[-171.2389,-9.395,0.0],[-171.2364,-9.3978,0.0],[-171.2345,-9.3956,0.6029]]],
[[[-171.2469,-9.3839,0.6514],[-171.2497,-9.3839,0.3335],[-171.2486,-9.3869,0.0],[-171.2458,-9.3856,0.0],[-171.2469,-9.3839,0.6514]]],
[[[-171.2592,-9.3764,0.321],[-171.2594,-9.3778,0.321],[-171.2575,-9.3767,3.0418],[-171.2581,-9.3756,0.0],[-171.2592,-9.3764,0.321]]],
[[[-171.2625,-9.3736,0.0],[-171.2686,-9.3731,3.5554],[-171.2711,-9.376,11.2208],[-171.2703,-9.3783,0.0],[-171.2592,-9.375,1.6617],[-171.2625,-9.3736,0.0]]],
[[[-171.1953,-9.4294,1.2508],[-171.1969,-9.4286,1.2508],[-171.1983,-9.4295,0.0],[-171.195,-9.4314,0.0],[-171.1953,-9.4294,1.2508]]],
[[[-171.1955,-9.3997,0.0],[-171.1975,-9.3978,0.0],[-171.2005,-9.3987,4.2111],[-171.1982,-9.4089,2.8212],[-171.1997,-9.4133,1.5105],[-171.1967,-9.4164,4.5272],[-171.1958,-9.4206,0.0],[-171.1967,-9.4278,1.4401],[-171.1931,-9.426,6.7115],[-171.1918,-9.4222,0.0],[-171.1945,-9.4146,0.0],[-171.1955,-9.3997,0.0]]],
[[[-171.1939,-9.375,6.4867],[-171.1956,-9.3744,0.0],[-171.1973,-9.3762,0.0],[-171.1933,-9.3778,1.3285],[-171.1939,-9.375,6.4867]]],
[[[-171.1889,-9.3675,1.7397],[-171.1928,-9.3665,1.985],[-171.1936,-9.3706,0.0],[-171.1908,-9.3722,0.0],[-171.1889,-9.3675,1.7397]]],
[[[-171.1894,-9.3633,5.2998],[-171.1906,-9.3625,1.8147],[-171.1919,-9.3649,0.0],[-171.1872,-9.365,1.8057],[-171.1894,-9.3633,5.2998]]],
[[[-171.1972,-9.3806,1.653],[-171.1989,-9.3803,1.653],[-171.1992,-9.3817,0.0],[-171.1967,-9.3836,0.2652],[-171.1964,-9.3814,0.0],[-171.1972,-9.3806,1.653]]],
[[[-171.2056,-9.3278,0.0],[-171.2097,-9.3247,1.7221],[-171.2127,-9.3251,2.2107],[-171.2145,-9.3278,0.0],[-171.2092,-9.3281,7.4288],[-171.1947,-9.3428,11.0025],[-171.1853,-9.3561,0.0],[-171.1857,-9.3591,0.0],[-171.1902,-9.3608,2.4943],[-171.1885,-9.363,2.1055],[-171.1864,-9.3628,5.6194],[-171.1814,-9.3589,0.0],[-171.1817,-9.3564,0.0],[-171.1944,-9.3383,0.0],[-171.2056,-9.3278,0.0]]]]}
,"properties": {"GID_1": "TKL.2_1","GID_0": "TKL","country": "Tokelau","province": "Fakaofo","VARNAME_1": "NA","NL_NAME_1": "NA","TYPE_1": "Atoll","ENGTYPE_1": "Atoll","CC_1": "NA","HASC_1": "TK.FA","ISO_1": "NA","name": "Fakaofo.province","area_km2": 5.125072,"hist_schema_id": "Elevation0-9000","hist_area_km2": {"0": 4.246437,"25": 0.878634}}}