{"type":"Feature","properties":{"GID_2":"ASM.4.1_2","GID_0":"ASM","country":"AmericanSamoa","GID_1":"ASM.4_1","state":"Western","NL_NAME_1":"NA","county":"Lealataua","VARNAME_2":"NA","NL_NAME_2":"NA","TYPE_2":"County","ENGTYPE_2":"County","CC_2":"NA","HASC_2":"AS.WT.LL","name":"Lealataua.county"},
"geometry":{"type": "MultiPolygon","coordinates": [[[[-170.8181,-14.3321,8.0279],[-170.808,-14.3273,3.2214],[-170.8046,-14.3319,6.9662],[-170.7901,-14.3355,0.0],[-170.7838,-14.3144,382.9616],[-170.7904,-14.3111,387.4443],[-170.7921,-14.294,138.6147],[-170.7986,-14.2896,16.956],[-170.8087,-14.2937,0.0],[-170.8119,-14.299,12.3831],[-170.8163,-14.3015,68.6752],[-170.8207,-14.3001,6.3012],[-170.8332,-14.3111,0.0],[-170.834,-14.3158,0.0],[-170.8382,-14.3202,73.07],[-170.844,-14.3227,8.2694],[-170.8377,-14.3257,0.0],[-170.8324,-14.3257,0.5576],[-170.8292,-14.3292,0.0],[-170.8181,-14.3321,8.0279]]]]}}