{"type": "Feature","bbox": [-170.7901,-14.3393,-170.7836,-14.3281],"geometry": {"type": "MultiPolygon","coordinates": [[[[-170.7874,-14.3393,2.518],[-170.7836,-14.3313,44.6388],[-170.7875,-14.3281,132.6489],[-170.7901,-14.3355,0.0],[-170.7874,-14.3393,2.518]]]]}
,"properties": {"GID_3": "ASM.4.5.1_1","GID_0": "ASM","country": "AmericanSamoa","GID_1": "ASM.4_1","state": "Western","NL_NAME_1": "NA","GID_2": "ASM.4.5_1","county": "Fofo","NL_NAME_2": "NA","city": "Auma","VARNAME_3": "NA","NL_NAME_3": "NA","TYPE_3": "Village","ENGTYPE_3": "Village","CC_3": "NA","HASC_3": "NA","name": "Auma.city","area_km2": 0.4313866,"hist_schema_id": "Elevation0-9000","hist_area_km2": {"0": 0.1643359,"25": 0.0410844,"50": 0.0821691,"75": 0.0821695,"100": 0.041085,"125": 0.0205426}}}