{"type":"Feature","properties":{"GID_3":"ASM.1.1.3_1","GID_0":"ASM","country":"AmericanSamoa","GID_1":"ASM.1_1","state":"Eastern","NL_NAME_1":"NA","GID_2":"ASM.1.1_1","county":"Ituau","NL_NAME_2":"NA","city":"Matu'u","VARNAME_3":"NA","NL_NAME_3":"NA","TYPE_3":"Village","ENGTYPE_3":"Village","CC_3":"NA","HASC_3":"NA","name":"Matu'u.city"},
"geometry":{"type": "MultiPolygon","coordinates": [[[[-170.687,-14.3001,61.7313],[-170.6806,-14.3002,0.0],[-170.6785,-14.2964,83.3375],[-170.6914,-14.2922,132.7978],[-170.7019,-14.2931,549.8851],[-170.6976,-14.2958,390.8734],[-170.687,-14.3001,61.7313]]]]}}