{"type": "Feature","bbox": [-172.4421,-13.6166,-172.3831,-13.4498],"geometry": {"type": "MultiPolygon","coordinates": [[[[-172.3896,-13.5816,963.415],[-172.39,-13.518,410.034],[-172.3884,-13.4808,187.535],[-172.3831,-13.4742,146.0448],[-172.4065,-13.4721,80.6402],[-172.4148,-13.4498,2.5652],[-172.4204,-13.4658,8.8277],[-172.4247,-13.4681,0.0],[-172.4383,-13.4683,6.752],[-172.4403,-13.4748,45.6313],[-172.4421,-13.6166,1649.8564],[-172.4262,-13.6135,1401.5371],[-172.3921,-13.6106,1104.2491],[-172.3896,-13.5816,963.415]]]]}
,"properties": {"GID_2": "WSM.6.2_1","GID_0": "WSM","country": "Samoa","GID_1": "WSM.6_1","province": "Gagaifomauga","NL_NAME_1": "NA","county": "GagaifomaugaII","VARNAME_2": "NA","NL_NAME_2": "NA","TYPE_2": "Unknown","ENGTYPE_2": "Unknown","CC_2": "NA","HASC_2": "NA","name": "Gagaifomauga_I_I.county","area_km2": 89.56317,"hist_schema_id": "Elevation0-9000","hist_area_km2": {"0": 0.82476,"25": 1.38148,"50": 1.36084,"75": 1.85568,"100": 1.85564,"125": 1.9793,"150": 2.4741,"175": 2.32977,"200": 2.9276,"225": 2.68017,"250": 2.6595,"275": 2.577,"300": 2.68005,"325": 2.28832,"350": 1.93783,"375": 1.95841,"400": 1.60792,"425": 1.175,"450": 1.0307,"475": 1.01007,"500": 0.78332,"525": 0.96884,"550": 1.11313,"575": 1.23679,"600": 1.23678,"625": 1.09248,"650": 1.42229,"675": 1.56656,"700": 1.40165,"725": 1.3604,"750": 1.40162,"775": 1.38099,"800": 1.09242,"825": 1.0924,"850": 1.23667,"875": 1.05116,"900": 1.15421,"925": 1.42214,"950": 1.50456,"975": 2.432,"1000": 2.98843,"1025": 2.08157,"1050": 1.5457,"1075": 1.68993,"1100": 1.68991,"1125": 1.52502,"1150": 1.83414,"1175": 1.31892,"1200": 1.33953,"1225": 1.09222,"1250": 0.96857,"1275": 0.86553,"1300": 0.82431,"1325": 0.84491,"1350": 0.72126,"1375": 0.70065,"1400": 0.68004,"1425": 0.53579,"1450": 0.41215,"1475": 0.45336,"1500": 0.43275,"1525": 0.20607,"1550": 0.08243,"1575": 0.14425,"1600": 0.04121}}}