{"type": "Feature","bbox": [-176.2138,-22.3497,-174.9003,-21.2819],"geometry": {"type": "MultiPolygon","coordinates": [[[[-176.205,-22.3325,0.0],[-176.2138,-22.3358,14.6894],[-176.2128,-22.3436,0.0],[-176.2064,-22.3497,0.0],[-176.2017,-22.3472,25.0383],[-176.1969,-22.3408,0.0],[-176.205,-22.3325,0.0]]],
[[[-174.9528,-21.4667,1.7608],[-174.955,-21.4664,0.0],[-174.9581,-21.4703,0.0],[-174.955,-21.475,0.0],[-174.9506,-21.4739,0.0],[-174.9492,-21.4719,0.0],[-174.9494,-21.4689,0.0],[-174.9528,-21.4667,1.7608]]],
[[[-174.9181,-21.2819,0.0],[-174.9211,-21.2822,0.0],[-174.9333,-21.2961,0.0],[-174.9386,-21.3144,0.0],[-174.9419,-21.3167,0.0],[-174.9447,-21.3256,9.9716],[-174.9589,-21.3386,0.0],[-174.9603,-21.3438,2.3829],[-174.9635,-21.3462,0.0],[-174.9733,-21.3669,0.0],[-174.9767,-21.3864,0.0],[-174.9708,-21.4008,16.0517],[-174.9711,-21.4058,0.0],[-174.9622,-21.4114,2.7177],[-174.9617,-21.4136,0.0],[-174.953,-21.4222,3.1025],[-174.9522,-21.4275,0.0],[-174.9403,-21.4319,0.0],[-174.9139,-21.4558,0.0],[-174.9082,-21.4581,0.0],[-174.9022,-21.4516,0.0],[-174.9003,-21.4408,0.0],[-174.9031,-21.4242,0.0],[-174.9051,-21.4223,112.0111],[-174.9033,-21.4211,0.0],[-174.9031,-21.4139,41.5604],[-174.9014,-21.4122,0.0],[-174.9039,-21.4072,92.8493],[-174.9017,-21.4047,0.0],[-174.9014,-21.4006,0.0],[-174.9025,-21.3895,0.0],[-174.9047,-21.3858,0.0],[-174.9055,-21.3797,0.0],[-174.9033,-21.3658,0.0],[-174.9065,-21.3477,0.0],[-174.9083,-21.3442,2.1488],[-174.9058,-21.3328,0.0],[-174.9139,-21.311,14.8686],[-174.9145,-21.3017,0.0],[-174.9111,-21.295,0.0],[-174.9113,-21.2908,19.2873],[-174.9142,-21.2867,56.8138],[-174.9133,-21.2844,0.0],[-174.9181,-21.2819,0.0]]]]}
,"properties": {"GID_1": "TON.1_1","GID_0": "TON","country": "Tonga","province": "'Eua","VARNAME_1": "NA","NL_NAME_1": "NA","TYPE_1": "IslandGroup","ENGTYPE_1": "IslandGroup","CC_1": "NA","HASC_1": "TO.EU","ISO_1": "NA","name": "'Eua.province","area_km2": 95.40656,"hist_schema_id": "Elevation0-9000","hist_area_km2": {"0": 6.86828,"25": 5.54755,"50": 6.51452,"75": 12.49588,"100": 16.62343,"125": 17.29284,"150": 8.31037,"175": 6.57388,"200": 3.21738,"225": 4.204,"250": 4.69843,"275": 2.27032,"300": 0.75019,"325": 0.01974,"350": 0.01974}}}