{"type": "Feature","id": "4949","bbox": [-174.98363,-21.4542,-174.90852,-21.28444],"geometry": {"type": "Polygon","coordinates": [[[-174.91474,-21.29217,95.1258],[-174.91841,-21.28444,19.0543],[-174.92614,-21.29461,106.8727],[-174.93354,-21.3095,98.2527],[-174.93586,-21.31569,88.6576],[-174.94551,-21.33213,35.7125],[-174.95185,-21.33978,35.4976],[-174.97175,-21.34791,0.0],[-174.97688,-21.35955,0.0],[-174.97582,-21.37314,0.0],[-174.96996,-21.38397,63.358],[-174.97969,-21.38942,0.0],[-174.98363,-21.39088,0.0],[-174.98363,-21.39772,0.0],[-174.9549,-21.41806,0.0],[-174.94221,-21.43027,0.0],[-174.93586,-21.44549,0.0],[-174.92028,-21.4542,0.0],[-174.91393,-21.44411,136.6007],[-174.91474,-21.38144,284.0205],[-174.90905,-21.3445,2.1488],[-174.90852,-21.32936,3.8992],[-174.91474,-21.29217,95.1258]]]}
,"properties": {"ISO3166-1-Alpha-3": "TON","country": "Tonga","fill": "#F0F","name": "'Eua","area_km2": 78.89646,"hist_schema_id": "Elevation0-9000","hist_area_km2": {"0": 7.4823,"25": 3.09963,"50": 4.5017,"75": 10.34586,"100": 15.10545,"125": 15.95181,"150": 5.44983,"175": 5.39083,"200": 2.64558,"225": 3.47465,"250": 3.09947,"275": 1.81629,"300": 0.53306}}}