{"type":"Feature","properties":{"GID_3":"ASM.1.1.2_1","GID_0":"ASM","country":"AmericanSamoa","GID_1":"ASM.1_1","state":"Eastern","NL_NAME_1":"NA","GID_2":"ASM.1.1_1","county":"Ituau","NL_NAME_2":"NA","city":"Fagasa","VARNAME_3":"NA","NL_NAME_3":"NA","TYPE_3":"Village","ENGTYPE_3":"Village","CC_3":"NA","HASC_3":"NA","name":"Fagasa.city"},
"geometry":{"type": "MultiPolygon","coordinates": [[[[-170.7185,-14.2972,425.9694],[-170.7106,-14.2847,156.4449],[-170.7141,-14.2787,310.4827],[-170.7222,-14.274,0.0],[-170.7235,-14.2804,53.5666],[-170.7224,-14.2852,0.0],[-170.7321,-14.2827,0.0],[-170.7371,-14.2854,0.0],[-170.7403,-14.2902,0.0],[-170.7316,-14.2974,326.699],[-170.7185,-14.2972,425.9694]]]]}}