{"type": "Feature","bbox": [-170.6328,-14.2796,-170.6247,-14.2664],"geometry": {"type": "MultiPolygon","coordinates": [[[[-170.6328,-14.2664,300.6354],[-170.6305,-14.2796,6.5195],[-170.6247,-14.2748,0.0],[-170.6328,-14.2664,300.6354]]]]}
,"properties": {"GID_3": "ASM.1.4.5_1","GID_0": "ASM","country": "AmericanSamoa","GID_1": "ASM.1_1","state": "Eastern","NL_NAME_1": "NA","GID_2": "ASM.1.4_1","county": "Sua","NL_NAME_2": "NA","city": "Auto","VARNAME_3": "NA","NL_NAME_3": "NA","TYPE_3": "Village","ENGTYPE_3": "Village","CC_3": "NA","HASC_3": "NA","name": "Auto.city","area_km2": 0.534239,"hist_schema_id": "Elevation0-9000","hist_area_km2": {"0": 0.1232847,"25": 0.041095,"50": 0.1027369,"75": 0.0205478,"100": 0.0616432,"125": 0.0616433,"150": 0.0410956,"175": 0.020548,"275": 0.0616445}}}