{"type":"Feature","properties":{"ISO3166-1-Alpha-3":"PYF","country":"French Polynesia","fill":"#F0F","id":"4963","name":"Windward Islands"},
"geometry":{"type": "MultiPolygon","coordinates": [[[[-150.64033,-17.66611,0.0],[-150.64318,-17.65545,6.9036],[-150.65526,-17.66872,0.0],[-150.64497,-17.67799,0.0],[-150.64033,-17.66611,0.0]]],
[[[-149.30394,-17.71209,0.0],[-149.32746,-17.68418,291.0599],[-149.33027,-17.66375,67.6528],[-149.32746,-17.59783,263.1062],[-149.32966,-17.57985,245.11],[-149.33556,-17.56406,47.8576],[-149.34406,-17.55071,162.5466],[-149.35412,-17.54013,28.1008],[-149.38764,-17.518,0.0],[-149.42951,-17.50156,0.0],[-149.47496,-17.49407,0.0],[-149.51924,-17.49847,0.0],[-149.56408,-17.51002,0.0],[-149.60432,-17.52581,0.0],[-149.63276,-17.5534,0.0],[-149.64216,-17.60084,0.0],[-149.63866,-17.61891,0.0],[-149.63097,-17.63934,0.0],[-149.62121,-17.65618,0.0],[-149.61177,-17.66302,0.0],[-149.60505,-17.67181,0.0],[-149.58751,-17.73122,0.0],[-149.57612,-17.73756,54.6993],[-149.51924,-17.74619,225.6208],[-149.48786,-17.75799,8.6483],[-149.47204,-17.76051,35.0412],[-149.45039,-17.75921,66.5403],[-149.39192,-17.74139,320.3363],[-149.37182,-17.7387,112.2649],[-149.3662,-17.73431,219.8226],[-149.36254,-17.72527,339.7924],[-149.35753,-17.71787,201.6038],[-149.34797,-17.71819,333.1898],[-149.34345,-17.72487,141.7786],[-149.3343,-17.75921,0.0],[-149.30866,-17.80364,0.0],[-149.27595,-17.8449,0.0],[-149.26085,-17.85174,0.0],[-149.20641,-17.86663,93.4329],[-149.1903,-17.86907,121.4898],[-149.15644,-17.84629,231.6726],[-149.14912,-17.80202,457.8031],[-149.16063,-17.75693,13.9364],[-149.18346,-17.73122,0.0],[-149.2633,-17.72283,0.0],[-149.30394,-17.71209,0.0]]],
[[[-149.78563,-17.47918,16.0501],[-149.78612,-17.46893,0.0],[-149.7967,-17.46445,0.0],[-149.81086,-17.46461,0.0],[-149.82311,-17.46657,0.0],[-149.83165,-17.47275,0.0],[-149.83458,-17.48496,2.1233],[-149.84581,-17.47796,0.0],[-149.85363,-17.47918,0.0],[-149.86022,-17.48317,0.0],[-149.86811,-17.48496,0.0],[-149.86998,-17.48773,0.0],[-149.87763,-17.49196,0.0],[-149.88585,-17.49179,8.6114],[-149.88984,-17.48154,0.0],[-149.89778,-17.47226,0.0],[-149.91552,-17.47357,0.0],[-149.93407,-17.48154,0.0],[-149.94441,-17.49236,0.0],[-149.93749,-17.51247,0.0],[-149.91405,-17.53533,0.0],[-149.8852,-17.55535,0.0],[-149.86189,-17.56683,166.3979],[-149.84276,-17.56756,241.1702],[-149.82246,-17.54974,1150.6918],[-149.80476,-17.52337,301.433],[-149.78563,-17.47918,16.0501]]],
[[[-149.57234,-16.9874,17.0661],[-149.56823,-16.98219,0.0],[-149.57209,-16.9826,0.0],[-149.57592,-16.98366,0.0],[-149.58361,-16.98707,0.0],[-149.58613,-16.99358,0.0],[-149.58698,-16.99668,0.0],[-149.58686,-17.00042,0.0],[-149.57234,-16.9874,17.0661]]]]}}