{"type":"Feature","properties":{"GID_1":"PYF.2_1","GID_0":"PYF","country":"FrenchPolynesia","province":"ÎlesduVent","VARNAME_1":"WindwardIslands","NL_NAME_1":"NA","TYPE_1":"Subdivisionsadministratives","ENGTYPE_1":"Administrativesubdivisions","CC_1":"NA","HASC_1":"PF.WI","ISO_1":"NA","name":"Îlesdu_Vent.province"},
"geometry":{"type": "MultiPolygon","coordinates": [[[[-150.6095,-17.6606,2.0327],[-150.6094,-17.6582,5.534],[-150.6143,-17.6501,1.7184],[-150.6199,-17.6457,8.838],[-150.6269,-17.6351,0.0],[-150.6303,-17.6328,0.0],[-150.6344,-17.6336,1.2768],[-150.6431,-17.6444,0.0],[-150.6427,-17.6479,2.2355],[-150.646,-17.6562,7.8422],[-150.6495,-17.6565,0.0],[-150.6475,-17.6586,1.1489],[-150.6511,-17.6594,0.0],[-150.6525,-17.6633,5.0532],[-150.65,-17.6672,1.6162],[-150.6425,-17.6642,3.0594],[-150.6362,-17.6664,0.0],[-150.6354,-17.6694,4.7922],[-150.6328,-17.6675,10.1474],[-150.6289,-17.68,0.0],[-150.6264,-17.6808,4.249],[-150.622,-17.6791,6.6498],[-150.6175,-17.6736,3.1313],[-150.611,-17.6725,0.0],[-150.6114,-17.665,9.9537],[-150.6095,-17.6606,2.0327]]],
[[[-149.7644,-17.4831,2.3697],[-149.7675,-17.4772,0.0],[-149.7749,-17.473,1.7372],[-149.7786,-17.4756,0.0],[-149.7933,-17.48,8.1272],[-149.8091,-17.4809,0.0],[-149.811,-17.4827,0.0],[-149.8158,-17.4833,2.1535],[-149.8192,-17.4887,0.0],[-149.8178,-17.4908,6.6741],[-149.8175,-17.5018,0.0],[-149.8195,-17.506,1.2901],[-149.8213,-17.5066,5.8207],[-149.8236,-17.5058,39.6863],[-149.8233,-17.4997,23.6677],[-149.8261,-17.4928,4.4063],[-149.8262,-17.4874,0.8613],[-149.8286,-17.485,1.0285],[-149.8458,-17.4846,6.4858],[-149.8508,-17.4908,0.0],[-149.8519,-17.4972,15.0044],[-149.8541,-17.5002,13.4131],[-149.849,-17.5146,5.2894],[-149.8517,-17.5175,0.0],[-149.8583,-17.51,12.1123],[-149.8581,-17.5067,0.0],[-149.8629,-17.4976,0.0],[-149.8706,-17.4914,2.3851],[-149.8769,-17.4914,0.0],[-149.8783,-17.4936,3.3675],[-149.8847,-17.4908,0.0],[-149.8905,-17.4919,7.309],[-149.8936,-17.4883,0.0],[-149.8975,-17.4919,2.3007],[-149.9078,-17.4903,2.5231],[-149.91,-17.4928,0.0],[-149.9134,-17.4932,6.4249],[-149.9147,-17.4961,1.0481],[-149.9156,-17.5123,8.4053],[-149.9123,-17.5162,4.275],[-149.9124,-17.5233,0.0],[-149.9044,-17.5322,2.9031],[-149.9039,-17.5369,0.0],[-149.9006,-17.5403,1.5543],[-149.8822,-17.5508,7.8095],[-149.8783,-17.5558,10.2366],[-149.8732,-17.5579,18.8775],[-149.8678,-17.5708,0.0],[-149.8581,-17.5786,0.0],[-149.8546,-17.5766,1.1039],[-149.8506,-17.5861,1.9179],[-149.8469,-17.5861,1.7119],[-149.8425,-17.5817,1.1523],[-149.8419,-17.5867,0.0],[-149.8397,-17.5878,11.4875],[-149.8408,-17.59,0.0],[-149.8378,-17.5922,1.7013],[-149.8092,-17.5928,3.7061],[-149.8047,-17.5903,0.0],[-149.8075,-17.5867,6.09],[-149.8022,-17.5853,0.0],[-149.7989,-17.5822,5.4596],[-149.7961,-17.5717,3.9134],[-149.7925,-17.5694,3.4291],[-149.7936,-17.5664,0.0],[-149.7886,-17.5586,4.9522],[-149.7894,-17.5511,2.6987],[-149.7853,-17.5503,0.0],[-149.7745,-17.5432,0.0],[-149.7728,-17.5311,0.9439],[-149.7753,-17.5275,0.0],[-149.7761,-17.5226,0.0],[-149.7802,-17.5235,18.9291],[-149.7807,-17.5206,2.0166],[-149.7753,-17.5203,0.0],[-149.7717,-17.5175,2.9486],[-149.7686,-17.5133,0.0],[-149.7686,-17.5081,0.0],[-149.7661,-17.5033,4.2594],[-149.7606,-17.4984,3.8624],[-149.7539,-17.4972,4.0113],[-149.7517,-17.4933,5.6833],[-149.7617,-17.4875,6.2124],[-149.7644,-17.4831,2.3697]]],
[[[-149.9147,-17.4897,7.0493],[-149.9178,-17.4875,0.0],[-149.921,-17.4909,0.0],[-149.9167,-17.4919,0.0],[-149.9131,-17.4903,0.9769],[-149.9147,-17.4897,7.0493]]],
[[[-149.9142,-17.4867,0.9069],[-149.9125,-17.4892,4.4247],[-149.9108,-17.4892,6.0664],[-149.9097,-17.4856,0.0],[-149.9119,-17.4858,0.0],[-149.9142,-17.4867,0.9069]]],
[[[-148.0614,-17.8692,0.0],[-148.0685,-17.8661,0.0],[-148.0721,-17.8708,65.1193],[-148.0767,-17.8711,0.0],[-148.0742,-17.8778,1.2836],[-148.0742,-17.8828,0.0],[-148.0621,-17.883,0.0],[-148.0607,-17.8768,20.6849],[-148.0589,-17.8751,0.0],[-148.0614,-17.8692,0.0]]],
[[[-149.491,-17.4952,2.2538],[-149.4948,-17.4947,4.3157],[-149.494,-17.4995,5.7424],[-149.4957,-17.505,6.0969],[-149.4995,-17.5094,0.0],[-149.5075,-17.5125,0.0],[-149.506,-17.5163,67.8978],[-149.5108,-17.5186,0.9902],[-149.5116,-17.521,2.6098],[-149.5139,-17.5222,2.3042],[-149.5172,-17.5219,1.7501],[-149.5194,-17.5242,1.357],[-149.5236,-17.5236,4.5779],[-149.5269,-17.5206,1.0775],[-149.5322,-17.5242,0.0],[-149.5427,-17.5209,0.0],[-149.5484,-17.5258,2.2094],[-149.5584,-17.5242,0.0],[-149.5636,-17.5278,0.0],[-149.5669,-17.5269,0.0],[-149.5719,-17.5297,3.3045],[-149.5745,-17.5291,1.0564],[-149.5675,-17.5235,0.0],[-149.5684,-17.5222,0.0],[-149.5845,-17.5346,0.0],[-149.5797,-17.5329,2.264],[-149.58,-17.5377,1.2543],[-149.5759,-17.5394,0.0],[-149.574,-17.5361,0.0],[-149.5775,-17.5317,2.5639],[-149.5758,-17.53,0.0],[-149.5753,-17.5324,0.0],[-149.5717,-17.5337,0.0],[-149.5697,-17.5364,0.0],[-149.571,-17.5404,3.2467],[-149.5829,-17.5452,3.7918],[-149.5953,-17.5444,0.0],[-149.6081,-17.5531,2.5151],[-149.6139,-17.5511,0.0],[-149.6158,-17.5581,2.0191],[-149.6206,-17.5617,0.0],[-149.6208,-17.5633,0.0],[-149.6172,-17.5661,4.8054],[-149.6158,-17.5694,3.0593],[-149.6164,-17.5706,5.4062],[-149.6203,-17.57,0.0],[-149.6203,-17.5736,0.0],[-149.6183,-17.5744,8.8004],[-149.6194,-17.5769,0.0],[-149.6169,-17.5808,7.9959],[-149.6175,-17.5842,0.0],[-149.6139,-17.5908,0.0],[-149.6128,-17.5969,2.178],[-149.6128,-17.6,3.9544],[-149.6147,-17.6021,1.4888],[-149.6147,-17.6127,2.2757],[-149.6175,-17.615,0.0],[-149.6156,-17.6186,0.0],[-149.6161,-17.623,0.0],[-149.6132,-17.6256,4.5779],[-149.6164,-17.6347,0.914],[-149.6039,-17.6469,0.0],[-149.5939,-17.6722,0.0],[-149.5908,-17.6756,1.935],[-149.5864,-17.6856,3.5759],[-149.585,-17.7111,0.0],[-149.5819,-17.7194,8.351],[-149.5811,-17.7297,1.3624],[-149.5786,-17.7347,0.0],[-149.5797,-17.7383,0.0],[-149.578,-17.7411,5.8934],[-149.5714,-17.7422,22.6484],[-149.5625,-17.7492,2.071],[-149.5602,-17.7487,3.8901],[-149.5542,-17.7533,0.0],[-149.5486,-17.7511,13.2724],[-149.5422,-17.7542,3.4121],[-149.5382,-17.7528,37.2048],[-149.5328,-17.7547,0.0],[-149.5261,-17.754,6.3168],[-149.521,-17.7568,2.0983],[-149.5212,-17.7594,1.2463],[-149.5188,-17.7617,0.0],[-149.4995,-17.7639,4.8104],[-149.4908,-17.7682,0.0],[-149.4826,-17.7689,4.382],[-149.478,-17.7738,3.778],[-149.4778,-17.7775,1.2368],[-149.4761,-17.7786,2.6956],[-149.4722,-17.7794,2.4355],[-149.4654,-17.7772,2.8348],[-149.4612,-17.7799,0.0],[-149.4565,-17.7801,0.9092],[-149.4516,-17.7797,0.0],[-149.4447,-17.7744,4.1629],[-149.4373,-17.772,3.1046],[-149.435,-17.7733,0.0],[-149.4238,-17.7715,2.5444],[-149.4114,-17.7744,4.2871],[-149.4086,-17.7708,2.6248],[-149.4033,-17.7686,3.4786],[-149.3975,-17.7711,2.2387],[-149.3933,-17.7683,3.6421],[-149.3929,-17.7622,3.7253],[-149.3885,-17.7606,6.7884],[-149.3831,-17.7597,2.1735],[-149.3778,-17.7619,0.0],[-149.3747,-17.7592,12.2324],[-149.3714,-17.7592,3.0431],[-149.3692,-17.7617,0.0],[-149.3611,-17.7611,2.361],[-149.3564,-17.7597,0.0],[-149.3508,-17.7553,0.9123],[-149.3439,-17.7553,1.5483],[-149.3381,-17.7492,0.0],[-149.3394,-17.7397,0.0],[-149.3358,-17.74,0.0],[-149.3347,-17.7386,0.7494],[-149.3367,-17.7353,0.0],[-149.3317,-17.7356,9.2247],[-149.3302,-17.731,8.8056],[-149.3253,-17.7288,1.5276],[-149.3242,-17.7317,0.7256],[-149.3256,-17.7342,0.0],[-149.3189,-17.7367,5.2457],[-149.3206,-17.7386,3.8526],[-149.325,-17.7381,0.0],[-149.3294,-17.7403,0.0],[-149.3333,-17.7456,2.5424],[-149.3272,-17.75,0.0],[-149.3233,-17.7508,0.7907],[-149.3189,-17.7556,17.7268],[-149.3183,-17.7567,1.9042],[-149.3206,-17.7575,0.0],[-149.32,-17.7606,1.1077],[-149.312,-17.7672,9.2594],[-149.3092,-17.7717,0.5626],[-149.3091,-17.7775,0.0],[-149.3122,-17.7797,0.8573],[-149.3047,-17.7838,0.0],[-149.2994,-17.7894,9.3028],[-149.2975,-17.7936,0.0],[-149.2975,-17.8008,0.0],[-149.2956,-17.8058,0.0],[-149.2928,-17.8075,0.4997],[-149.2939,-17.8136,5.0356],[-149.2967,-17.8178,0.0],[-149.2964,-17.8225,0.0],[-149.2936,-17.8258,2.165],[-149.2875,-17.8258,1.8204],[-149.2803,-17.8358,0.0],[-149.2714,-17.8433,1.0587],[-149.2703,-17.8483,0.0],[-149.2672,-17.85,0.4955],[-149.2633,-17.8489,2.9551],[-149.2614,-17.85,0.4565],[-149.2586,-17.855,1.1589],[-149.2514,-17.8572,1.366],[-149.2486,-17.8619,1.3794],[-149.2419,-17.8628,2.2593],[-149.2361,-17.8614,0.0],[-149.2247,-17.8667,0.0],[-149.2183,-17.8639,5.7695],[-149.2025,-17.87,1.8829],[-149.1975,-17.875,0.0],[-149.1917,-17.8731,2.4086],[-149.1846,-17.8791,6.3185],[-149.1794,-17.8775,10.3545],[-149.1614,-17.8808,10.6715],[-149.1567,-17.8792,13.5537],[-149.1428,-17.8689,5.9814],[-149.1413,-17.8674,0.0],[-149.1407,-17.8604,83.5094],[-149.1329,-17.8535,1.1159],[-149.1328,-17.8472,11.6767],[-149.1294,-17.8414,15.6521],[-149.1293,-17.8315,14.8411],[-149.1248,-17.824,5.7405],[-149.1248,-17.8169,2.7669],[-149.1283,-17.8154,66.3884],[-149.1302,-17.8101,48.0523],[-149.125,-17.805,0.0],[-149.1283,-17.8011,19.7384],[-149.1272,-17.7972,0.0],[-149.1296,-17.7909,14.6743],[-149.1274,-17.7814,0.0],[-149.129,-17.7785,8.6976],[-149.1332,-17.777,9.0075],[-149.1375,-17.7687,0.0],[-149.1483,-17.7624,2.4487],[-149.1507,-17.7576,1.7417],[-149.1566,-17.7556,8.7447],[-149.1577,-17.7461,1.4744],[-149.1594,-17.7444,0.0],[-149.1638,-17.7447,5.4055],[-149.1652,-17.7513,3.1508],[-149.1706,-17.7533,25.2509],[-149.1753,-17.7504,1.3985],[-149.1806,-17.7519,3.7708],[-149.2,-17.747,2.4376],[-149.2019,-17.745,3.2179],[-149.2008,-17.7428,0.0],[-149.2018,-17.7417,0.0],[-149.2131,-17.7442,0.0],[-149.2181,-17.7418,1.558],[-149.2184,-17.7363,2.5466],[-149.225,-17.7367,2.7791],[-149.23,-17.7339,0.0],[-149.2436,-17.7358,0.6853],[-149.2461,-17.7336,0.0],[-149.2553,-17.7378,0.0],[-149.2672,-17.7375,0.0],[-149.2856,-17.7297,2.2135],[-149.2975,-17.7276,0.0],[-149.3052,-17.7195,3.1184],[-149.3049,-17.7128,55.048],[-149.3022,-17.7061,0.0],[-149.304,-17.6828,0.0],[-149.3017,-17.6787,0.0],[-149.303,-17.6766,0.0],[-149.3059,-17.6758,2.3539],[-149.3061,-17.6702,3.6363],[-149.3106,-17.6633,0.0],[-149.3117,-17.6517,0.0],[-149.3083,-17.6447,0.0],[-149.3097,-17.6394,1.7709],[-149.3036,-17.6339,0.0],[-149.3023,-17.6192,0.0],[-149.2986,-17.609,1.839],[-149.3074,-17.59,4.437],[-149.3044,-17.5878,0.0],[-149.3092,-17.5855,1.6807],[-149.3078,-17.5817,0.0],[-149.3089,-17.5775,1.4415],[-149.3147,-17.5703,1.2243],[-149.3228,-17.5664,3.7821],[-149.3306,-17.5536,4.4242],[-149.3294,-17.5519,2.2608],[-149.3339,-17.55,5.0266],[-149.3408,-17.5433,2.3504],[-149.3521,-17.5394,2.8312],[-149.3642,-17.54,5.4344],[-149.3772,-17.5364,9.3993],[-149.3864,-17.5267,2.4753],[-149.3892,-17.5261,2.3499],[-149.3958,-17.5197,14.4507],[-149.403,-17.5175,6.4912],[-149.4039,-17.5156,0.0],[-149.4135,-17.5152,4.1478],[-149.4189,-17.5108,0.0],[-149.4239,-17.51,3.7438],[-149.4281,-17.5072,0.9715],[-149.4328,-17.5088,11.2648],[-149.4695,-17.5067,3.8397],[-149.4764,-17.5039,1.3473],[-149.4792,-17.4997,0.0],[-149.4862,-17.4991,2.9942],[-149.491,-17.4952,2.2538]]],
[[[-149.5472,-17.0497,0.0],[-149.5439,-17.0481,6.13],[-149.5453,-17.0425,0.0],[-149.5478,-17.0447,0.0],[-149.5472,-17.0497,0.0]]],
[[[-149.5489,-17.0306,2.3464],[-149.5464,-17.0294,0.0],[-149.5478,-17.0281,4.8933],[-149.5503,-17.0287,0.5177],[-149.5489,-17.0306,2.3464]]],
[[[-149.5578,-17.0231,7.5949],[-149.5611,-17.0169,1.9693],[-149.5625,-17.0172,0.0],[-149.5633,-17.0194,6.2923],[-149.5603,-17.0256,0.0],[-149.5609,-17.0329,0.0],[-149.5597,-17.0339,4.5844],[-149.5567,-17.0336,0.0],[-149.5522,-17.0281,1.7847],[-149.555,-17.0239,0.0],[-149.5578,-17.0231,7.5949]]],
[[[-149.5343,-17.0082,2.086],[-149.5353,-17.0075,0.0],[-149.5395,-17.007,0.0],[-149.535,-17.0097,0.0],[-149.5343,-17.0082,2.086]]],
[[[-149.5533,-16.9858,0.0],[-149.5589,-16.985,0.0],[-149.5606,-16.9894,0.0],[-149.5569,-16.9892,12.2361],[-149.5528,-16.9919,0.0],[-149.545,-16.9914,0.0],[-149.5419,-16.9939,0.0],[-149.5436,-16.9964,0.0],[-149.5428,-16.9983,0.0],[-149.5381,-16.9986,0.0],[-149.5367,-16.9972,0.0],[-149.5361,-16.9928,0.0],[-149.5394,-16.9897,6.2407],[-149.5533,-16.9858,0.0]]],
[[[-149.5858,-17.0136,1.4633],[-149.5889,-17.0131,2.5311],[-149.5922,-17.0147,4.4859],[-149.5969,-17.0228,0.0],[-149.59,-17.0233,0.0],[-149.5869,-17.0158,5.1651],[-149.585,-17.0144,1.4633],[-149.5858,-17.0136,1.4633]]],
[[[-149.5864,-17.0075,1.2216],[-149.5889,-17.0061,0.0],[-149.5875,-17.0106,0.0],[-149.5821,-17.0121,0.0],[-149.5814,-17.0085,0.0],[-149.5864,-17.0075,1.2216]]],
[[[-149.5644,-16.9842,0.0],[-149.5772,-16.9844,0.0],[-149.5825,-16.9878,0.0],[-149.5867,-16.9964,0.0],[-149.5843,-17.0031,2.2725],[-149.5812,-17.0031,0.0],[-149.5797,-16.9967,1.9882],[-149.5742,-16.9886,0.0],[-149.5694,-16.9881,0.0],[-149.5669,-16.99,0.0],[-149.5625,-16.9892,4.0704],[-149.5622,-16.9856,0.0],[-149.5639,-16.9867,10.1931],[-149.5644,-16.9842,0.0]]]]}}