{"type": "Feature","bbox": [-170.5969,-14.2815,-170.5775,-14.2654],"geometry": {"type": "MultiPolygon","coordinates": [[[[-170.5969,-14.2815,1.4607],[-170.586,-14.2754,0.0],[-170.5775,-14.2743,0.0],[-170.5825,-14.2654,144.9893],[-170.5958,-14.2717,191.2401],[-170.5969,-14.2815,1.4607]]]]}
,"properties": {"GID_3": "ASM.1.3.2_1","GID_0": "ASM","country": "AmericanSamoa","GID_1": "ASM.1_1","state": "Eastern","NL_NAME_1": "NA","GID_2": "ASM.1.3_1","county": "Sa'Ole","NL_NAME_2": "NA","city": "Amouli","VARNAME_3": "NA","NL_NAME_3": "NA","TYPE_3": "Village","ENGTYPE_3": "Village","CC_3": "NA","HASC_3": "NA","name": "Amouli.city","area_km2": 1.74656,"hist_schema_id": "Elevation0-9000","hist_area_km2": {"0": 0.287666,"25": 0.102738,"50": 0.267121,"75": 0.308217,"100": 0.267123,"125": 0.20548,"150": 0.102739,"175": 0.082191,"200": 0.041096,"225": 0.08219}}}