{"type":"Feature","properties":{"GID_2":"WSM.7.2_1","GID_0":"WSM","country":"Samoa","GID_1":"WSM.7_1","province":"Palauli","NL_NAME_1":"NA","county":"PalaulileFalefa","VARNAME_2":"NA","NL_NAME_2":"NA","TYPE_2":"Unknown","ENGTYPE_2":"Unknown","CC_2":"NA","HASC_2":"NA","name":"Palaulile_Falefa.county"},
"geometry":{"type": "MultiPolygon","coordinates": [[[[-172.2566,-13.7504,20.1476],[-172.2648,-13.7509,14.0665],[-172.267,-13.7976,8.787],[-172.2623,-13.7985,0.0],[-172.254,-13.7953,2.1026],[-172.2515,-13.7961,8.2737],[-172.2439,-13.8041,3.1789],[-172.2377,-13.8017,0.0],[-172.2331,-13.8033,0.0],[-172.2265,-13.8025,3.1208],[-172.2205,-13.7946,3.3022],[-172.2308,-13.7738,27.4815],[-172.2357,-13.7689,32.0258],[-172.2394,-13.7584,35.7059],[-172.2474,-13.7516,19.2337],[-172.2566,-13.7504,20.1476]]],
[[[-172.3602,-13.6419,948.58],[-172.3603,-13.6382,964.2706],[-172.3921,-13.6106,1104.2491],[-172.4262,-13.6135,1401.5371],[-172.4525,-13.6177,1649.1713],[-172.4871,-13.6315,1676.1079],[-172.4948,-13.6309,1682.7731],[-172.4938,-13.798,0.0],[-172.4884,-13.7975,2.1245],[-172.4747,-13.7873,3.5134],[-172.4651,-13.7881,0.0],[-172.4564,-13.7944,0.0],[-172.4532,-13.7951,0.0],[-172.446,-13.7898,0.0],[-172.4378,-13.7897,0.0],[-172.4199,-13.7862,4.0143],[-172.4137,-13.7814,0.0],[-172.4062,-13.7852,1.5278],[-172.3991,-13.7849,0.0],[-172.391,-13.7827,7.7833],[-172.3828,-13.7772,1.5848],[-172.3732,-13.7794,3.2239],[-172.3671,-13.7754,0.0],[-172.3666,-13.7734,1.049],[-172.3617,-13.7747,0.0],[-172.3542,-13.7729,9.6383],[-172.352,-13.7737,0.5695],[-172.3504,-13.7773,8.0837],[-172.3527,-13.7571,22.5225],[-172.356,-13.7574,22.0586],[-172.3573,-13.7546,25.558],[-172.3566,-13.7304,188.1011],[-172.3615,-13.7292,196.9535],[-172.3618,-13.7043,412.6111],[-172.3592,-13.6865,664.854],[-172.3602,-13.6419,948.58]]]]}}