{"type":"Feature","properties":{"GID_3":"ASM.4.1.1_1","GID_0":"ASM","country":"AmericanSamoa","GID_1":"ASM.4_1","state":"Western","NL_NAME_1":"NA","GID_2":"ASM.4.1_2","county":"Lealataua","NL_NAME_2":"NA","city":"Afao","VARNAME_3":"NA","NL_NAME_3":"NA","TYPE_3":"Village","ENGTYPE_3":"Village","CC_3":"NA","HASC_3":"NA","name":"Afao.city"},
"geometry":{"type": "MultiPolygon","coordinates": [[[[-170.7999,-14.3332,0.0],[-170.7966,-14.3136,367.4258],[-170.8065,-14.3141,306.9924],[-170.8088,-14.3203,161.3836],[-170.808,-14.3273,3.2214],[-170.8046,-14.3319,6.9662],[-170.7999,-14.3332,0.0]]]]}}