{"type": "Feature","bbox": [-171.8633,-13.9411,-171.7886,-13.8016],"geometry": {"type": "MultiPolygon","coordinates": [[[[-171.7914,-13.8269,1.5491],[-171.7967,-13.8206,0.7988],[-171.8008,-13.8208,0.6733],[-171.8022,-13.8174,0.7629],[-171.8083,-13.8147,7.1585],[-171.8075,-13.8081,2.4126],[-171.8121,-13.8047,0.0],[-171.8153,-13.805,10.2075],[-171.8185,-13.8016,6.4148],[-171.8221,-13.803,16.4516],[-171.824,-13.8166,42.8476],[-171.823,-13.8185,46.4711],[-171.8286,-13.8283,70.307],[-171.8313,-13.8432,130.2835],[-171.8332,-13.8422,119.5563],[-171.8403,-13.8511,172.3597],[-171.8404,-13.8532,211.1532],[-171.831,-13.8557,186.6375],[-171.8365,-13.8617,237.358],[-171.8319,-13.8613,220.2489],[-171.8324,-13.8666,261.5219],[-171.8383,-13.8758,373.2369],[-171.8484,-13.9148,660.4286],[-171.8505,-13.9132,648.2945],[-171.8576,-13.9198,618.8251],[-171.8633,-13.9352,478.6865],[-171.8294,-13.9411,514.9839],[-171.8205,-13.9122,767.3962],[-171.8229,-13.9104,735.6152],[-171.8185,-13.9003,624.5635],[-171.8172,-13.8931,553.3038],[-171.8178,-13.8805,344.7414],[-171.82,-13.8774,261.6049],[-171.8183,-13.8711,174.99],[-171.8145,-13.8688,182.8832],[-171.8034,-13.8547,78.2964],[-171.7997,-13.8537,54.8983],[-171.7977,-13.8493,41.3457],[-171.7915,-13.8428,22.8164],[-171.7887,-13.8362,10.8777],[-171.7886,-13.8324,7.9818],[-171.7914,-13.8269,1.5491]]]]}
,"properties": {"GID_2": "WSM.9.2_1","GID_0": "WSM","country": "Samoa","GID_1": "WSM.9_1","province": "Tuamasaga","NL_NAME_1": "NA","county": "FaleataWest","VARNAME_2": "NA","NL_NAME_2": "NA","TYPE_2": "Unknown","ENGTYPE_2": "Unknown","CC_2": "NA","HASC_2": "NA","name": "Faleata_West.county","area_km2": 45.9635,"hist_schema_id": "Elevation0-9000","hist_area_km2": {"0": 1.89414,"25": 5.3117,"50": 3.06749,"75": 3.7468,"100": 2.2645,"125": 1.72922,"150": 1.58508,"175": 1.50271,"200": 1.44093,"225": 0.63812,"250": 0.61752,"275": 0.39109,"300": 0.45282,"325": 0.72039,"350": 0.76156,"375": 1.07026,"400": 0.7821,"425": 1.04965,"450": 1.09077,"475": 1.25538,"500": 1.48171,"525": 1.62579,"550": 1.60523,"575": 1.48175,"600": 1.37886,"625": 1.52294,"650": 1.91397,"675": 1.35831,"700": 0.94669,"725": 0.41161,"750": 0.45277,"775": 0.32929,"800": 0.08232}}}