{"type":"Feature","properties":{"GID_3":"ASM.4.1.6_1","GID_0":"ASM","country":"AmericanSamoa","GID_1":"ASM.4_1","state":"Western","NL_NAME_1":"NA","GID_2":"ASM.4.1_2","county":"Lealataua","NL_NAME_2":"NA","city":"Fagali'i","VARNAME_3":"NA","NL_NAME_3":"NA","TYPE_3":"Village","ENGTYPE_3":"Village","CC_3":"NA","HASC_3":"NA","name":"Fagali'i.city"},
"geometry":{"type": "MultiPolygon","coordinates": [[[[-170.8224,-14.3187,269.6714],[-170.8174,-14.3165,280.8221],[-170.8232,-14.3076,92.2099],[-170.824,-14.303,49.0718],[-170.8332,-14.3111,0.0],[-170.8275,-14.3158,146.0573],[-170.8257,-14.3218,112.0756],[-170.8224,-14.3187,269.6714]]]]}}