{"type":"Feature","properties":{"GID_2":"WSM.11.2_1","GID_0":"WSM","country":"Samoa","GID_1":"WSM.11_1","province":"Vaisigano","NL_NAME_1":"NA","county":"Falealupo","VARNAME_2":"NA","NL_NAME_2":"NA","TYPE_2":"Unknown","ENGTYPE_2":"Unknown","CC_2":"NA","HASC_2":"NA","name":"Falealupo.county"},
"geometry":{"type": "MultiPolygon","coordinates": [[[[-172.6978,-13.5648,437.2118],[-172.7471,-13.5221,136.2277],[-172.7579,-13.49,4.3615],[-172.761,-13.4926,0.0],[-172.7623,-13.4968,16.3126],[-172.7645,-13.4976,0.0],[-172.771,-13.4931,0.0],[-172.7838,-13.4925,0.1368],[-172.7906,-13.5026,0.365],[-172.7906,-13.5009,0.0281],[-172.7927,-13.5015,0.153],[-172.7963,-13.5093,1.7642],[-172.8037,-13.5156,4.7102],[-172.7915,-13.5199,17.9496],[-172.7775,-13.5202,49.2813],[-172.7713,-13.5251,80.2862],[-172.7662,-13.5339,120.0854],[-172.7624,-13.5361,155.7742],[-172.6978,-13.5648,437.2118]]]]}}