{"type": "Feature","id": "4999","bbox": [-169.67622,-14.27174,-169.44013,-14.16888],"geometry": {"type": "MultiPolygon","coordinates": [[[[-169.44013,-14.24529,339.5071],[-169.44404,-14.23065,752.7006],[-169.46386,-14.22324,654.5224],[-169.50646,-14.22226,122.4369],[-169.52754,-14.22601,0.0],[-169.54267,-14.23675,0.0],[-169.53478,-14.24114,0.0],[-169.52929,-14.24879,0.0],[-169.5255,-14.25897,0.0],[-169.52282,-14.27093,0.0],[-169.51252,-14.27174,0.0],[-169.50426,-14.2706,0.0],[-169.49836,-14.26605,0.0],[-169.49486,-14.25726,222.4273],[-169.48497,-14.26198,362.7759],[-169.47619,-14.26238,0.0],[-169.46809,-14.25872,0.0],[-169.46015,-14.25042,0.0],[-169.44713,-14.25563,0.0],[-169.44013,-14.24529,339.5071]]],
[[[-169.63561,-14.17702,0.0],[-169.64717,-14.17213,-0.0563],[-169.65819,-14.16888,215.013],[-169.66816,-14.16912,261.1724],[-169.67618,-14.1749,111.7052],[-169.67622,-14.1749,111.7052],[-169.66975,-14.18792,0.0],[-169.66015,-14.18914,0.0],[-169.63561,-14.17702,0.0]]]]}
,"properties": {"ISO3166-1-Alpha-3": "ASM","country": "American Samoa","fill": "#F0F","name": "Manu's","area_km2": 46.15809,"hist_schema_id": "Elevation0-9000","hist_area_km2": {"0": 18.24913,"25": 0.63712,"50": 0.596,"75": 0.82204,"100": 1.15091,"125": 1.1509,"150": 0.71932,"175": 0.65767,"200": 0.80152,"225": 0.86317,"250": 0.9454,"275": 0.92485,"300": 0.96595,"325": 1.21259,"350": 1.06867,"375": 1.25367,"400": 1.3975,"425": 0.57544,"450": 0.73985,"475": 0.67819,"500": 0.94532,"525": 0.84258,"550": 0.55486,"575": 0.76038,"600": 0.39046,"625": 0.47267,"650": 0.51377,"675": 0.49322,"700": 0.57542,"725": 0.57543,"750": 0.47268,"775": 0.63709,"800": 0.65764,"825": 0.53434,"850": 0.78096,"875": 0.57544,"900": 0.45213,"925": 0.36993,"950": 0.14386}}}