{"type": "Feature","bbox": [-169.6806,-14.2718,-169.4187,-14.1567],"geometry": {"type": "MultiPolygon","coordinates": [[[[-169.4191,-14.2275,0.0],[-169.4187,-14.2201,0.0],[-169.4234,-14.2148,34.4904],[-169.4286,-14.2119,12.7812],[-169.4391,-14.2137,6.6743],[-169.4511,-14.2123,0.0],[-169.4971,-14.217,22.9336],[-169.5014,-14.2169,31.0344],[-169.5061,-14.2139,32.5673],[-169.5159,-14.2227,61.8585],[-169.5166,-14.23,6.5155],[-169.5144,-14.2355,2.4448],[-169.5007,-14.2535,0.0],[-169.4945,-14.2683,2.79],[-169.4915,-14.2717,0.0],[-169.485,-14.2718,10.5775],[-169.4715,-14.2558,0.0],[-169.4565,-14.2472,71.9272],[-169.4497,-14.2515,0.0],[-169.437,-14.2552,14.0602],[-169.4301,-14.2569,0.0],[-169.4238,-14.2558,13.0002],[-169.4211,-14.2476,0.0],[-169.4191,-14.2275,0.0]]],
[[[-169.6095,-14.1854,0.0],[-169.6065,-14.1797,66.4769],[-169.61,-14.1703,0.0],[-169.6115,-14.1567,67.7363],[-169.6169,-14.1582,0.0],[-169.6202,-14.1632,13.8801],[-169.6285,-14.1695,71.1453],[-169.6161,-14.1889,8.0598],[-169.6123,-14.1913,0.0],[-169.6095,-14.1854,0.0]]],
[[[-169.649,-14.1741,0.0],[-169.6381,-14.1709,20.9894],[-169.6334,-14.1679,6.2726],[-169.6378,-14.1666,32.8578],[-169.6537,-14.1662,0.0],[-169.6735,-14.1603,12.8121],[-169.6806,-14.1624,22.9299],[-169.677,-14.1802,0.0],[-169.6697,-14.1862,0.415],[-169.6614,-14.1834,0.0],[-169.649,-14.1741,0.0]]]]}
,"properties": {"GID_1": "ASM.2_1","GID_0": "ASM","country": "AmericanSamoa","state": "Manu'a","VARNAME_1": "NA","NL_NAME_1": "NA","TYPE_1": "District","ENGTYPE_1": "District","CC_1": "NA","HASC_1": "AS.MA","ISO_1": "NA","name": "Manu'a.state","area_km2": 58.75907,"hist_schema_id": "Elevation0-9000","hist_area_km2": {"0": 3.92569,"25": 2.73356,"50": 1.95255,"75": 2.05526,"100": 2.56913,"125": 2.87741,"150": 2.67196,"175": 2.2197,"200": 2.07579,"225": 2.13749,"250": 2.42518,"275": 2.11691,"300": 2.17856,"325": 2.21966,"350": 2.09629,"375": 2.03467,"400": 2.19906,"425": 1.04814,"450": 1.39753,"475": 1.13035,"500": 1.45913,"525": 1.31527,"550": 0.76041,"575": 1.13032,"600": 0.78095,"625": 0.73984,"650": 0.8837,"675": 0.71929,"700": 0.78094,"725": 0.8426,"750": 0.73985,"775": 0.84261,"800": 0.78095,"825": 0.596,"850": 0.78096,"875": 0.57544,"900": 0.45213,"925": 0.36993,"950": 0.14386}}}