{"type": "Feature","bbox": [-172.6202,-13.8042,-172.2205,-13.6106],"geometry": {"type": "MultiPolygon","coordinates": [[[[-172.2528,-13.7501,22.9442],[-172.2648,-13.7509,14.0665],[-172.2652,-13.7198,159.7828],[-172.2842,-13.7008,366.5731],[-172.2783,-13.6913,409.2467],[-172.3121,-13.6733,719.1002],[-172.3153,-13.6681,777.558],[-172.3229,-13.6637,810.9427],[-172.3235,-13.7281,204.8659],[-172.3206,-13.7601,2.4952],[-172.3172,-13.7602,0.0],[-172.3092,-13.7556,0.7509],[-172.3001,-13.7603,0.0],[-172.2899,-13.7588,2.3808],[-172.2894,-13.7632,5.0758],[-172.2859,-13.767,0.9366],[-172.288,-13.7719,2.415],[-172.2845,-13.7744,3.6276],[-172.2826,-13.7788,2.358],[-172.2784,-13.7814,1.9069],[-172.2725,-13.7897,0.0],[-172.2719,-13.7945,0.0],[-172.2697,-13.7962,9.0168],[-172.2623,-13.7985,0.0],[-172.2559,-13.7954,7.1888],[-172.2519,-13.7959,8.2737],[-172.2433,-13.8042,3.1789],[-172.2377,-13.8017,0.0],[-172.2331,-13.8033,0.0],[-172.2269,-13.8027,3.1208],[-172.2205,-13.7946,3.3022],[-172.2308,-13.7738,27.4815],[-172.2357,-13.7689,32.0258],[-172.2394,-13.7584,35.7059],[-172.2474,-13.7516,19.2337],[-172.2528,-13.7501,22.9442]]],
[[[-172.4972,-13.6306,1676.5745],[-172.5412,-13.6306,1511.4088],[-172.5448,-13.6258,1517.8281],[-172.6202,-13.6961,15.0635],[-172.6111,-13.6995,21.0635],[-172.6078,-13.7028,9.0231],[-172.6081,-13.7051,1.1904],[-172.5994,-13.7097,0.9662],[-172.5952,-13.7193,3.5703],[-172.5969,-13.7213,0.0],[-172.5963,-13.7384,0.0],[-172.5903,-13.7441,0.0],[-172.5833,-13.7469,3.9231],[-172.5828,-13.7567,0.0],[-172.579,-13.761,2.1946],[-172.5777,-13.7658,12.937],[-172.5542,-13.7767,0.0],[-172.5515,-13.7804,5.9317],[-172.5521,-13.7863,6.5803],[-172.5475,-13.7959,1.1301],[-172.5397,-13.8005,0.5454],[-172.5284,-13.8038,0.4113],[-172.5246,-13.8021,0.2897],[-172.5166,-13.8027,0.0],[-172.5129,-13.7957,5.1002],[-172.5071,-13.7989,2.532],[-172.4888,-13.7977,2.1245],[-172.4747,-13.7873,3.5134],[-172.4651,-13.7881,0.0],[-172.4564,-13.7944,0.0],[-172.4532,-13.7951,0.0],[-172.446,-13.7898,0.0],[-172.4378,-13.7897,0.0],[-172.4199,-13.7862,4.0143],[-172.4137,-13.7814,0.0],[-172.4062,-13.7852,1.5278],[-172.3991,-13.7849,0.0],[-172.391,-13.7827,7.7833],[-172.3828,-13.7772,1.5848],[-172.3732,-13.7794,3.2239],[-172.3671,-13.7754,0.0],[-172.3666,-13.7734,1.049],[-172.3617,-13.7747,0.0],[-172.3542,-13.7729,9.6383],[-172.352,-13.7737,0.5695],[-172.3504,-13.7773,8.0837],[-172.3527,-13.7571,22.5225],[-172.356,-13.7574,22.0586],[-172.3573,-13.7546,25.558],[-172.3566,-13.7304,188.1011],[-172.3615,-13.7292,196.9535],[-172.3618,-13.7043,412.6111],[-172.3592,-13.6865,664.854],[-172.3603,-13.6382,964.2706],[-172.3921,-13.6106,1104.2491],[-172.4262,-13.6135,1401.5371],[-172.4525,-13.6177,1649.1713],[-172.4871,-13.6315,1676.1079],[-172.4972,-13.6306,1676.5745]]]]}
,"properties": {"GID_1": "WSM.7_1","GID_0": "WSM","country": "Samoa","province": "Palauli","VARNAME_1": "NA","NL_NAME_1": "NA","TYPE_1": "Itumalo","ENGTYPE_1": "District","CC_1": "NA","HASC_1": "WS.PA","ISO_1": "NA","name": "Palauli.province","area_km2": 527.2455,"hist_schema_id": "Elevation0-9000","hist_area_km2": {"0": 10.1935,"25": 83.2363,"50": 30.8701,"75": 17.7113,"100": 15.8994,"125": 14.252,"150": 14.2317,"175": 12.3164,"200": 10.8954,"225": 10.0305,"250": 9.804,"275": 8.5683,"300": 8.7125,"325": 8.4243,"350": 8.6716,"375": 8.1774,"400": 8.0127,"425": 7.23,"450": 7.0652,"475": 6.8181,"500": 6.8387,"525": 7.0036,"550": 7.5393,"575": 6.7154,"600": 6.4064,"625": 6.1387,"650": 5.4589,"675": 5.2529,"700": 4.8204,"725": 4.635,"750": 5.4591,"775": 5.3767,"800": 5.4385,"825": 5.109,"850": 5.1502,"875": 4.8207,"900": 4.8001,"925": 4.6353,"950": 4.8413,"975": 4.5117,"1000": 4.3675,"1025": 4.553,"1050": 4.2852,"1075": 4.347,"1100": 4.6355,"1125": 5.0889,"1150": 5.1095,"1175": 4.6357,"1200": 4.3679,"1225": 4.2031,"1250": 4.1413,"1275": 3.7704,"1300": 3.8323,"1325": 3.4202,"1350": 4.0383,"1375": 3.7087,"1400": 3.482,"1425": 3.7705,"1450": 3.8117,"1475": 3.7087,"1500": 3.07,"1525": 3.853,"1550": 4.059,"1575": 3.8736,"1600": 3.6057,"1625": 3.2555,"1650": 3.1731,"1675": 1.9987,"1700": 1.2775,"1725": 1.3393,"1750": 1.2157,"1775": 0.8242,"1800": 0.2679,"1825": 0.0824}}}