{"type": "Feature","id": "4994","bbox": [-172.60896,-13.80535,-172.21296,-13.63265],"geometry": {"type": "MultiPolygon","coordinates": [[[[-172.25375,-13.75624,22.085],[-172.31097,-13.63951,742.9102],[-172.34745,-13.63858,895.3075],[-172.31843,-13.77125,0.0],[-172.29756,-13.76979,0.0],[-172.28771,-13.775,0.0],[-172.27953,-13.78484,0.0],[-172.26378,-13.79803,0.0],[-172.25324,-13.80291,0.0],[-172.24279,-13.80511,0.0],[-172.21906,-13.80535,0.0],[-172.21296,-13.80096,0.0],[-172.23544,-13.77226,29.7211],[-172.25375,-13.75624,22.085]]],
[[[-172.36864,-13.789,0.0],[-172.35449,-13.78399,0.0],[-172.39102,-13.63746,1192.5886],[-172.41418,-13.63687,1416.3712],[-172.57875,-13.63265,1200.9821],[-172.60896,-13.69305,47.5663],[-172.59712,-13.70062,92.8083],[-172.59211,-13.71266,39.8711],[-172.58996,-13.72479,13.9067],[-172.58056,-13.74481,14.0533],[-172.57848,-13.754,23.2017],[-172.57514,-13.76279,24.8196],[-172.56737,-13.76881,11.7367],[-172.55114,-13.77752,17.6701],[-172.54316,-13.78525,18.722],[-172.53291,-13.7986,19.3139],[-172.52318,-13.80535,0.0],[-172.36864,-13.789,0.0]]]]}
,"properties": {"ISO3166-1-Alpha-3": "WSM","country": "Samoa","fill": "#00F","name": "Palauli","area_km2": 516.9128,"hist_schema_id": "Elevation0-9000","hist_area_km2": {"0": 31.8758,"25": 73.9896,"50": 29.49,"75": 17.0109,"100": 15.4256,"125": 13.7165,"150": 13.6137,"175": 11.6985,"200": 10.4628,"225": 9.7009,"250": 9.6392,"275": 8.5271,"300": 8.5683,"325": 8.3625,"350": 8.6716,"375": 8.3216,"400": 7.6419,"425": 6.8592,"450": 6.921,"475": 6.6327,"500": 7.1065,"525": 7.086,"550": 7.5599,"575": 6.9214,"600": 6.633,"625": 6.7979,"650": 6.4478,"675": 6.4066,"700": 5.6032,"725": 5.1707,"750": 5.8506,"775": 6.1185,"800": 7.0868,"825": 6.5924,"850": 7.3342,"875": 6.0569,"900": 4.9237,"925": 4.4704,"950": 4.2644,"975": 4.2851,"1000": 3.8936,"1025": 4.0997,"1050": 3.7289,"1075": 4.1409,"1100": 3.9143,"1125": 3.9762,"1150": 3.9968,"1175": 3.8114,"1200": 3.8321,"1225": 3.5231,"1250": 3.5025,"1275": 3.1935,"1300": 2.9462,"1325": 2.802,"1350": 3.1729,"1375": 2.8432,"1400": 2.5548,"1425": 2.8227,"1450": 2.8021,"1475": 2.5754,"1500": 2.4518,"1525": 2.8227,"1550": 2.8227,"1575": 2.6167,"1600": 2.4313,"1625": 2.2871,"1650": 1.9986,"1675": 0.6593,"1700": 0.4327,"1725": 0.3709,"1750": 0.0412}}}