{"type":"Feature","properties":{"GID_2":"TON.4.1_1","GID_0":"TON","country":"Tonga","GID_1":"TON.4_1","province":"Tongatapu","NL_NAME_1":"NA","county":"Kolofo'ou","VARNAME_2":"NA","NL_NAME_2":"NA","TYPE_2":"District","ENGTYPE_2":"District","CC_2":"NA","HASC_2":"NA","name":"Kolofo'ou.county"},
"geometry":{"type": "MultiPolygon","coordinates": [[[[-175.2594,-21.1147,1.8211],[-175.2571,-21.1195,1.8685],[-175.2555,-21.13,6.9192],[-175.2555,-21.1409,10.6831],[-175.2629,-21.1566,13.0882],[-175.246,-21.1575,23.9308],[-175.2287,-21.1643,4.0752],[-175.2125,-21.1528,3.6821],[-175.2083,-21.1472,0.8549],[-175.2054,-21.1464,0.0],[-175.206,-21.142,3.9577],[-175.2027,-21.1292,0.0],[-175.2242,-21.1231,4.3466],[-175.2383,-21.1122,0.0],[-175.2462,-21.1096,2.5445],[-175.2594,-21.1147,1.8211]]],
[[[-175.2447,-21.0914,0.0],[-175.2431,-21.09,0.0],[-175.2439,-21.0883,0.0],[-175.2453,-21.09,0.0],[-175.2447,-21.0914,0.0]]]]}}