{"type": "Feature","id": "5001","bbox": [-171.08654,-11.06609,-171.07282,-11.05136],"geometry": {"type": "Polygon","coordinates": [[[-171.07282,-11.0525,-0.7234],[-171.08564,-11.05136,15.9226],[-171.08654,-11.06032,14.8705],[-171.08153,-11.06609,2.5389],[-171.07348,-11.06211,0.0],[-171.07282,-11.0525,-0.7234]]]}
,"properties": {"ISO3166-1-Alpha-3": "ASM","country": "American Samoa","fill": "#F0F","name": "Swain's Island","area_km2": 1.810345,"hist_schema_id": "Elevation0-9000","hist_area_km2": {"0": 1.227709,"25": 0.582636}}}