{"type":"Feature","properties":{"GID_2":"ASM.3.2_1","GID_0":"ASM","country":"AmericanSamoa","GID_1":"ASM.3_1","state":"Unorganized","NL_NAME_1":"NA","county":"Swains","VARNAME_2":"NA","NL_NAME_2":"NA","TYPE_2":"Island","ENGTYPE_2":"Island","CC_2":"NA","HASC_2":"AS.UU.SW","name":"Swains.county"},
"geometry":{"type": "MultiPolygon","coordinates": [[[[-171.0708,-11.0487,11.6322],[-171.0776,-11.0481,13.2517],[-171.0886,-11.0509,0.0],[-171.0895,-11.0563,0.678],[-171.0821,-11.0651,0.0],[-171.0775,-11.065,0.0],[-171.067,-11.0573,0.0],[-171.0666,-11.0527,0.0],[-171.0708,-11.0487,11.6322]]]]}}