{"type": "Feature","id": "4964","bbox": [-154.53698,-16.90293,-150.97838,-15.78932],"geometry": {"type": "MultiPolygon","coordinates": [[[[-153.92016,-16.83172,3.2289],[-153.9228,-16.8209,7.1203],[-153.92854,-16.8069,0.0],[-153.93399,-16.79754,0.0],[-153.93476,-16.78737,0.0],[-153.93773,-16.77947,0.0],[-153.94298,-16.77459,3.4274],[-153.95067,-16.77386,9.0189],[-153.94323,-16.78753,0.0],[-153.93322,-16.81911,0.0],[-153.92427,-16.8318,8.0785],[-153.92016,-16.83172,3.2289]]],
[[[-150.97956,-16.80039,184.4392],[-150.97838,-16.78802,44.1423],[-150.97912,-16.77972,353.1144],[-150.98534,-16.76922,228.9727],[-150.99433,-16.7619,0.0],[-151.00239,-16.76084,0.0],[-151.00581,-16.76922,20.07],[-151.0111,-16.77215,30.3767],[-151.0229,-16.77288,0.0],[-151.03462,-16.77703,20.5928],[-151.03991,-16.78997,0.0],[-151.03759,-16.79957,0.0],[-151.03136,-16.80633,0.0],[-151.01325,-16.82073,0.0],[-151.00499,-16.82041,0.0],[-150.99889,-16.81797,0.0],[-150.99482,-16.81357,0.0],[-150.99279,-16.80706,91.0337],[-150.98388,-16.80926,9.1826],[-150.97956,-16.80039,184.4392]]],
[[[-151.36408,-16.86647,8.92],[-151.35249,-16.85858,0.0],[-151.41279,-16.77972,0.0],[-151.42414,-16.7553,0.0],[-151.43078,-16.74782,0.0],[-151.44652,-16.74049,124.7387],[-151.46467,-16.73642,136.745],[-151.47875,-16.73821,59.5522],[-151.4912,-16.75026,0.0],[-151.49474,-16.76458,0.0],[-151.48811,-16.85638,0.0],[-151.47789,-16.88958,0.0],[-151.45824,-16.9026,60.3551],[-151.44917,-16.90293,287.054],[-151.44054,-16.90114,233.9978],[-151.43415,-16.89764,1.6079],[-151.43159,-16.89219,19.024],[-151.42939,-16.88193,25.6555],[-151.42427,-16.88193,0.0],[-151.41393,-16.88893,3.234],[-151.40087,-16.88535,79.0105],[-151.36408,-16.86647,8.92]]],
[[[-151.03417,-16.76263,1.2192],[-151.02416,-16.75563,14.375],[-151.01635,-16.74871,27.4338],[-151.00951,-16.7457,20.1711],[-151.00756,-16.74049,150.0488],[-151.02628,-16.7081,162.0052],[-151.029,-16.69248,10.4565],[-151.03515,-16.69427,2.3549],[-151.04223,-16.7055,0.0],[-151.0515,-16.73008,0.0],[-151.05403,-16.74179,0.0],[-151.05321,-16.75359,0.0],[-151.04743,-16.76605,0.0],[-151.03417,-16.76263,1.2192]]],
[[[-151.47655,-16.59051,63.2797],[-151.4726,-16.5805,0.0],[-151.50267,-16.58017,0.1219],[-151.52375,-16.58294,0.0],[-151.53612,-16.5949,15.9614],[-151.54088,-16.63104,69.1034],[-151.54039,-16.63649,56.159],[-151.53466,-16.6417,20.3878],[-151.48054,-16.66497,16.7222],[-151.4726,-16.66985,106.6266],[-151.46325,-16.67409,84.2946],[-151.45983,-16.66107,65.7807],[-151.45824,-16.629,0.0],[-151.44819,-16.6242,170.0026],[-151.44115,-16.61981,153.8476],[-151.43781,-16.61468,58.9005],[-151.43871,-16.60931,0.0],[-151.44396,-16.60223,0.0],[-151.44526,-16.59759,0.0],[-151.44957,-16.59466,0.0],[-151.45958,-16.59344,0.0],[-151.47875,-16.59417,168.3807],[-151.47655,-16.59051,63.2797]]],
[[[-151.74836,-16.50433,37.5635],[-151.75361,-16.48382,0.0],[-151.76378,-16.47234,0.0],[-151.78043,-16.47812,0.0],[-151.78449,-16.49293,0.0],[-151.77684,-16.51181,0.0],[-151.76264,-16.52581,0.0],[-151.74694,-16.52597,0.0],[-151.74836,-16.50433,37.5635]]],
[[[-152.2447,-16.44378,0.0],[-152.26146,-16.4415,80.2006],[-152.26362,-16.4472,93.2404],[-152.2563,-16.45127,63.1147],[-152.2447,-16.44378,0.0]]],
[[[-154.51924,-15.82342,0.0],[-154.51635,-15.81732,0.0],[-154.51728,-15.80641,0.0],[-154.51911,-15.79559,0.0],[-154.52477,-15.78932,0.0],[-154.53698,-15.79225,0.0],[-154.52754,-15.79485,0.0],[-154.52208,-15.80047,7.2404],[-154.52062,-15.80853,0.0],[-154.52318,-15.81943,0.0],[-154.5288,-15.82724,0.0],[-154.52546,-15.82773,0.0],[-154.51924,-15.82342,0.0]]]]}
,"properties": {"ISO3166-1-Alpha-3": "PYF","country": "French Polynesia","fill": "#F0F","name": "Leeward Islands","area_km2": 327.7168,"hist_schema_id": "Elevation0-9000","hist_area_km2": {"0": 91.873,"25": 24.6276,"50": 25.9677,"75": 25.7843,"100": 22.5756,"125": 20.3218,"150": 18.0072,"175": 15.6931,"200": 13.6018,"225": 11.3281,"250": 10.6989,"275": 8.5263,"300": 7.1458,"325": 5.3188,"350": 4.4459,"375": 3.2886,"400": 2.6999,"425": 2.5984,"450": 2.0097,"475": 1.6442,"500": 1.7051,"525": 1.0961,"550": 0.8322,"575": 0.9133,"600": 0.6089,"625": 0.7916,"650": 0.7916,"675": 0.8322,"700": 0.5277,"725": 0.548,"750": 0.2436,"775": 0.2842,"800": 0.0203,"825": 0.0609,"850": 0.1218,"875": 0.0609,"900": 0.0609,"925": 0.0609}}}