{"type": "Feature","bbox": [-154.7272,-16.9194,-150.9458,-15.7992],"geometry": {"type": "MultiPolygon","coordinates": [[[[-151.4222,-16.9161,0.0],[-151.4258,-16.9153,2.7948],[-151.4314,-16.9181,0.6138],[-151.4297,-16.9194,3.1142],[-151.4247,-16.9178,5.1259],[-151.4211,-16.9192,4.3925],[-151.4203,-16.9175,6.0271],[-151.4222,-16.9161,0.0]]],
[[[-151.4236,-16.9047,0.0],[-151.4236,-16.9008,0.0],[-151.4281,-16.8997,0.959],[-151.4256,-16.9075,4.5506],[-151.4236,-16.9047,0.0]]],
[[[-151.4622,-16.7222,-0.0049],[-151.4658,-16.7206,0.0],[-151.4781,-16.7267,0.4454],[-151.4756,-16.7328,9.3996],[-151.4817,-16.7297,4.215],[-151.4825,-16.7358,1.3218],[-151.485,-16.735,0.0],[-151.4864,-16.7383,1.3011],[-151.4822,-16.7469,1.3427],[-151.4897,-16.7439,0.0],[-151.4906,-16.7447,0.0],[-151.4933,-16.7575,1.4787],[-151.4911,-16.7589,0.0],[-151.4875,-16.7572,14.003],[-151.4864,-16.7581,4.111],[-151.49,-16.7603,1.1005],[-151.4933,-16.7683,5.8081],[-151.4894,-16.7803,0.0],[-151.4897,-16.7886,0.8854],[-151.4936,-16.7933,1.0801],[-151.49,-16.7983,24.3705],[-151.4908,-16.8036,0.0],[-151.4861,-16.8106,1.369],[-151.4867,-16.8139,8.1557],[-151.4839,-16.8192,0.0],[-151.4817,-16.82,0.0],[-151.4803,-16.8172,5.0065],[-151.4783,-16.8183,2.8862],[-151.4781,-16.8228,3.4356],[-151.4819,-16.8261,0.0],[-151.48,-16.8308,0.0],[-151.4836,-16.8378,0.7515],[-151.4811,-16.8422,1.4338],[-151.4836,-16.8453,4.1452],[-151.4792,-16.8497,29.5413],[-151.4828,-16.855,0.0],[-151.4825,-16.8586,0.0],[-151.4794,-16.8619,0.0],[-151.4736,-16.8569,2.8075],[-151.4703,-16.8564,0.0],[-151.4661,-16.8586,1.0927],[-151.4725,-16.8661,0.0],[-151.4628,-16.885,0.7832],[-151.4586,-16.8875,4.645],[-151.4656,-16.8925,0.0],[-151.4658,-16.8967,1.8145],[-151.4708,-16.9067,0.0],[-151.4661,-16.9081,0.0],[-151.4622,-16.905,5.8976],[-151.4617,-16.9097,0.0],[-151.4589,-16.9106,4.1842],[-151.4589,-16.9161,9.9853],[-151.4536,-16.9156,4.1798],[-151.4483,-16.9181,0.0],[-151.4414,-16.91,0.5406],[-151.4378,-16.9083,2.2815],[-151.4364,-16.9103,0.0],[-151.4328,-16.9061,1.6855],[-151.4333,-16.9019,0.4258],[-151.4319,-16.9003,0.0],[-151.4339,-16.895,0.0],[-151.4286,-16.8942,13.7144],[-151.4258,-16.8917,0.0],[-151.4289,-16.8856,17.6597],[-151.4258,-16.8792,1.1432],[-151.4222,-16.8817,0.0],[-151.4161,-16.8958,4.115],[-151.4142,-16.8953,6.1083],[-151.4158,-16.8914,0.0],[-151.4139,-16.8886,3.234],[-151.4103,-16.8911,0.7235],[-151.4053,-16.8919,1.7501],[-151.4031,-16.8903,1.6403],[-151.3953,-16.8917,0.0],[-151.3905,-16.8867,0.0],[-151.3931,-16.8831,7.5258],[-151.3911,-16.8808,4.7964],[-151.3883,-16.8808,9.2924],[-151.3828,-16.8844,0.0],[-151.3814,-16.8828,0.0],[-151.3836,-16.8803,24.4296],[-151.3828,-16.8769,0.207],[-151.3794,-16.8772,0.0926],[-151.3745,-16.8733,2.2119],[-151.3733,-16.8769,0.0],[-151.3697,-16.8769,0.0],[-151.3683,-16.8747,0.0],[-151.3711,-16.8711,9.5386],[-151.3686,-16.8689,6.5463],[-151.3672,-16.8697,0.0],[-151.3681,-16.8725,0.6105],[-151.3644,-16.8719,0.0],[-151.3544,-16.8617,0.966],[-151.3517,-16.8503,0.0],[-151.3539,-16.8453,4.8423],[-151.3608,-16.8475,0.0],[-151.3703,-16.8467,1.5915],[-151.3669,-16.8428,50.0934],[-151.3603,-16.8417,0.0],[-151.3569,-16.8367,6.3044],[-151.3653,-16.8347,0.0],[-151.3692,-16.8367,19.278199999999998],[-151.3736,-16.8364,3.7884],[-151.3745,-16.8331,0.0],[-151.3697,-16.8286,0.0],[-151.3725,-16.8261,0.0],[-151.3775,-16.8256,5.3352],[-151.3822,-16.8225,0.0],[-151.3897,-16.8281,7.3227],[-151.3928,-16.82,3.7864],[-151.3947,-16.8186,1.546],[-151.3964,-16.82,4.1337],[-151.3981,-16.8172,1.8013],[-151.3947,-16.81,0.0],[-151.3956,-16.8081,2.1852],[-151.3972,-16.8089,2.1852],[-151.4028,-16.8069,2.8936],[-151.4156,-16.8208,4.4647],[-151.4208,-16.8225,10.2584],[-151.4156,-16.8136,0.0],[-151.3994,-16.7958,0.0],[-151.4067,-16.7953,1.5366],[-151.4083,-16.7936,0.0],[-151.4081,-16.7861,0.0],[-151.41,-16.7844,0.0],[-151.4125,-16.7856,0.4468],[-151.415,-16.7822,0.0],[-151.4125,-16.7778,0.9017],[-151.4142,-16.775,0.8844],[-151.4158,-16.7742,0.0],[-151.4217,-16.7778,0.0],[-151.4236,-16.7767,0.2421],[-151.4239,-16.7744,0.0],[-151.4217,-16.7717,0.0],[-151.4228,-16.7647,1.3488],[-151.4217,-16.7631,0.0],[-151.4247,-16.7606,0.0],[-151.4283,-16.7539,2.4806],[-151.4325,-16.7514,0.9847],[-151.4314,-16.7489,0.0],[-151.4378,-16.7444,1.6623],[-151.4375,-16.7417,0.8388],[-151.4344,-16.7392,0.0],[-151.435,-16.7361,0.2717],[-151.4394,-16.7344,0.6916],[-151.4394,-16.7311,0.0],[-151.4458,-16.7261,0.3627],[-151.4461,-16.7239,0.0],[-151.4481,-16.7247,0.9582],[-151.4489,-16.7219,0.0],[-151.4511,-16.7231,0.6534],[-151.455,-16.7214,0.6751],[-151.4622,-16.7222,-0.0049]]],
[[[-150.9744,-16.82,0.0],[-150.9719,-16.8186,6.3187],[-150.9728,-16.8114,2.807],[-150.9761,-16.815,0.0],[-150.9744,-16.82,0.0]]],
[[[-151.3814,-16.7928,0.0],[-151.3833,-16.7942,0.0],[-151.3825,-16.7953,0.0],[-151.38,-16.7939,0.0],[-151.3814,-16.7928,0.0]]],
[[[-151.3878,-16.7906,5.6842],[-151.3831,-16.7867,2.2427],[-151.39,-16.7897,6.3213],[-151.3919,-16.7892,0.0],[-151.3897,-16.7911,6.3213],[-151.3878,-16.7906,5.6842]]],
[[[-150.9728,-16.7525,0.0],[-150.9789,-16.7519,7.3574],[-150.9924,-16.764,0.0],[-151.0067,-16.7667,0.0],[-151.0139,-16.7722,13.4437],[-151.0158,-16.7711,0.0],[-151.02,-16.7775,2.0461],[-151.0247,-16.7764,8.3428],[-151.0275,-16.7781,0.0],[-151.0247,-16.7839,7.2627],[-151.02,-16.7806,10.0832],[-151.0167,-16.7825,13.8238],[-151.0214,-16.7844,0.0],[-151.0236,-16.7875,0.0],[-151.0225,-16.79,8.6385],[-151.0155,-16.7942,5.839],[-151.01,-16.7919,0.0],[-151.0094,-16.7881,0.0],[-151.0114,-16.7822,0.0],[-151.01,-16.7808,3.8185],[-151.0075,-16.7814,0.0],[-151.0022,-16.7889,6.2655],[-151.0075,-16.7956,7.9202],[-151.0103,-16.7953,0.9883],[-151.0111,-16.7975,5.1162],[-151.0005,-16.8094,7.7773],[-150.9944,-16.8083,0.0],[-150.99,-16.8111,0.0],[-150.9889,-16.8189,0.0],[-150.9847,-16.8219,0.0],[-150.9806,-16.8183,2.6294],[-150.98,-16.8142,4.8589],[-150.9822,-16.8103,2.1938],[-150.9756,-16.8067,0.9486],[-150.9706,-16.8011,19.1701],[-150.9731,-16.7956,0.0],[-150.9758,-16.7942,2.4846],[-150.9686,-16.7931,0.9973],[-150.9667,-16.795,0.0],[-150.9583,-16.7875,0.0],[-150.9575,-16.775,4.2478],[-150.9667,-16.7597,0.9818],[-150.9711,-16.7633,4.6583],[-150.9689,-16.7589,0.0],[-150.97,-16.7561,0.0],[-150.9731,-16.7583,4.4065],[-150.9747,-16.7578,-0.1231],[-150.975,-16.7558,1.2466],[-150.9719,-16.7539,1.9181],[-150.9728,-16.7525,0.0]]],
[[[-151.0349,-16.7772,20.5928],[-151.0334,-16.779,0.0],[-151.0316,-16.7773,20.0329],[-151.0354,-16.7751,0.0],[-151.0349,-16.7772,20.5928]]],
[[[-150.9585,-16.7586,0.0],[-150.9644,-16.7533,3.2691],[-150.9683,-16.7547,0.0],[-150.9517,-16.7681,1.16],[-150.9507,-16.7721,4.4974],[-150.9522,-16.7753,2.3509],[-150.9489,-16.7767,0.0],[-150.9458,-16.7733,3.0135],[-150.9489,-16.7661,3.853],[-150.9514,-16.7625,0.0],[-150.9585,-16.7586,0.0]]],
[[[-151.4225,-16.7464,1.4253],[-151.423,-16.7447,4.1216],[-151.425,-16.7447,3.5115],[-151.4236,-16.7475,1.4253],[-151.4225,-16.7464,1.4253]]],
[[[-151.4222,-16.7414,0.0],[-151.423,-16.74,1.796],[-151.4264,-16.7403,0.0],[-151.4247,-16.7419,0.0],[-151.4222,-16.7414,0.0]]],
[[[-150.9744,-16.7247,1.7896],[-150.9772,-16.7236,1.3087],[-150.9783,-16.7253,3.8571],[-150.9753,-16.7325,3.9642],[-150.9725,-16.7328,0.7513],[-150.9719,-16.7347,1.1401],[-150.9753,-16.7394,4.5553],[-150.9719,-16.7414,0.0],[-150.9689,-16.7386,0.0],[-150.9689,-16.7322,0.0],[-150.9744,-16.7247,1.7896]]],
[[[-150.9944,-16.6839,3.3828],[-150.9975,-16.6828,0.0],[-151.0285,-16.6874,0.943],[-151.0336,-16.6918,0.0],[-151.041,-16.7028,4.7232],[-151.0394,-16.7108,1.1609],[-151.034,-16.7153,0.0],[-151.0346,-16.7172,0.8435],[-151.0317,-16.7217,2.9194],[-151.0364,-16.7214,15.9713],[-151.0383,-16.7278,6.2127],[-151.0308,-16.7389,23.2166],[-151.032,-16.7394,16.3112],[-151.039,-16.7346,17.3931],[-151.0414,-16.7311,0.0],[-151.0467,-16.7406,3.2257],[-151.0461,-16.7464,0.0],[-151.0444,-16.7481,0.0],[-151.0467,-16.7503,9.5181],[-151.0475,-16.7544,36.0708],[-151.047,-16.7608,31.175],[-151.0444,-16.7631,0.0],[-151.0464,-16.7656,0.0],[-151.0406,-16.7739,14.3996],[-151.0358,-16.7733,4.1559],[-151.0364,-16.7631,0.699],[-151.0278,-16.7578,8.2326],[-151.0264,-16.7647,0.0],[-151.0219,-16.7697,0.0],[-151.0169,-16.7697,0.0],[-151.0133,-16.7675,16.8519],[-151.01,-16.7681,4.1075],[-151.0092,-16.7658,1.1218],[-151.0108,-16.7597,6.6306],[-151.0164,-16.7525,3.2429],[-151.0153,-16.7506,8.5629],[-151.0111,-16.7547,0.0],[-151.0033,-16.7517,0.0],[-151.0069,-16.7489,13.0898],[-151.0058,-16.7472,2.4846],[-151.0017,-16.7475,8.1111],[-151.0,-16.75,0.0],[-150.9944,-16.7522,1.9101],[-150.9914,-16.7489,2.217],[-150.985,-16.7483,0.0],[-150.9833,-16.7461,18.982],[-150.9753,-16.7447,0.0],[-150.9797,-16.7383,54.5905],[-150.9814,-16.7292,0.0],[-150.9855,-16.7289,4.8313],[-150.9908,-16.7317,4.442],[-150.9922,-16.7306,8.6503],[-150.9836,-16.725,0.0],[-150.9861,-16.7219,1.9737],[-150.9858,-16.7144,0.0],[-150.9828,-16.7129,2.8191],[-150.9814,-16.7156,0.0],[-150.9781,-16.7086,0.0],[-150.9817,-16.6931,0.0],[-150.9944,-16.6839,3.3828]]],
[[[-150.9807,-16.7222,1.2676],[-150.9764,-16.7214,0.0],[-150.9806,-16.7169,1.5757],[-150.9822,-16.7178,0.0],[-150.9807,-16.7222,1.2676]]],
[[[-151.4222,-16.5933,0.0],[-151.4222,-16.595,0.0],[-151.4194,-16.5942,0.0],[-151.42,-16.5925,0.0],[-151.4222,-16.5933,0.0]]],
[[[-151.4697,-16.8875,0.0],[-151.47,-16.8894,0.0],[-151.4636,-16.8853,6.4059],[-151.4653,-16.8836,2.1423],[-151.4697,-16.8875,0.0]]],
[[[-151.47,-16.8797,0.0],[-151.4689,-16.8808,0.0],[-151.4678,-16.8789,0.8782],[-151.4689,-16.8783,0.8782],[-151.47,-16.8797,0.0]]],
[[[-151.4717,-16.8722,0.0],[-151.4733,-16.8742,0.0],[-151.4731,-16.8753,0.0],[-151.4706,-16.8736,2.182],[-151.4717,-16.8722,0.0]]],
[[[-151.4708,-16.8708,6.516],[-151.4744,-16.8669,0.0],[-151.4764,-16.8689,0.9362],[-151.4719,-16.8711,1.6226],[-151.4708,-16.8708,6.516]]],
[[[-151.4882,-16.8489,0.0],[-151.4897,-16.8505,1.4516],[-151.4895,-16.8515,0.0],[-151.4866,-16.8485,0.0],[-151.4882,-16.8489,0.0]]],
[[[-151.4869,-16.8319,0.0],[-151.4869,-16.83,0.0],[-151.49,-16.8281,1.8185],[-151.4906,-16.8294,0.0],[-151.4869,-16.8319,0.0]]],
[[[-151.4894,-16.6736,1.5781],[-151.4881,-16.6756,0.0],[-151.4864,-16.6736,0.0],[-151.4875,-16.6708,0.0],[-151.49,-16.6731,1.5781],[-151.4894,-16.6736,1.5781]]],
[[[-151.5061,-16.58,2.9193],[-151.51,-16.5769,0.2965],[-151.5161,-16.5775,0.0],[-151.5194,-16.5811,0.0],[-151.5233,-16.5822,0.0],[-151.5258,-16.5886,0.2151],[-151.5305,-16.5872,0.0],[-151.5336,-16.5892,0.0],[-151.5419,-16.5992,0.0],[-151.5408,-16.6031,0.7463],[-151.5459,-16.6042,0.0],[-151.5483,-16.6111,3.7264],[-151.5422,-16.6139,2.25],[-151.5414,-16.6164,0.4182],[-151.5492,-16.6186,3.4364],[-151.5503,-16.6233,0.0],[-151.548,-16.6342,0.0],[-151.5422,-16.6333,1.6182],[-151.5417,-16.6344,1.6182],[-151.547,-16.6367,21.1794],[-151.5465,-16.6401,1.0488],[-151.5422,-16.6439,0.0],[-151.5369,-16.645,2.3552],[-151.5333,-16.6478,6.3378],[-151.53,-16.645,0.443],[-151.5233,-16.6453,0.226],[-151.5219,-16.6433,0.0],[-151.5175,-16.6428,1.4878],[-151.5139,-16.64,0.0],[-151.5128,-16.6417,6.954],[-151.5142,-16.6431,39.0912],[-151.5231,-16.65,1.7798],[-151.5294,-16.6525,0.0],[-151.5222,-16.6603,6.4764],[-151.5183,-16.6619,2.1989],[-151.515,-16.6586,0.5558],[-151.5125,-16.6625,3.9737],[-151.5133,-16.6661,2.4635],[-151.5119,-16.6689,8.9509],[-151.5081,-16.6719,0.0],[-151.5044,-16.6711,8.5021],[-151.5008,-16.6767,0.0],[-151.4983,-16.6769,3.3232],[-151.4964,-16.6736,23.2843],[-151.4953,-16.6656,0.0],[-151.4997,-16.6536,3.0709],[-151.4983,-16.6533,3.0709],[-151.4964,-16.6572,0.2888],[-151.4933,-16.6592,4.3905],[-151.4894,-16.6547,0.0],[-151.4872,-16.6594,24.3378],[-151.4889,-16.6614,0.0],[-151.4869,-16.6675,3.5485],[-151.4833,-16.6672,2.4971],[-151.4833,-16.6817,3.9383],[-151.485,-16.6842,0.9955],[-151.4808,-16.6839,2.3196],[-151.4772,-16.6806,1.3315],[-151.4725,-16.6825,1.1553],[-151.4672,-16.6808,8.9411],[-151.4647,-16.6825,3.6947],[-151.4556,-16.6761,7.2939],[-151.4583,-16.6686,0.0],[-151.4511,-16.6719,0.0],[-151.4461,-16.6622,2.0986],[-151.4569,-16.6589,0.0],[-151.4536,-16.6547,11.6226],[-151.4581,-16.6483,4.3305],[-151.4845,-16.6433,14.6878],[-151.4883,-16.6383,6.0065],[-151.4911,-16.6381,5.9541],[-151.4925,-16.6403,6.1506],[-151.4942,-16.64,7.8957],[-151.4875,-16.6342,1.8625],[-151.4786,-16.6397,0.0],[-151.4706,-16.6361,4.5665],[-151.4633,-16.6353,2.6148],[-151.4603,-16.6433,2.257],[-151.4483,-16.6475,0.1993],[-151.4464,-16.6428,1.5737],[-151.4428,-16.6419,4.2315],[-151.4442,-16.6392,0.0],[-151.4411,-16.6364,0.0],[-151.4469,-16.6331,17.1353],[-151.4572,-16.6325,1.036],[-151.4592,-16.6311,3.2816],[-151.4594,-16.6278,1.5501],[-151.4564,-16.6256,0.8261],[-151.4511,-16.6283,0.0],[-151.4375,-16.6308,9.014],[-151.4347,-16.6283,25.0182],[-151.4358,-16.6244,9.8496],[-151.4342,-16.6147,0.0],[-151.4358,-16.6133,13.9181],[-151.4403,-16.6142,0.0],[-151.4478,-16.6108,-2.5772],[-151.4483,-16.6092,-1.4548],[-151.4428,-16.6053,2.7131],[-151.4436,-16.6033,1.5207],[-151.4467,-16.6008,0.0],[-151.453,-16.5997,12.5945],[-151.4553,-16.5972,0.0],[-151.4578,-16.5981,2.117],[-151.4631,-16.5939,0.0],[-151.4625,-16.5894,0.159],[-151.4686,-16.5861,0.0],[-151.4722,-16.5886,-0.3684],[-151.4708,-16.5917,0.5473],[-151.4719,-16.5936,5.2192],[-151.4733,-16.5883,-0.3684],[-151.4781,-16.5817,0.67],[-151.4817,-16.5839,0.3627],[-151.4808,-16.5869,2.0643],[-151.4839,-16.5894,3.7185],[-151.4831,-16.5842,0.0],[-151.4845,-16.5811,0.0],[-151.4872,-16.58,0.2704],[-151.4928,-16.5831,4.7787],[-151.4956,-16.5814,0.246],[-151.4981,-16.5828,0.0],[-151.5003,-16.5806,0.0],[-151.5061,-16.58,2.9193]]],
[[[-151.5625,-16.6011,0.2756],[-151.5653,-16.5981,0.0],[-151.5694,-16.6044,0.0],[-151.5658,-16.6103,0.6051],[-151.5622,-16.6078,2.1175],[-151.5667,-16.6042,2.281],[-151.5644,-16.6044,3.4153],[-151.5625,-16.6011,0.2756]]],
[[[-151.5033,-16.5542,0.0],[-151.5097,-16.5531,0.0],[-151.5236,-16.555,0.0],[-151.5325,-16.5536,0.0],[-151.5375,-16.555,0.0],[-151.5392,-16.5583,0.0],[-151.535,-16.5578,0.6327],[-151.5328,-16.5625,3.0527],[-151.5272,-16.5631,0.0],[-151.5239,-16.5608,0.218],[-151.5192,-16.5606,0.8639],[-151.5183,-16.5589,0.0],[-151.5208,-16.5567,0.4192],[-151.52,-16.5558,0.0],[-151.5172,-16.5564,0.0],[-151.5153,-16.56,0.0],[-151.5142,-16.5556,0.0],[-151.5128,-16.5558,0.0],[-151.5131,-16.5606,0.0],[-151.5106,-16.5586,3.593],[-151.5108,-16.5558,0.0],[-151.5092,-16.5561,0.0],[-151.5089,-16.5592,0.9652],[-151.5069,-16.5553,0.0],[-151.5056,-16.5561,0.0],[-151.5064,-16.5586,1.7491],[-151.505,-16.5606,0.0],[-151.5,-16.5597,0.0],[-151.4997,-16.5553,0.0],[-151.4975,-16.5567,0.0],[-151.4981,-16.5594,2.2851],[-151.4958,-16.5564,2.9085],[-151.4944,-16.5592,1.5644],[-151.4922,-16.5561,0.0],[-151.4911,-16.5592,0.2713],[-151.49,-16.5575,0.0],[-151.4908,-16.555,0.0],[-151.4936,-16.5542,0.0],[-151.5033,-16.5542,0.0]]],
[[[-151.7211,-16.5417,0.0],[-151.7206,-16.54,4.9819],[-151.7239,-16.5406,5.9113],[-151.7231,-16.5417,0.0],[-151.7211,-16.5417,0.0]]],
[[[-151.7281,-16.5381,0.0],[-151.7283,-16.5403,4.4442],[-151.7258,-16.5408,4.4449],[-151.7256,-16.5397,4.4449],[-151.7281,-16.5381,0.0]]],
[[[-151.4739,-16.5586,0.1144],[-151.4761,-16.5564,0.4499],[-151.4772,-16.5594,2.033],[-151.475,-16.5597,0.0],[-151.4739,-16.5586,0.1144]]],
[[[-151.48,-16.5578,0.0],[-151.4794,-16.5592,0.0],[-151.4783,-16.5581,0.0],[-151.4792,-16.5556,0.0],[-151.48,-16.5564,0.0],[-151.48,-16.5578,0.0]]],
[[[-151.4886,-16.5564,0.0],[-151.4878,-16.5586,0.0],[-151.4861,-16.5575,0.0],[-151.4875,-16.5544,0.0],[-151.4886,-16.5564,0.0]]],
[[[-151.4261,-16.6514,0.0],[-151.43,-16.6494,0.0],[-151.4289,-16.6522,0.4848],[-151.4261,-16.6528,0.0],[-151.4261,-16.6514,0.0]]],
[[[-151.4272,-16.6447,0.0],[-151.4278,-16.6458,0.0],[-151.4264,-16.6472,0.0],[-151.4256,-16.645,0.0],[-151.4272,-16.6447,0.0]]],
[[[-151.4358,-16.5803,0.0],[-151.4383,-16.5783,0.8898],[-151.4406,-16.5794,3.5946],[-151.4378,-16.5831,0.0],[-151.4358,-16.5803,0.0]]],
[[[-151.4453,-16.5667,1.7933],[-151.4486,-16.5611,0.0],[-151.4525,-16.5647,0.8343],[-151.4478,-16.5653,0.0],[-151.45,-16.5672,0.9669],[-151.4431,-16.5764,0.0],[-151.4411,-16.5725,0.0],[-151.4453,-16.5667,1.7933]]],
[[[-151.4525,-16.5575,0.0],[-151.4553,-16.5567,0.0],[-151.4561,-16.5581,0.0],[-151.4536,-16.5594,0.0],[-151.4553,-16.5628,0.0],[-151.4544,-16.5642,1.1642],[-151.4517,-16.5606,0.0],[-151.4525,-16.5589,0.0],[-151.4494,-16.56,0.0],[-151.4525,-16.5575,0.0]]],
[[[-151.4619,-16.5606,0.0],[-151.46,-16.5614,0.0],[-151.4592,-16.5583,0.7187],[-151.4603,-16.5581,0.7187],[-151.4619,-16.5606,0.0]]],
[[[-151.4664,-16.5594,1.0779],[-151.4658,-16.5617,0.0],[-151.4644,-16.5586,0.0],[-151.4656,-16.5575,0.0],[-151.4664,-16.5594,1.0779]]],
[[[-151.4692,-16.5583,0.0],[-151.4719,-16.5575,0.0],[-151.4728,-16.5597,0.0],[-151.4697,-16.5608,0.0],[-151.4692,-16.5583,0.0]]],
[[[-153.9889,-16.8053,1.9139],[-153.9919,-16.805,1.05],[-153.9931,-16.8086,0.0],[-153.9911,-16.8081,0.0],[-153.9847,-16.8117,0.0],[-153.9808,-16.8056,0.871],[-153.9817,-16.8047,0.871],[-153.9889,-16.8053,1.9139]]],
[[[-153.9803,-16.7958,0.0],[-153.9823,-16.795,0.0],[-153.9804,-16.7972,0.0],[-153.9839,-16.7975,0.0],[-153.9783,-16.8006,0.0],[-153.9767,-16.7978,0.0],[-153.9803,-16.7958,0.0]]],
[[[-153.975,-16.7911,0.0],[-153.9783,-16.7883,0.0],[-153.9803,-16.7922,0.0],[-153.9778,-16.7908,0.9355],[-153.975,-16.7911,0.0]]],
[[[-153.9758,-16.7886,0.0],[-153.9744,-16.7897,0.0],[-153.9731,-16.7867,0.0],[-153.9747,-16.7864,0.2677],[-153.9758,-16.7886,0.0]]],
[[[-153.9392,-16.7792,0.428],[-153.9481,-16.7697,0.0],[-153.9564,-16.7712,0.0],[-153.955,-16.7769,0.0],[-153.9486,-16.7756,4.0934],[-153.9411,-16.7822,1.5642],[-153.9414,-16.7922,0.4009],[-153.94,-16.7969,0.6112],[-153.9308,-16.8139,0.3066],[-153.9253,-16.8197,5.6443],[-153.9233,-16.8272,2.9959],[-153.9289,-16.8328,0.0],[-153.9269,-16.8353,0.0],[-153.9217,-16.8352,1.3368],[-153.9246,-16.8376,1.3904],[-153.9272,-16.8422,0.0],[-153.9263,-16.8431,0.0],[-153.9203,-16.836,1.3368],[-153.9181,-16.8258,0.0],[-153.9222,-16.8158,0.0],[-153.9278,-16.8106,0.319],[-153.9361,-16.7947,1.029],[-153.9378,-16.7903,1.4608],[-153.937,-16.7831,1.3336],[-153.9392,-16.7792,0.428]]],
[[[-153.9606,-16.7756,0.0],[-153.9589,-16.7725,0.0],[-153.96,-16.7717,0.0],[-153.9669,-16.7736,0.0],[-153.9636,-16.775,0.0],[-153.9625,-16.7781,0.0],[-153.9603,-16.7769,0.0],[-153.9606,-16.7756,0.0]]],
[[[-151.7761,-16.4897,0.0],[-151.7739,-16.49,0.0],[-151.7753,-16.4872,0.0],[-151.7764,-16.4881,2.2774],[-151.7761,-16.4897,0.0]]],
[[[-152.2497,-16.4803,1.6008],[-152.2486,-16.4828,2.8163],[-152.2453,-16.4806,2.9053],[-152.2475,-16.4747,1.0714],[-152.2492,-16.4764,1.7904],[-152.2497,-16.4803,1.6008]]],
[[[-153.9746,-16.7834,0.3251],[-153.9733,-16.7849,0.0],[-153.9726,-16.7851,0.0],[-153.9739,-16.782,0.1538],[-153.9746,-16.7834,0.3251]]],
[[[-154.7139,-16.5815,0.0],[-154.7156,-16.5803,0.0],[-154.7167,-16.5814,0.0],[-154.7149,-16.5824,0.0],[-154.7153,-16.5894,0.0],[-154.7139,-16.5886,0.0],[-154.7139,-16.5815,0.0]]],
[[[-154.6325,-16.5775,3.1968],[-154.6333,-16.5753,1.2437],[-154.6372,-16.5783,0.0],[-154.6342,-16.5786,4.453],[-154.6319,-16.5817,0.0],[-154.63,-16.5789,0.0],[-154.6325,-16.5775,3.1968]]],
[[[-154.6475,-16.5194,0.1353],[-154.6475,-16.5175,0.0],[-154.6503,-16.5178,0.0],[-154.6514,-16.5206,0.7291],[-154.6506,-16.5278,2.5951],[-154.6478,-16.5342,0.6738],[-154.6392,-16.5422,0.0],[-154.6386,-16.545,0.0],[-154.6336,-16.5503,1.0199],[-154.6233,-16.5531,0.9997],[-154.6219,-16.5572,5.6045],[-154.6245,-16.5661,0.0],[-154.6194,-16.5703,0.0],[-154.6167,-16.5594,0.0],[-154.6181,-16.5511,0.4284],[-154.6225,-16.5464,0.0],[-154.6269,-16.5469,0.0],[-154.635,-16.5425,0.0],[-154.6439,-16.5319,0.0],[-154.6467,-16.5261,1.8438],[-154.6475,-16.5194,0.1353]]],
[[[-152.2408,-16.4719,0.0],[-152.2447,-16.4678,0.0],[-152.2433,-16.4825,0.0],[-152.2389,-16.4747,0.0],[-152.2408,-16.4719,0.0]]],
[[[-151.7742,-16.4606,1.3442],[-151.7775,-16.4594,0.0],[-151.785,-16.4703,2.9722],[-151.7811,-16.4767,0.0],[-151.7756,-16.4803,0.0],[-151.7725,-16.4769,4.0973],[-151.7719,-16.4792,0.0],[-151.7706,-16.4781,0.0],[-151.7714,-16.475,0.735],[-151.7686,-16.47,1.1009],[-151.7697,-16.4653,0.0],[-151.7742,-16.4606,1.3442]]],
[[[-151.7697,-16.46,0.0],[-151.7722,-16.4575,0.0],[-151.7733,-16.4583,0.7966],[-151.7708,-16.4608,0.8279],[-151.7697,-16.46,0.0]]],
[[[-151.7706,-16.4531,5.0825],[-151.7725,-16.4522,0.2088],[-151.7767,-16.4581,0.0],[-151.7747,-16.4581,0.0],[-151.7728,-16.4536,0.1777],[-151.7689,-16.4564,0.0],[-151.7706,-16.4531,5.0825]]],
[[[-151.7,-16.4958,0.0],[-151.7039,-16.4947,0.0],[-151.7053,-16.4961,0.0],[-151.7028,-16.4972,0.6979],[-151.705,-16.4978,0.0],[-151.7056,-16.4997,0.0],[-151.7028,-16.5,0.9182],[-151.7022,-16.5036,0.0],[-151.7053,-16.5217,3.5035],[-151.6992,-16.5356,0.0],[-151.7017,-16.5392,1.7094],[-151.7075,-16.5425,0.0],[-151.7056,-16.545,0.0],[-151.7006,-16.5436,2.738],[-151.6989,-16.5453,0.1229],[-151.6958,-16.5447,0.0],[-151.6942,-16.5422,2.9452],[-151.7011,-16.5169,3.3382],[-151.7011,-16.5058,3.2377],[-151.6978,-16.4972,0.0],[-151.7,-16.4958,0.0]]],
[[[-151.7619,-16.5306,10.8813],[-151.7653,-16.5153,0.0],[-151.7639,-16.5072,1.8207],[-151.7667,-16.505,0.0],[-151.7692,-16.5064,0.0],[-151.7681,-16.5136,0.0],[-151.7717,-16.5186,9.25],[-151.7722,-16.5222,0.0],[-151.77,-16.5244,0.0],[-151.7694,-16.5286,1.3796],[-151.7653,-16.53,1.9052],[-151.7631,-16.5328,7.9866],[-151.7619,-16.5306,10.8813]]],
[[[-151.745,-16.4681,0.0],[-151.7439,-16.4633,1.9921],[-151.7511,-16.465,7.6089],[-151.7556,-16.47,4.171],[-151.7608,-16.47,7.2977],[-151.7639,-16.4725,0.0],[-151.7611,-16.4764,0.0],[-151.7519,-16.4803,0.0],[-151.7478,-16.485,0.0],[-151.7433,-16.4867,0.0],[-151.7508,-16.4917,3.591],[-151.7589,-16.4858,0.0],[-151.7603,-16.4875,0.0],[-151.7594,-16.4914,8.1371],[-151.7619,-16.4944,0.0],[-151.7597,-16.4986,0.0],[-151.7519,-16.5014,0.0],[-151.7539,-16.5064,0.0],[-151.75,-16.5114,0.826],[-151.7422,-16.5172,0.0],[-151.7378,-16.5144,5.675],[-151.7367,-16.5167,0.0],[-151.7347,-16.5158,2.6964],[-151.735,-16.5186,0.0],[-151.7331,-16.5189,0.4705],[-151.7339,-16.5219,0.0],[-151.7422,-16.5292,0.4852],[-151.7464,-16.53,6.3529],[-151.7483,-16.5356,0.9466],[-151.7464,-16.5369,0.0],[-151.7419,-16.5356,1.8974],[-151.7345,-16.5456,0.63],[-151.7353,-16.5428,3.3337],[-151.7336,-16.5419,0.0],[-151.7361,-16.5408,6.5535],[-151.7347,-16.5344,1.2655],[-151.7303,-16.5322,2.9638],[-151.7275,-16.5278,26.3369],[-151.7228,-16.53,0.0],[-151.7208,-16.5289,10.2518],[-151.7239,-16.5278,0.0],[-151.7253,-16.5247,7.511],[-151.7239,-16.5211,0.5809],[-151.7203,-16.5183,0.0],[-151.7203,-16.5142,0.0],[-151.7225,-16.5097,0.0],[-151.7203,-16.5031,0.0],[-151.7211,-16.4953,0.0],[-151.7242,-16.4911,0.0],[-151.721,-16.4901,2.3401],[-151.7147,-16.4917,0.0],[-151.7136,-16.4903,0.0],[-151.7197,-16.4867,0.9384],[-151.7178,-16.4833,2.2468],[-151.7225,-16.4789,0.0],[-151.7322,-16.4797,8.1613],[-151.7353,-16.4742,0.0],[-151.7383,-16.4764,6.617],[-151.7406,-16.4733,0.0],[-151.7439,-16.4728,1.0795],[-151.745,-16.4681,0.0]]],
[[[-151.7528,-16.4406,0.4708],[-151.7578,-16.4364,0.0],[-151.7664,-16.4439,0.1427],[-151.7628,-16.4467,0.5171],[-151.7636,-16.4422,0.0],[-151.7622,-16.4414,0.0],[-151.7589,-16.4469,1.9071],[-151.7525,-16.4464,0.0],[-151.7439,-16.4506,0.0],[-151.7425,-16.4483,0.6363],[-151.7411,-16.4506,0.0],[-151.7319,-16.4519,3.3622],[-151.7067,-16.4739,0.0],[-151.6942,-16.4803,0.5993],[-151.695,-16.485,4.065],[-151.6981,-16.4872,0.0],[-151.6989,-16.4917,0.7965],[-151.7011,-16.4931,0.0],[-151.6989,-16.4953,0.0],[-151.6969,-16.495,0.0],[-151.6911,-16.4822,1.8439],[-151.6919,-16.4778,2.6023],[-151.7039,-16.4719,1.4719],[-151.7236,-16.4567,3.1339],[-151.7319,-16.4481,1.7156],[-151.7442,-16.4472,2.1936],[-151.7528,-16.4406,0.4708]]],
[[[-151.7653,-16.4494,0.0],[-151.7692,-16.4478,0.0],[-151.7714,-16.4514,0.1094],[-151.77,-16.4506,0.0925],[-151.7661,-16.4531,0.0],[-151.7644,-16.4508,1.0694],[-151.7653,-16.4494,0.0]]],
[[[-151.7628,-16.4478,0.5171],[-151.7639,-16.4483,0.0],[-151.7631,-16.4508,0.0],[-151.7614,-16.4492,0.0],[-151.7628,-16.4478,0.5171]]],
[[[-151.767,-16.4449,0.1275],[-151.7678,-16.4456,0.1275],[-151.7653,-16.4473,0.0],[-151.7655,-16.4461,3.0821],[-151.767,-16.4449,0.1275]]],
[[[-151.8064,-16.2644,0.0],[-151.8086,-16.2636,3.2235],[-151.8097,-16.265,0.0],[-151.8089,-16.2664,9.6058],[-151.8114,-16.2692,0.0],[-151.81,-16.2719,8.8912],[-151.8111,-16.2811,0.0],[-151.8136,-16.2869,0.4288],[-151.8183,-16.2908,0.6081],[-151.8231,-16.2847,3.4647],[-151.8217,-16.2703,4.0617],[-151.8225,-16.2661,0.0],[-151.8247,-16.2672,1.1261],[-151.8275,-16.2869,0.0],[-151.8231,-16.2975,4.6487],[-151.8164,-16.3028,7.7494],[-151.8128,-16.3022,0.0],[-151.8097,-16.2989,0.0],[-151.8069,-16.2797,0.0],[-151.8075,-16.2725,8.3597],[-151.8053,-16.2653,5.6437],[-151.8064,-16.2644,0.0]]],
[[[-151.8067,-16.2631,0.0],[-151.805,-16.2639,0.0],[-151.8014,-16.2592,0.0],[-151.8036,-16.2583,0.0],[-151.8081,-16.2619,3.4012],[-151.8067,-16.2631,0.0]]],
[[[-151.825,-16.2308,0.5244],[-151.8294,-16.2303,1.9693],[-151.8394,-16.2433,1.3125],[-151.8364,-16.2603,1.3905],[-151.8306,-16.2667,0.0],[-151.8256,-16.2642,1.0698],[-151.8283,-16.2628,0.0],[-151.8308,-16.2578,2.501],[-151.8319,-16.2489,4.9856],[-151.8283,-16.2403,0.8321],[-151.8225,-16.2358,6.3728],[-151.8094,-16.2397,0.0],[-151.8019,-16.2447,3.968],[-151.8008,-16.2489,1.7262],[-151.8028,-16.2569,0.0],[-151.8008,-16.2572,2.7597],[-151.795,-16.2536,4.1947],[-151.7856,-16.2575,1.8387],[-151.7828,-16.2558,0.456],[-151.7883,-16.2481,0.5691],[-151.7981,-16.2408,0.0],[-151.8094,-16.235,2.5904],[-151.8133,-16.235,11.4632],[-151.8219,-16.2308,0.0],[-151.825,-16.2308,0.5244]]],
[[[-152.2564,-16.4361,0.0803],[-152.2606,-16.435,0.0],[-152.2633,-16.4392,0.483],[-152.2669,-16.4408,2.898],[-152.2703,-16.4478,0.0],[-152.275,-16.4489,0.884],[-152.2742,-16.4522,0.0],[-152.2692,-16.4531,0.0],[-152.2633,-16.4503,1.5407],[-152.2581,-16.455,0.0],[-152.2503,-16.4567,0.0],[-152.2467,-16.4461,0.0],[-152.2481,-16.4392,0.0],[-152.2522,-16.435,8.9538],[-152.2564,-16.4361,0.0803]]],
[[[-152.2636,-16.4231,0.0],[-152.2661,-16.4194,0.0],[-152.2822,-16.4228,0.0],[-152.2893,-16.426,0.0],[-152.296,-16.4495,0.0],[-152.2958,-16.4558,0.0],[-152.2933,-16.4597,0.0],[-152.29,-16.4608,0.7691],[-152.2831,-16.4597,0.0],[-152.2805,-16.4553,2.032],[-152.2794,-16.4514,0.0],[-152.2847,-16.4442,0.5759],[-152.2853,-16.4353,0.0],[-152.2839,-16.4289,0.0],[-152.2731,-16.4261,2.6261],[-152.2683,-16.4275,0.3113],[-152.2636,-16.4231,0.0]]],
[[[-152.2439,-16.4219,0.8775],[-152.2509,-16.4158,0.0],[-152.2572,-16.4172,1.3933],[-152.2564,-16.4253,0.0],[-152.2536,-16.4222,1.4602],[-152.2503,-16.4222,2.3656],[-152.2369,-16.4331,3.3661],[-152.2355,-16.4369,0.0],[-152.2361,-16.4433,0.6952],[-152.2414,-16.4489,0.0],[-152.2397,-16.4519,0.0],[-152.2333,-16.4497,0.0],[-152.2314,-16.4417,0.0],[-152.2345,-16.4283,0.0],[-152.2439,-16.4219,0.8775]]],
[[[-152.2619,-16.4217,0.0],[-152.2606,-16.4242,0.6893],[-152.2589,-16.4233,0.0],[-152.2589,-16.4172,0.0],[-152.2622,-16.4186,0.0],[-152.2619,-16.4217,0.0]]],
[[[-154.7231,-16.5783,0.0],[-154.7214,-16.5756,0.0],[-154.7242,-16.5675,0.0],[-154.7233,-16.5478,0.0],[-154.7256,-16.5219,0.0],[-154.7219,-16.5131,0.0],[-154.7094,-16.4951,0.0564],[-154.7119,-16.4958,0.1485],[-154.7183,-16.5022,0.1596],[-154.7258,-16.5156,0.0],[-154.7267,-16.5197,0.0],[-154.7267,-16.5372,0.0],[-154.7247,-16.5472,0.0],[-154.7272,-16.5594,0.0],[-154.7272,-16.5683,0.0],[-154.7231,-16.5783,0.0]]],
[[[-154.6847,-16.4817,0.0],[-154.6878,-16.4803,0.0],[-154.6906,-16.4856,0.0],[-154.6842,-16.4881,0.0],[-154.6811,-16.4875,0.259],[-154.6794,-16.4903,0.0],[-154.6769,-16.4892,0.3803],[-154.6747,-16.4919,0.2592],[-154.673,-16.4906,0.2674],[-154.6683,-16.4933,0.3207],[-154.6697,-16.495,0.1175],[-154.6669,-16.4969,0.0],[-154.6633,-16.4983,0.0],[-154.6614,-16.4972,0.3339],[-154.6617,-16.5,0.0],[-154.6503,-16.5067,0.0],[-154.6481,-16.5094,4.3415],[-154.6486,-16.5128,4.9971],[-154.6436,-16.5147,0.0],[-154.6417,-16.5083,0.0],[-154.6464,-16.5028,0.0],[-154.6847,-16.4817,0.0]]],
[[[-154.5361,-15.8128,0.3781],[-154.5394,-15.8111,0.1825],[-154.5386,-15.815,6.3899],[-154.5417,-15.8156,0.2581],[-154.5442,-15.8189,0.639],[-154.5405,-15.8247,0.2366],[-154.5355,-15.8163,5.5867],[-154.5322,-15.8142,1.3662],[-154.5361,-15.8128,0.3781]]],
[[[-154.5133,-15.8019,6.5657],[-154.5172,-15.7992,2.1692],[-154.5281,-15.8011,1.1484],[-154.5272,-15.8047,0.3903],[-154.5236,-15.8028,5.7524],[-154.5194,-15.8028,6.2845],[-154.5142,-15.8086,0.1766],[-154.5142,-15.8114,0.0],[-154.5111,-15.8133,3.0023],[-154.5139,-15.82,1.121],[-154.5183,-15.825,7.0288],[-154.5229,-15.826,0.5934],[-154.5258,-15.8236,0.0],[-154.5239,-15.8285,0.0],[-154.5247,-15.8325,0.7454],[-154.5197,-15.8314,0.0],[-154.5144,-15.8261,4.7882],[-154.5061,-15.8136,0.3918],[-154.5086,-15.8086,0.0],[-154.5117,-15.8081,6.6817],[-154.5114,-15.805,0.0],[-154.5133,-15.8019,6.5657]]],
[[[-154.5331,-15.8117,0.6712],[-154.5364,-15.8078,0.0],[-154.5375,-15.8075,0.0],[-154.5372,-15.8106,3.7378999999999998],[-154.5331,-15.8117,0.6712]]],
[[[-154.5302,-15.8086,0.0],[-154.5325,-15.8022,0.0],[-154.5322,-15.8044,0.0],[-154.5342,-15.8033,0.1916],[-154.5353,-15.8044,0.1916],[-154.5322,-15.8089,0.0],[-154.5302,-15.8086,0.0]]],
[[[-154.5294,-15.8016,0.3634],[-154.5305,-15.8023,0.3634],[-154.5284,-15.806,0.0],[-154.5281,-15.8049,0.0],[-154.5294,-15.8016,0.3634]]]]}
,"properties": {"GID_1": "PYF.4_1","GID_0": "PYF","country": "FrenchPolynesia","province": "ÎlesSous-le-Vent","VARNAME_1": "LeewardIslands","NL_NAME_1": "NA","TYPE_1": "Subdivisionsadministratives","ENGTYPE_1": "Administrativesubdivisions","CC_1": "NA","HASC_1": "PF.LI","ISO_1": "NA","name": "Îles_Sous-le-Vent.province","area_km2": 427.9542,"hist_schema_id": "Elevation0-9000","hist_area_km2": {"0": 115.0115,"25": 41.2636,"50": 38.2151,"75": 36.6301,"100": 31.5124,"125": 26.7804,"150": 23.1455,"175": 19.7958,"200": 16.993,"225": 13.3792,"250": 12.222,"275": 9.7853,"300": 7.7347,"325": 6.1108,"350": 5.0958,"375": 3.8979,"400": 3.0859,"425": 2.903,"450": 2.3957,"475": 1.8474,"500": 1.888,"525": 1.3399,"550": 0.9743,"575": 0.9337,"600": 0.6089,"625": 0.7916,"650": 0.7916,"675": 0.8322,"700": 0.5277,"725": 0.548,"750": 0.2436,"775": 0.2842,"800": 0.0203,"825": 0.0609,"850": 0.1218,"875": 0.0609,"900": 0.0609,"925": 0.0609}}}