{"type": "Feature","bbox": [-170.5958,-14.2717,-170.5749,-14.2554],"geometry": {"type": "MultiPolygon","coordinates": [[[[-170.5825,-14.2654,144.9893],[-170.5749,-14.2592,199.205],[-170.5862,-14.2554,11.5892],[-170.5867,-14.2612,0.0],[-170.5933,-14.2586,42.9045],[-170.5958,-14.2717,191.2401],[-170.5863,-14.2682,103.7211],[-170.5825,-14.2654,144.9893]]]]}
,"properties": {"GID_3": "ASM.1.5.2_1","GID_0": "ASM","country": "AmericanSamoa","GID_1": "ASM.1_1","state": "Eastern","NL_NAME_1": "NA","GID_2": "ASM.1.5_1","county": "Vaifanua","NL_NAME_2": "NA","city": "Aoa","VARNAME_3": "NA","NL_NAME_3": "NA","TYPE_3": "Village","ENGTYPE_3": "Village","CC_3": "NA","HASC_3": "NA","name": "Aoa.city","area_km2": 1.828828,"hist_schema_id": "Elevation0-9000","hist_area_km2": {"0": 0.390425,"25": 0.123292,"50": 0.246584,"75": 0.123292,"100": 0.184937,"125": 0.246582,"150": 0.246583,"175": 0.102744,"200": 0.061645,"225": 0.041098,"250": 0.020549,"275": 0.020549,"300": 0.020549}}}