{"type": "Feature","bbox": [-159.8383,-19.2882,-158.9128,-18.824],"geometry": {"type": "MultiPolygon","coordinates": [[[[-158.9439,-19.2845,0.0],[-158.9481,-19.2862,0.0],[-158.9526,-19.2848,6.7047],[-158.959,-19.2786,0.0],[-158.9573,-19.2652,0.0],[-158.9591,-19.2624,0.0],[-158.965,-19.2619,5.2033],[-158.9707,-19.2655,0.0],[-158.9699,-19.2716,1.0523],[-158.9551,-19.2866,0.7659],[-158.9471,-19.2882,0.0],[-158.9406,-19.2843,0.0],[-158.9422,-19.2759,0.0],[-158.9439,-19.2845,0.0]]],
[[[-158.9204,-19.256,0.0],[-158.9248,-19.2529,0.0],[-158.9289,-19.2531,7.5815],[-158.9333,-19.2567,0.0],[-158.9344,-19.2597,2.0567],[-158.94,-19.2636,0.1793],[-158.9281,-19.2672,1.9436],[-158.9266,-19.2697,4.4538],[-158.93,-19.2714,2.0771],[-158.9326,-19.2706,0.0],[-158.9325,-19.2717,1.5695],[-158.9242,-19.2775,8.9879],[-158.9186,-19.2795,3.5489],[-158.9146,-19.2771,1.1894],[-158.9128,-19.27,0.9671],[-158.9146,-19.263,1.1623],[-158.9204,-19.256,0.0]]],
[[[-158.945,-19.2638,0.2171],[-158.9471,-19.2636,0.0],[-158.9461,-19.2646,0.0],[-158.9428,-19.2651,0.0],[-158.9426,-19.2642,0.8206],[-158.945,-19.2638,0.2171]]],
[[[-158.9433,-19.2629,0.0],[-158.942,-19.2634,0.8206],[-158.9413,-19.2623,0.0],[-158.9423,-19.2621,0.0],[-158.9433,-19.2629,0.0]]],
[[[-159.7331,-18.9456,0.6589],[-159.7361,-18.9444,0.0],[-159.7328,-18.9514,0.0],[-159.7308,-18.9469,0.0],[-159.7331,-18.9456,0.6589]]],
[[[-159.7369,-18.9408,0.0],[-159.7353,-18.9414,0.0],[-159.735,-18.9394,1.7558],[-159.7361,-18.9394,0.0],[-159.7369,-18.9408,0.0]]],
[[[-159.733,-18.9384,1.0686],[-159.7336,-18.9368,4.053],[-159.7376,-18.9367,0.0],[-159.734,-18.939,1.7558],[-159.733,-18.9384,1.0686]]],
[[[-159.7297,-18.9194,0.0],[-159.7319,-18.9192,0.0],[-159.7314,-18.9317,0.0],[-159.735,-18.9356,1.629],[-159.7289,-18.9378,0.0],[-159.7275,-18.9275,3.0178],[-159.7278,-18.9217,0.5209],[-159.7297,-18.9194,0.0]]],
[[[-159.7283,-18.9156,0.0],[-159.7289,-18.9131,0.0],[-159.7319,-18.9147,0.0],[-159.7314,-18.9158,0.0],[-159.7283,-18.9156,0.0]]],
[[[-159.7589,-18.9276,0.0],[-159.7581,-18.9303,0.0],[-159.7564,-18.9295,0.0],[-159.7578,-18.9261,0.0],[-159.7589,-18.9276,0.0]]],
[[[-159.7484,-18.9244,0.0],[-159.7492,-18.9233,0.0],[-159.7505,-18.9245,0.0],[-159.7508,-18.9275,0.0],[-159.7489,-18.9258,4.3303],[-159.7484,-18.9244,0.0]]],
[[[-159.833,-18.9129,0.0],[-159.8361,-18.9125,0.0],[-159.8383,-18.9142,0.0],[-159.8364,-18.9158,0.0],[-159.8336,-18.9156,0.0],[-159.8317,-18.9133,0.0],[-159.833,-18.9129,0.0]]],
[[[-159.8262,-18.9095,0.0],[-159.828,-18.9092,0.0],[-159.827,-18.9104,0.0],[-159.8286,-18.914,0.0],[-159.827,-18.9141,0.0],[-159.825,-18.9108,0.0],[-159.8262,-18.9095,0.0]]],
[[[-159.7281,-18.9036,1.5977],[-159.7303,-18.9011,0.0],[-159.7339,-18.9025,0.0],[-159.7312,-18.9075,14.1733],[-159.7325,-18.9117,0.0],[-159.7272,-18.9095,4.7621],[-159.7281,-18.9036,1.5977]]],
[[[-159.739,-18.8936,0.0],[-159.7406,-18.8918,1.4203],[-159.743,-18.8931,1.2602],[-159.7406,-18.8961,3.1522],[-159.7369,-18.8936,0.0],[-159.738,-18.8925,0.0],[-159.739,-18.8936,0.0]]],
[[[-159.7445,-18.8915,0.0],[-159.742,-18.8916,2.0977],[-159.7406,-18.8889,0.0],[-159.7426,-18.8887,0.0],[-159.7445,-18.8915,0.0]]],
[[[-159.7495,-18.8814,6.3639],[-159.7514,-18.8817,1.4996],[-159.7489,-18.8844,1.6425],[-159.7475,-18.8836,0.0],[-159.7495,-18.8814,6.3639]]],
[[[-159.7497,-18.87,0.0],[-159.7481,-18.8702,0.0],[-159.7474,-18.8676,0.0],[-159.7489,-18.8661,2.7194],[-159.7481,-18.8643,2.0738],[-159.7502,-18.8576,1.7729],[-159.7528,-18.8547,2.7555],[-159.7561,-18.8567,0.0],[-159.7533,-18.8617,3.2323],[-159.7539,-18.8681,0.0],[-159.7497,-18.87,0.0]]],
[[[-159.7685,-18.824,2.7366],[-159.775,-18.8244,0.0],[-159.7803,-18.8331,8.8632],[-159.795,-18.8458,2.5073],[-159.7942,-18.85,0.0],[-159.7958,-18.8578,0.0],[-159.8014,-18.8639,0.0],[-159.8009,-18.8678,11.5512],[-159.8028,-18.8708,0.0],[-159.7961,-18.8805,1.8055],[-159.7958,-18.8844,0.0],[-159.7912,-18.8933,0.0],[-159.7822,-18.8914,0.0],[-159.7725,-18.8814,0.0],[-159.7747,-18.8739,17.7988],[-159.7739,-18.8714,0.0],[-159.7769,-18.8637,14.8565],[-159.7748,-18.8604,9.0049],[-159.7769,-18.8553,8.3971],[-159.7675,-18.8372,4.0395],[-159.7671,-18.8318,0.0],[-159.7614,-18.84,2.1503],[-159.7597,-18.8447,3.6265],[-159.7608,-18.8478,0.0],[-159.759,-18.8499,0.0],[-159.7569,-18.8496,7.8818],[-159.7597,-18.8512,0.0],[-159.7554,-18.8519,0.0],[-159.7538,-18.8506,0.0],[-159.7535,-18.8486,0.0],[-159.7559,-18.8479,0.0],[-159.7561,-18.8425,0.0],[-159.7594,-18.8354,0.9153],[-159.7685,-18.824,2.7366]]]]}
,"properties": {"GID_1": "COK.1_1","GID_0": "COK","country": "CookIslands","province": "Aitutaki","VARNAME_1": "NA","NL_NAME_1": "NA","TYPE_1": "IslandCouncil","ENGTYPE_1": "IslandCouncil","CC_1": "NA","HASC_1": "NA","ISO_1": "NA","name": "Aitutaki.province","area_km2": 27.46826,"hist_schema_id": "Elevation0-9000","hist_area_km2": {"0": 15.27102,"25": 8.50531,"50": 2.94951,"75": 0.66216,"100": 0.08026}}}