{"type": "Feature","id": "4951","bbox": [-158.95556,-19.26922,-158.89851,-19.23732],"geometry": {"type": "MultiPolygon","coordinates": [[[[-158.93798,-19.25709,0.0],[-158.94066,-19.24733,0.0],[-158.94567,-19.24212,0.0],[-158.95556,-19.24529,0.0],[-158.95018,-19.25449,0.0],[-158.93745,-19.26426,0.1988],[-158.92516,-19.26922,1.8579],[-158.92036,-19.26605,6.1736],[-158.91889,-19.26409,7.4759],[-158.91808,-19.26116,10.2638],[-158.9322,-19.26426,4.1058],[-158.93798,-19.25709,0.0]]],
[[[-158.89851,-19.25449,0.0],[-158.90359,-19.24009,0.0],[-158.91369,-19.23732,0.0],[-158.91759,-19.24293,0.0],[-158.91633,-19.2457,0.0],[-158.91169,-19.24928,0.0],[-158.911,-19.25457,0.0],[-158.90465,-19.26027,0.0],[-158.89851,-19.25449,0.0]]]]}
,"properties": {"ISO3166-1-Alpha-3": "COK","country": "Cook Islands","fill": "#F0F","name": "Aitutaki","area_km2": 6.08503,"hist_schema_id": "Elevation0-9000","hist_area_km2": {"0": 6.08503}}}