{"type": "Feature","bbox": [-169.5159,-14.2405,-169.4726,-14.2139],"geometry": {"type": "MultiPolygon","coordinates": [[[[-169.4778,-14.2151,11.1235],[-169.5014,-14.2169,31.0344],[-169.5061,-14.2139,32.5673],[-169.5159,-14.2227,61.8585],[-169.5065,-14.2242,112.7187],[-169.5019,-14.2231,122.4218],[-169.5013,-14.2294,169.7667],[-169.4865,-14.2393,654.6024],[-169.4814,-14.2405,713.6804],[-169.4726,-14.2382,734.4651],[-169.4778,-14.2151,11.1235]]]]}
,"properties": {"GID_2": "ASM.2.1_1","GID_0": "ASM","country": "AmericanSamoa","GID_1": "ASM.2_1","state": "Manu'a","NL_NAME_1": "NA","county": "Faleasao","VARNAME_2": "NA","NL_NAME_2": "NA","TYPE_2": "County","ENGTYPE_2": "County","CC_2": "NA","HASC_2": "AS.MA.FA","name": "Faleasao.county","area_km2": 7.583694,"hist_schema_id": "Elevation0-9000","hist_area_km2": {"0": 0.205528,"25": 0.22608,"50": 0.22608,"75": 0.102764,"100": 0.22608,"125": 0.657679,"150": 0.596023,"175": 0.308288,"200": 0.369942,"225": 0.349389,"250": 0.184969,"275": 0.431593,"300": 0.349383,"325": 0.164416,"350": 0.205518,"375": 0.123311,"400": 0.205518,"425": 0.082206,"450": 0.164414,"475": 0.143861,"500": 0.061655,"525": 0.164413,"550": 0.082206,"575": 0.143861,"600": 0.102759,"625": 0.102757,"650": 0.143861,"675": 0.205512,"700": 0.164412,"725": 0.349372,"750": 0.226065,"775": 0.246615,"800": 0.143858,"825": 0.020551,"850": 0.102756}}}