{"type":"Feature","properties":{"GID_3":"ASM.1.3.3_1","GID_0":"ASM","country":"AmericanSamoa","GID_1":"ASM.1_1","state":"Eastern","NL_NAME_1":"NA","GID_2":"ASM.1.3_1","county":"Sa'Ole","NL_NAME_2":"NA","city":"Auasi","VARNAME_3":"NA","NL_NAME_3":"NA","TYPE_3":"Village","ENGTYPE_3":"Village","CC_3":"NA","HASC_3":"NA","name":"Auasi.city"},
"geometry":{"type": "MultiPolygon","coordinates": [[[[-170.5775,-14.2743,0.0],[-170.5725,-14.2723,0.0],[-170.5732,-14.268,79.3082],[-170.5786,-14.2627,299.0455],[-170.5825,-14.2654,144.9893],[-170.5775,-14.2743,0.0]]]]}}