{"type": "Feature","bbox": [-170.7507,-14.3333,-170.7366,-14.3243],"geometry": {"type": "MultiPolygon","coordinates": [[[[-170.744,-14.3247,50.9232],[-170.7507,-14.3262,140.2897],[-170.741,-14.3333,43.4357],[-170.7366,-14.3243,37.7111],[-170.744,-14.3247,50.9232]]]]}
,"properties": {"GID_3": "ASM.4.4.1_1","GID_0": "ASM","country": "AmericanSamoa","GID_1": "ASM.4_1","state": "Western","NL_NAME_1": "NA","GID_2": "ASM.4.4_1","county": "Tualauta","NL_NAME_2": "NA","city": "Faleniu","VARNAME_3": "NA","NL_NAME_3": "NA","TYPE_3": "Village","ENGTYPE_3": "Village","CC_3": "NA","HASC_3": "NA","name": "Faleniu.city","area_km2": 0.7395382,"hist_schema_id": "Elevation0-9000","hist_area_km2": {"25": 0.0410854,"50": 0.5341103,"75": 0.1027139,"100": 0.0410857,"125": 0.0205428}}}