{"type":"Feature","properties":{"GID_2":"ASM.1.4_1","GID_0":"ASM","country":"AmericanSamoa","GID_1":"ASM.1_1","state":"Eastern","NL_NAME_1":"NA","county":"Sua","VARNAME_2":"NA","NL_NAME_2":"NA","TYPE_2":"County","ENGTYPE_2":"County","CC_2":"NA","HASC_2":"AS.ET.SU","name":"Sua.county"},
"geometry":{"type": "MultiPolygon","coordinates": [[[[-170.6305,-14.2796,6.5195],[-170.6197,-14.27,6.977],[-170.6096,-14.2702,0.0],[-170.604,-14.2648,190.985],[-170.5958,-14.2717,191.2401],[-170.5933,-14.2586,42.9045],[-170.5992,-14.2555,0.0],[-170.6048,-14.2558,0.0],[-170.6117,-14.2536,0.0],[-170.6247,-14.2575,0.0],[-170.6294,-14.255,0.0],[-170.6247,-14.2499,0.0],[-170.638,-14.2487,0.0],[-170.6521,-14.2556,0.0],[-170.6588,-14.2624,381.4632],[-170.6553,-14.266,206.0638],[-170.6543,-14.2732,394.1378],[-170.6636,-14.2898,8.2892],[-170.6432,-14.2875,0.0],[-170.6359,-14.2792,44.374],[-170.6305,-14.2796,6.5195]]]]}}