{"type": "Feature","bbox": [-170.748,-14.3247,-170.7276,-14.2902],"geometry": {"type": "MultiPolygon","coordinates": [[[[-170.7403,-14.2902,0.0],[-170.7372,-14.3039,238.8229],[-170.7408,-14.3089,289.1063],[-170.748,-14.3126,283.7646],[-170.7448,-14.3188,193.9691],[-170.744,-14.3247,50.9232],[-170.7366,-14.3243,37.7111],[-170.7321,-14.3207,40.0563],[-170.7276,-14.3049,212.5959],[-170.7316,-14.2974,326.699],[-170.7403,-14.2902,0.0]]]]}
,"properties": {"GID_3": "ASM.4.2.4_1","GID_0": "ASM","country": "AmericanSamoa","GID_1": "ASM.4_1","state": "Western","NL_NAME_1": "NA","GID_2": "ASM.4.2_1","county": "Leasina","NL_NAME_2": "NA","city": "Malaeimi","VARNAME_3": "NA","NL_NAME_3": "NA","TYPE_3": "Village","ENGTYPE_3": "Village","CC_3": "NA","HASC_3": "NA","name": "Malaeimi.city","area_km2": 4.211583,"hist_schema_id": "Elevation0-9000","hist_area_km2": {"25": 0.143808,"50": 1.417521,"75": 0.349258,"100": 0.308166,"125": 0.308168,"150": 0.308169,"175": 0.143812,"200": 0.205446,"225": 0.246539,"250": 0.143813,"275": 0.164357,"300": 0.267077,"325": 0.12327,"350": 0.082179}}}