{"type": "Feature","bbox": [-171.5664,-14.0322,-171.398,-13.95],"geometry": {"type": "MultiPolygon","coordinates": [[[[-171.4147,-14.0265,0.0],[-171.4136,-14.0189,7.1009],[-171.4142,-14.0181,7.1009],[-171.4176,-14.0212,0.0],[-171.4147,-14.0265,0.0]]],
[[[-171.3993,-14.0166,0.0],[-171.3995,-14.0137,9.0617],[-171.398,-14.0117,0.0],[-171.4011,-14.0128,0.0],[-171.3993,-14.0166,0.0]]],
[[[-171.4453,-14.0268,70.6528],[-171.4322,-14.0322,2.8088],[-171.4236,-14.019,1.2892],[-171.4248,-14.0072,0.6297],[-171.4238,-14.0041,1.6617],[-171.4278,-13.9953,3.624],[-171.4333,-13.9911,0.0],[-171.4342,-13.9883,9.3263],[-171.4378,-13.9883,61.1687],[-171.4361,-13.985,0.0],[-171.4395,-13.9825,3.0949],[-171.4408,-13.9758,0.5203],[-171.4538,-13.9729,0.0],[-171.455,-13.9789,1.6045],[-171.4586,-13.9756,0.0],[-171.4606,-13.9778,0.0],[-171.468,-13.9758,0.9154],[-171.47,-13.9736,1.0106],[-171.4692,-13.9667,17.8774],[-171.4733,-13.9661,8.2972],[-171.4742,-13.9625,6.4228],[-171.4803,-13.9597,2.5734],[-171.4804,-13.9548,0.0],[-171.4834,-13.9534,0.0],[-171.4869,-13.9561,0.0],[-171.4873,-13.951599999999999,4.3741],[-171.4913,-13.9549,81.1589],[-171.4947,-13.9507,0.0],[-171.4978,-13.95,19.0537],[-171.5053,-13.9517,31.7201],[-171.508,-13.9508,0.0],[-171.5085,-13.9569,130.2633],[-171.5133,-13.9711,540.3554],[-171.5122,-13.9714,451.2194],[-171.5142,-13.9804,335.1061],[-171.5371,-13.9804,338.8128],[-171.5603,-13.9655,315.0],[-171.5609,-13.9559,554.869],[-171.5638,-13.9534,492.5975],[-171.5664,-13.9627,259.9365],[-171.5664,-13.9701,275.7159],[-171.5639,-13.9737,382.2561],[-171.5621,-13.9997,272.7826],[-171.4668,-14.0168,399.1402],[-171.4671,-14.0252,394.209],[-171.4634,-14.0279,227.2011],[-171.455,-14.0244,235.3299],[-171.4453,-14.0268,70.6528]]]]}
,"properties": {"GID_2": "WSM.3.1_1","GID_0": "WSM","country": "Samoa","GID_1": "WSM.3_1","province": "Atua","NL_NAME_1": "NA","county": "AleipataItupaiLalo","VARNAME_2": "NA","NL_NAME_2": "NA","TYPE_2": "Unknown","ENGTYPE_2": "Unknown","CC_2": "NA","HASC_2": "NA","name": "Aleipata_Itupai_Lalo.county","area_km2": 71.96485,"hist_schema_id": "Elevation0-9000","hist_area_km2": {"0": 3.29159,"25": 3.47671,"50": 3.31222,"75": 2.83906,"100": 3.5386,"125": 2.75683,"150": 2.42763,"175": 2.40707,"200": 2.65395,"225": 3.18884,"250": 2.83915,"275": 3.04486,"300": 4.25866,"325": 6.64524,"350": 6.21319,"375": 5.41079,"400": 4.40258,"425": 3.27111,"450": 1.97501,"475": 1.31667,"500": 1.41955,"525": 0.80234,"550": 0.43203,"575": 0.04115}}}