{"type":"Feature","properties":{"GID_2":"WSM.4.4_1","GID_0":"WSM","country":"Samoa","GID_1":"WSM.4_1","province":"Fa'asaleleaga","NL_NAME_1":"NA","county":"FaasaleleagaIV","VARNAME_2":"NA","NL_NAME_2":"NA","TYPE_2":"Unknown","ENGTYPE_2":"Unknown","CC_2":"NA","HASC_2":"NA","name":"Faasaleleaga_I_V.county"},
"geometry":{"type": "MultiPolygon","coordinates": [[[[-172.2421,-13.6273,160.1472],[-172.1952,-13.6256,6.3076],[-172.194,-13.6228,1.3817],[-172.1976,-13.6205,3.3032],[-172.2047,-13.595,0.0],[-172.214,-13.5837,2.1965],[-172.2109,-13.5834,0.0],[-172.209,-13.5813,0.0],[-172.2114,-13.5778,0.0],[-172.2186,-13.5753,3.1415],[-172.2267,-13.5697,4.9571],[-172.2267,-13.5594,0.0],[-172.2283,-13.5572,8.7077],[-172.2351,-13.5546,7.6011],[-172.2381,-13.5434,4.5562],[-172.2474,-13.5321,3.8987],[-172.2578,-13.523,19.6739],[-172.2592,-13.5198,6.7315],[-172.2592,-13.5663,128.4302],[-172.2798,-13.5756,267.6129],[-172.255,-13.6278,261.4211],[-172.2421,-13.6273,160.1472]]]]}}