{"type":"Feature","properties":{"GID_2":"ASM.2.2_1","GID_0":"ASM","country":"AmericanSamoa","GID_1":"ASM.2_1","state":"Manu'a","NL_NAME_1":"NA","county":"Fitiuta","VARNAME_2":"NA","NL_NAME_2":"NA","TYPE_2":"County","ENGTYPE_2":"County","CC_2":"NA","HASC_2":"AS.MA.FI","name":"Fitiuta.county"},
"geometry":{"type": "MultiPolygon","coordinates": [[[[-169.4606,-14.239,436.6088],[-169.4565,-14.2472,71.9272],[-169.4497,-14.2515,0.0],[-169.4301,-14.2569,0.0],[-169.4238,-14.2558,13.0002],[-169.4211,-14.2476,0.0],[-169.4187,-14.2201,0.0],[-169.4234,-14.2148,34.4904],[-169.4286,-14.2119,12.7812],[-169.4391,-14.2137,6.6743],[-169.4511,-14.2123,0.0],[-169.4778,-14.2151,11.1235],[-169.4726,-14.2382,734.4651],[-169.4578,-14.2347,517.4736],[-169.4606,-14.239,436.6088]]]]}}