{"type": "Feature","bbox": [-170.8382,-14.3218,-170.8257,-14.3111],"geometry": {"type": "MultiPolygon","coordinates": [[[[-170.8257,-14.3218,112.0756],[-170.8275,-14.3158,146.0573],[-170.8332,-14.3111,0.0],[-170.834,-14.3158,0.0],[-170.8382,-14.3202,73.07],[-170.831,-14.3189,112.3168],[-170.8257,-14.3218,112.0756]]]]}
,"properties": {"GID_3": "ASM.4.1.12_1","GID_0": "ASM","country": "AmericanSamoa","GID_1": "ASM.4_1","state": "Western","NL_NAME_1": "NA","GID_2": "ASM.4.1_2","county": "Lealataua","NL_NAME_2": "NA","city": "Poloa","VARNAME_3": "NA","NL_NAME_3": "NA","TYPE_3": "Village","ENGTYPE_3": "Village","CC_3": "NA","HASC_3": "NA","name": "Poloa.city","area_km2": 0.6163117,"hist_schema_id": "Elevation0-9000","hist_area_km2": {"0": 0.1027186,"25": 0.0410873,"50": 0.1027184,"75": 0.1232634,"100": 0.0616312,"125": 0.0616314,"150": 0.0410874,"175": 0.0616306,"200": 0.0205435}}}