{"type": "Feature","bbox": [-169.6806,-14.1862,-169.6334,-14.1603],"geometry": {"type": "MultiPolygon","coordinates": [[[[-169.6334,-14.1679,6.2726],[-169.6378,-14.1666,32.8578],[-169.6537,-14.1662,0.0],[-169.6735,-14.1603,12.8121],[-169.6806,-14.1624,22.9299],[-169.677,-14.1802,0.0],[-169.6697,-14.1862,0.415],[-169.6614,-14.1834,0.0],[-169.645,-14.172,0.0],[-169.6381,-14.1709,20.9894],[-169.6334,-14.1679,6.2726]]]]}
,"properties": {"GID_2": "ASM.2.3_1","GID_0": "ASM","country": "AmericanSamoa","GID_1": "ASM.2_1","state": "Manu'a","NL_NAME_1": "NA","county": "Ofu","VARNAME_2": "NA","NL_NAME_2": "NA","TYPE_2": "County","ENGTYPE_2": "County","CC_2": "NA","HASC_2": "AS.MA.OF","name": "Ofu.county","area_km2": 7.441603,"hist_schema_id": "Elevation0-9000","hist_area_km2": {"0": 1.212857,"25": 0.513925,"50": 0.472814,"75": 0.390583,"100": 0.657825,"125": 0.472813,"150": 0.5756,"175": 0.349468,"200": 0.205569,"225": 0.226129,"250": 0.349466,"275": 0.267237,"300": 0.287797,"325": 0.411133,"350": 0.143896,"375": 0.349464,"400": 0.226123,"425": 0.12334,"450": 0.123339,"475": 0.082226}}}