{"type":"Feature","properties":{"GID_3":"ASM.4.2.1_1","GID_0":"ASM","country":"AmericanSamoa","GID_1":"ASM.4_1","state":"Western","NL_NAME_1":"NA","GID_2":"ASM.4.2_1","county":"Leasina","NL_NAME_2":"NA","city":"Aasu","VARNAME_3":"NA","NL_NAME_3":"NA","TYPE_3":"Village","ENGTYPE_3":"Village","CC_3":"NA","HASC_3":"NA","name":"Aasu.city"},
"geometry":{"type": "MultiPolygon","coordinates": [[[[-170.7667,-14.3167,445.3689],[-170.762,-14.3185,288.85],[-170.7408,-14.3089,289.1063],[-170.7372,-14.3039,238.8229],[-170.7403,-14.2902,0.0],[-170.7531,-14.2937,0.0],[-170.7644,-14.2883,7.3044],[-170.7701,-14.2904,11.1515],[-170.7738,-14.3028,268.7105],[-170.7729,-14.3144,397.2588],[-170.7667,-14.3167,445.3689]]]]}}