{"type": "Feature","bbox": [-172.7579,-13.5655,-172.6765,-13.49],"geometry": {"type": "MultiPolygon","coordinates": [[[[-172.6944,-13.5655,436.4858],[-172.6845,-13.5497,374.0373],[-172.682,-13.5368,195.7416],[-172.6765,-13.5318,140.5239],[-172.6802,-13.5226,59.2397],[-172.6783,-13.5108,0.0],[-172.6839,-13.5093,0.0],[-172.6886,-13.5154,3.5446],[-172.6898,-13.5139,0.0],[-172.6924,-13.5154,5.0268],[-172.6944,-13.5139,0.0],[-172.6955,-13.517,1.1669],[-172.7007,-13.5195,5.3294],[-172.7109,-13.5153,2.9989],[-172.7195,-13.5149,3.5262],[-172.732,-13.5069,3.7775],[-172.7341,-13.5031,0.0],[-172.7401,-13.4982,1.875],[-172.7497,-13.4969,3.2028],[-172.7554,-13.4904,3.262],[-172.7579,-13.49,4.3615],[-172.7471,-13.5221,136.2277],[-172.6978,-13.5648,437.2118],[-172.6944,-13.5655,436.4858]]]]}
,"properties": {"GID_2": "WSM.11.4_1","GID_0": "WSM","country": "Samoa","GID_1": "WSM.11_1","province": "Vaisigano","NL_NAME_1": "NA","county": "VaisiganoWest","VARNAME_2": "NA","NL_NAME_2": "NA","TYPE_2": "Unknown","ENGTYPE_2": "Unknown","CC_2": "NA","HASC_2": "NA","name": "Vaisigano_West.county","area_km2": 30.59102,"hist_schema_id": "Elevation0-9000","hist_area_km2": {"0": 1.50495,"25": 3.25726,"50": 1.8966,"75": 2.39132,"100": 2.49436,"125": 3.19522,"150": 2.22631,"175": 2.16443,"200": 1.27803,"225": 1.44293,"250": 1.73148,"275": 1.48411,"300": 1.25736,"325": 1.50469,"350": 0.80387,"375": 0.90691,"400": 0.61834,"425": 0.39161,"450": 0.04122}}}