{"type": "Feature","bbox": [-170.5614,-14.2892,-170.5467,-14.2786],"geometry": {"type": "MultiPolygon","coordinates": [[[[-170.553,-14.2786,2.8845],[-170.5586,-14.2796,4.9979],[-170.5614,-14.2833,0.0],[-170.5601,-14.2874,0.8604],[-170.554,-14.2892,0.0],[-170.5472,-14.2877,12.0759],[-170.5467,-14.2815,13.9874],[-170.553,-14.2786,2.8845]]]]}
,"properties": {"GID_3": "ASM.1.3.4_1","GID_0": "ASM","country": "AmericanSamoa","GID_1": "ASM.1_1","state": "Eastern","NL_NAME_1": "NA","GID_2": "ASM.1.3_1","county": "Sa'Ole","NL_NAME_2": "NA","city": "Aunu'u","VARNAME_3": "NA","NL_NAME_3": "NA","TYPE_3": "Village","ENGTYPE_3": "Village","CC_3": "NA","HASC_3": "NA","name": "Aunu'u.city","area_km2": 1.458818,"hist_schema_id": "Elevation0-9000","hist_area_km2": {"0": 0.986245,"25": 0.349293,"50": 0.082187,"75": 0.041093}}}