{"type":"Feature","properties":{"GID_3":"ASM.2.2.1_1","GID_0":"ASM","country":"AmericanSamoa","GID_1":"ASM.2_1","state":"Manu'a","NL_NAME_1":"NA","GID_2":"ASM.2.2_1","county":"Fitiuta","NL_NAME_2":"NA","city":"Leusoali'i","VARNAME_3":"NA","NL_NAME_3":"NA","TYPE_3":"Village","ENGTYPE_3":"Village","CC_3":"NA","HASC_3":"NA","name":"Leusoali'i.city"},
"geometry":{"type": "MultiPolygon","coordinates": [[[[-169.4565,-14.2472,71.9272],[-169.4497,-14.2515,0.0],[-169.437,-14.2552,14.0602],[-169.4301,-14.2569,0.0],[-169.4238,-14.2558,13.0002],[-169.4211,-14.2476,0.0],[-169.4187,-14.2201,0.0],[-169.4234,-14.2148,34.4904],[-169.4578,-14.2347,517.4736],[-169.4606,-14.239,436.6088],[-169.4565,-14.2472,71.9272]]]]}}