{"type": "Feature","bbox": [-170.7876,-14.3732,-170.7507,-14.3393],"geometry": {"type": "MultiPolygon","coordinates": [[[[-170.7507,-14.36,0.0],[-170.7545,-14.3407,90.9455],[-170.76,-14.3393,127.7144],[-170.7706,-14.3407,46.0334],[-170.7681,-14.3445,51.8365],[-170.7636,-14.3475,62.853],[-170.7749,-14.3497,32.0537],[-170.7789,-14.3527,20.6704],[-170.7833,-14.3465,17.7522],[-170.7876,-14.3461,5.3325],[-170.7856,-14.356,0.0],[-170.7704,-14.3639,22.1706],[-170.7628,-14.3637,0.0],[-170.7618,-14.3697,20.1079],[-170.7592,-14.3732,2.3945],[-170.7551,-14.3692,27.3202],[-170.7537,-14.3635,3.8688],[-170.7507,-14.36,0.0]]]]}
,"properties": {"GID_2": "ASM.4.3_1","GID_0": "ASM","country": "AmericanSamoa","GID_1": "ASM.4_1","state": "Western","NL_NAME_1": "NA","county": "Tualatai","VARNAME_2": "NA","NL_NAME_2": "NA","TYPE_2": "County","ENGTYPE_2": "County","CC_2": "NA","HASC_2": "AS.WT.TI","name": "Tualatai.county","area_km2": 7.558824,"hist_schema_id": "Elevation0-9000","hist_area_km2": {"0": 0.801054,"25": 2.033471,"50": 1.273508,"75": 1.62268,"100": 1.109184,"125": 0.534058,"150": 0.164327,"175": 0.020541}}}