{"type":"Feature","properties":{"GID_2":"WSM.11.1_1","GID_0":"WSM","country":"Samoa","GID_1":"WSM.11_1","province":"Vaisigano","NL_NAME_1":"NA","county":"AlatauaWest","VARNAME_2":"NA","NL_NAME_2":"NA","TYPE_2":"Unknown","ENGTYPE_2":"Unknown","CC_2":"NA","HASC_2":"NA","name":"Alataua_West.county"},
"geometry":{"type": "MultiPolygon","coordinates": [[[[-172.6722,-13.5701,614.9691],[-172.6978,-13.5648,437.2118],[-172.7624,-13.5361,155.7742],[-172.7662,-13.5339,120.0854],[-172.7713,-13.5251,80.2862],[-172.7775,-13.5202,49.2813],[-172.7915,-13.5199,17.9496],[-172.804,-13.5159,4.7102],[-172.7917,-13.5294,9.7842],[-172.7916,-13.5358,8.465],[-172.788,-13.5378,22.997],[-172.7863,-13.5452,3.9711],[-172.7806,-13.5475,2.9593],[-172.7607,-13.5666,0.9113],[-172.7509,-13.5683,2.5184],[-172.7469,-13.5733,0.0],[-172.7354,-13.5773,43.3098],[-172.7285,-13.5864,0.0],[-172.727,-13.5922,2.3546],[-172.7209,-13.6009,0.0],[-172.7129,-13.6061,2.3106],[-172.6911,-13.5889,388.2408],[-172.6722,-13.5701,614.9691]]]]}}