{"type": "Feature","bbox": [-170.7901,-14.3527,-170.7636,-14.3144],"geometry": {"type": "MultiPolygon","coordinates": [[[[-170.7706,-14.3407,46.0334],[-170.7763,-14.3413,35.8924],[-170.7778,-14.3294,179.3912],[-170.7667,-14.3167,445.3689],[-170.7729,-14.3144,397.2588],[-170.7838,-14.3144,382.9616],[-170.7901,-14.3355,0.0],[-170.7874,-14.3393,2.518],[-170.7876,-14.3461,5.3325],[-170.7833,-14.3465,17.7522],[-170.7789,-14.3527,20.6704],[-170.7749,-14.3497,32.0537],[-170.7636,-14.3475,62.853],[-170.7681,-14.3445,51.8365],[-170.7706,-14.3407,46.0334]]]]}
,"properties": {"GID_2": "ASM.4.5_1","GID_0": "ASM","country": "AmericanSamoa","GID_1": "ASM.4_1","state": "Western","NL_NAME_1": "NA","county": "Fofo","VARNAME_2": "NA","NL_NAME_2": "NA","TYPE_2": "County","ENGTYPE_2": "County","CC_2": "NA","HASC_2": "AS.WT.FF","name": "Fofo.county","area_km2": 6.039432,"hist_schema_id": "Elevation0-9000","hist_area_km2": {"0": 0.760048,"25": 1.335186,"50": 1.006531,"75": 0.287592,"100": 0.205424,"125": 0.246511,"150": 0.287601,"175": 0.20543,"200": 0.287604,"225": 0.143803,"250": 0.287607,"275": 0.143804,"300": 0.143804,"325": 0.123261,"350": 0.123262,"375": 0.184893,"400": 0.143806,"425": 0.102719,"450": 0.020544}}}