{"type":"Feature","properties":{"GID_3":"ASM.1.3.1_1","GID_0":"ASM","country":"AmericanSamoa","GID_1":"ASM.1_1","state":"Eastern","NL_NAME_1":"NA","GID_2":"ASM.1.3_1","county":"Sa'Ole","NL_NAME_2":"NA","city":"Alofau","VARNAME_3":"NA","NL_NAME_3":"NA","TYPE_3":"Village","ENGTYPE_3":"Village","CC_3":"NA","HASC_3":"NA","name":"Alofau.city"},
"geometry":{"type": "MultiPolygon","coordinates": [[[[-170.5958,-14.2717,191.2401],[-170.6,-14.2684,224.3161],[-170.6058,-14.273,0.0],[-170.6056,-14.2795,0.0],[-170.602,-14.2841,8.0876],[-170.5969,-14.2815,1.4607],[-170.5958,-14.2717,191.2401]]]]}}