{"type":"Feature","properties":{"GID_1":"TON.2_1","GID_0":"TON","country":"Tonga","province":"Ha'apai","VARNAME_1":"NA","NL_NAME_1":"NA","TYPE_1":"IslandGroup","ENGTYPE_1":"IslandGroup","CC_1":"NA","HASC_1":"TO.HA","ISO_1":"TO-02","name":"Ha'apai.province"},
"geometry":{"type": "MultiPolygon","coordinates": [[[[-175.4019,-20.5492,0.0],[-175.4025,-20.5481,0.0],[-175.3992,-20.5453,0.0],[-175.4031,-20.5394,0.0],[-175.4058,-20.5419,0.0],[-175.4053,-20.5464,7.72],[-175.4086,-20.5511,7.3705],[-175.4072,-20.5556,0.0],[-175.4047,-20.5553,0.0],[-175.405,-20.5531,2.3907],[-175.4019,-20.5492,0.0]]],
[[[-175.3825,-20.5333,0.0],[-175.3872,-20.5311,0.0],[-175.3892,-20.5336,0.0],[-175.3844,-20.5383,0.0],[-175.3719,-20.5408,0.0],[-175.3764,-20.5358,0.0],[-175.3825,-20.5333,0.0]]],
[[[-174.7608,-20.4761,0.0],[-174.7614,-20.4789,1.5105],[-174.7608,-20.4794,1.224],[-174.7594,-20.4769,2.833],[-174.7608,-20.4761,0.0]]],
[[[-174.7583,-20.4592,0.0],[-174.7606,-20.4572,0.0],[-174.7642,-20.4589,0.0],[-174.7608,-20.4631,0.0],[-174.7586,-20.4619,0.0],[-174.7583,-20.4592,0.0]]],
[[[-174.7331,-20.5061,2.9553],[-174.7319,-20.505,0.0],[-174.7372,-20.5,0.0],[-174.7381,-20.5042,2.4186],[-174.7331,-20.5061,2.9553]]],
[[[-174.7094,-20.3264,0.0],[-174.7139,-20.3242,0.0],[-174.7178,-20.3258,3.5472],[-174.7156,-20.3311,2.2327],[-174.7128,-20.3306,2.3223],[-174.7033,-20.3356,1.8832],[-174.7028,-20.3333,3.3793],[-174.7094,-20.3264,0.0]]],
[[[-174.7331,-20.3228,2.8501],[-174.7314,-20.3233,0.0],[-174.73,-20.3222,0.0],[-174.7328,-20.3214,2.8501],[-174.7331,-20.3228,2.8501]]],
[[[-174.6936,-20.2964,0.0],[-174.6953,-20.2939,0.0],[-174.6964,-20.2947,0.0],[-174.6956,-20.2964,0.0],[-174.6936,-20.2964,0.0]]],
[[[-174.8058,-20.2789,0.0],[-174.8111,-20.2747,1.8785],[-174.8122,-20.2756,1.8785],[-174.8061,-20.2889,19.0126],[-174.8028,-20.2911,0.7235],[-174.8011,-20.2822,1.2524],[-174.8058,-20.2789,0.0]]],
[[[-174.7731,-20.2431,0.7274],[-174.7731,-20.2386,0.0],[-174.7746,-20.2373,0.0],[-174.7792,-20.2386,6.812],[-174.7803,-20.2409,0.0],[-174.7858,-20.2417,0.0],[-174.7862,-20.2439,2.1574],[-174.789,-20.2438,7.7405],[-174.7895,-20.2417,3.1499],[-174.8065,-20.2434,0.0],[-174.8106,-20.2535,0.0],[-174.8086,-20.2564,0.0],[-174.8047,-20.2564,0.0],[-174.7844,-20.2714,0.0],[-174.7803,-20.2681,0.0],[-174.7808,-20.2597,2.7765],[-174.7767,-20.2544,0.0],[-174.7783,-20.2528,0.0],[-174.7772,-20.2478,0.0],[-174.7731,-20.2431,0.7274]]],
[[[-174.7894,-20.1019,0.4563],[-174.7906,-20.1006,0.0],[-174.7915,-20.101,0.0],[-174.7903,-20.1029,0.6704],[-174.7894,-20.1019,0.4563]]],
[[[-174.7636,-20.01,4.0293],[-174.7683,-20.0092,0.0],[-174.7714,-20.0117,0.0],[-174.7739,-20.0156,0.0],[-174.7717,-20.0194,0.0],[-174.7655,-20.0222,1.6827],[-174.7614,-20.0211,2.8467],[-174.7586,-20.0133,0.0],[-174.7636,-20.01,4.0293]]],
[[[-174.6917,-20.2525,0.0],[-174.6908,-20.2536,0.0],[-174.6889,-20.2532,0.0],[-174.6898,-20.252,0.0],[-174.6917,-20.2525,0.0]]],
[[[-174.7033,-20.1108,4.833],[-174.7008,-20.1121,0.0],[-174.6998,-20.1112,0.0],[-174.7025,-20.1093,0.0],[-174.7033,-20.1108,4.833]]],
[[[-174.7329,-20.0518,0.0],[-174.7336,-20.0497,0.0],[-174.7353,-20.05,4.979],[-174.735,-20.0518,0.0],[-174.7329,-20.0518,0.0]]],
[[[-174.705,-20.0419,2.4896],[-174.7044,-20.0442,2.2676],[-174.7028,-20.0436,0.0],[-174.7036,-20.0415,2.4896],[-174.705,-20.0419,2.4896]]],
[[[-174.5372,-20.4006,0.0],[-174.5308,-20.3994,5.1446],[-174.5267,-20.3969,5.8583],[-174.5247,-20.3942,10.834],[-174.525,-20.3906,0.0],[-174.5367,-20.3983,4.415],[-174.5381,-20.3997,0.0],[-174.5372,-20.4006,0.0]]],
[[[-174.5239,-20.3508,6.9936],[-174.5233,-20.3531,0.0],[-174.5203,-20.35,4.8287],[-174.5194,-20.3417,1.6939],[-174.5222,-20.3456,5.4453],[-174.5239,-20.3508,6.9936]]],
[[[-174.52,-20.3133,1.5121],[-174.5219,-20.3119,1.7605],[-174.5239,-20.3131,3.7069],[-174.5194,-20.3189,0.8351],[-174.5189,-20.3156,4.8361],[-174.52,-20.3133,1.5121]]],
[[[-174.5347,-20.305,0.0],[-174.5333,-20.3036,0.0],[-174.5358,-20.3022,0.0],[-174.5361,-20.3036,0.0],[-174.5347,-20.305,0.0]]],
[[[-174.6269,-20.2811,6.2166],[-174.6231,-20.2794,0.0],[-174.6245,-20.2761,0.0],[-174.6361,-20.2789,0.0],[-174.6353,-20.2814,0.0],[-174.6269,-20.2811,6.2166]]],
[[[-174.6072,-20.0689,1.0447],[-174.605,-20.0689,3.5954],[-174.6027,-20.0682,0.0],[-174.6108,-20.0664,3.1507],[-174.6072,-20.0689,1.0447]]],
[[[-174.4936,-19.9689,1.4357],[-174.4961,-19.9675,0.0],[-174.5005,-19.9694,0.0],[-174.4983,-19.9703,0.0],[-174.4936,-19.9689,1.4357]]],
[[[-174.4767,-19.9656,0.9034],[-174.4725,-19.9628,0.0],[-174.4731,-19.9615,1.5196],[-174.4914,-19.9675,0.0],[-174.4861,-19.9686,0.0],[-174.4767,-19.9656,0.9034]]],
[[[-174.4589,-20.0208,0.0],[-174.4578,-20.0231,0.0],[-174.4564,-20.0231,0.0],[-174.4575,-20.0194,0.0],[-174.4589,-20.0208,0.0]]],
[[[-174.4705,-19.9606,0.0],[-174.4711,-19.9622,0.0],[-174.4681,-19.9598,0.0],[-174.4686,-19.9594,0.0],[-174.4705,-19.9606,0.0]]],
[[[-174.4647,-19.9568,0.0],[-174.4675,-19.9597,0.0],[-174.4625,-19.9569,0.0],[-174.463,-19.9558,0.0],[-174.4647,-19.9568,0.0]]],
[[[-174.4595,-19.9536,0.0],[-174.4602,-19.954,0.0],[-174.4608,-19.9549,0.0],[-174.4581,-19.953,0.0],[-174.4595,-19.9536,0.0]]],
[[[-174.4089,-19.8839,0.0],[-174.4111,-19.8836,0.7658],[-174.4094,-19.8958,0.3038],[-174.4119,-19.9072,0.0],[-174.4214,-19.9181,0.0],[-174.4114,-19.9228,0.0],[-174.4083,-19.9206,0.0],[-174.4011,-19.9081,1.3563],[-174.3933,-19.9014,0.0],[-174.3911,-19.8969,0.0],[-174.3917,-19.8925,0.0],[-174.3942,-19.8897,0.0],[-174.3975,-19.8903,3.253],[-174.4089,-19.8839,0.0]]],
[[[-174.4217,-19.8714,9.287],[-174.4236,-19.8706,0.0],[-174.425,-19.8719,3.2239],[-174.4153,-19.8806,0.0],[-174.4147,-19.8792,0.0],[-174.4217,-19.8714,9.287]]],
[[[-174.4761,-19.8722,2.3046],[-174.4747,-19.8708,0.0],[-174.4772,-19.8697,0.638],[-174.4781,-19.8711,0.638],[-174.4761,-19.8722,2.3046]]],
[[[-174.3911,-19.8428,2.2684],[-174.3883,-19.8358,0.0],[-174.3892,-19.8344,0.0],[-174.4033,-19.8432,1.607],[-174.4097,-19.8436,0.7587],[-174.4119,-19.8492,0.0],[-174.4153,-19.8526,2.0526],[-174.4256,-19.8536,2.8725],[-174.4261,-19.855,0.0],[-174.4194,-19.8567,3.1491],[-174.4156,-19.8594,1.2406],[-174.4114,-19.8586,0.9195],[-174.3961,-19.8494,4.4401],[-174.3911,-19.8428,2.2684]]],
[[[-174.6757,-20.0401,5.9213],[-174.6768,-20.0353,16.8969],[-174.6794,-20.0333,10.2598],[-174.6872,-20.0333,1.8678],[-174.6886,-20.035,9.1234],[-174.6872,-20.0386,0.0],[-174.6819,-20.0431,0.0],[-174.6778,-20.0425,4.4749],[-174.6757,-20.0401,5.9213]]],
[[[-174.7161,-20.0225,2.2446],[-174.7151,-20.0213,0.0],[-174.7175,-20.0192,0.0],[-174.718,-20.0206,0.0],[-174.7161,-20.0225,2.2446]]],
[[[-174.7231,-19.9644,0.0],[-174.7242,-19.9619,2.8715],[-174.7261,-19.9622,0.0],[-174.7283,-19.9653,0.0],[-174.7275,-19.9678,0.0],[-174.7242,-19.9672,7.1163],[-174.7231,-19.9644,0.0]]],
[[[-174.7022,-19.9625,0.0],[-174.7022,-19.9639,0.0],[-174.6999,-19.9626,0.0],[-174.7006,-19.9619,0.0],[-174.7022,-19.9625,0.0]]],
[[[-174.7864,-19.9964,0.0],[-174.7856,-19.9947,0.0],[-174.7869,-19.9942,0.0],[-174.7878,-19.9961,0.0],[-174.7864,-19.9964,0.0]]],
[[[-174.7394,-19.9789,0.0],[-174.7386,-19.9808,0.0],[-174.7347,-19.9733,0.0],[-174.7353,-19.9719,0.0],[-174.7397,-19.9742,0.0],[-174.7394,-19.9789,0.0]]],
[[[-174.7453,-19.9569,1.0338],[-174.7478,-19.9561,0.0],[-174.7492,-19.9575,0.0],[-174.7492,-19.9619,0.0],[-174.7419,-19.9606,0.0],[-174.7414,-19.9581,0.0],[-174.7453,-19.9569,1.0338]]],
[[[-174.7953,-19.9431,0.0],[-174.7972,-19.9408,0.0],[-174.7997,-19.9422,0.983],[-174.8028,-19.95,0.0],[-174.8008,-19.9519,0.0],[-174.7983,-19.9514,2.1693],[-174.7953,-19.9431,0.0]]],
[[[-174.7058,-19.9397,2.9795],[-174.7094,-19.9375,0.0],[-174.7195,-19.9464,2.1625],[-174.7197,-19.9508,1.6798],[-174.7156,-19.9572,4.4404],[-174.7119,-19.9569,4.0589],[-174.7042,-19.9467,1.6614],[-174.7042,-19.9419,0.0],[-174.7058,-19.9397,2.9795]]],
[[[-174.7217,-19.8069,6.016],[-174.7264,-19.8067,0.0],[-174.7283,-19.8089,0.0],[-174.7283,-19.8128,0.0],[-174.7219,-19.8156,6.2625],[-174.7153,-19.8153,0.0],[-174.7144,-19.8119,16.8677],[-174.7217,-19.8069,6.016]]],
[[[-175.0778,-19.7081,0.0],[-175.0833,-19.7064,0.0],[-175.0953,-19.7153,0.0],[-175.0994,-19.7264,19.9378],[-175.1014,-19.7275,0.0],[-175.1017,-19.7347,37.1933],[-175.1044,-19.7386,39.2399],[-175.1061,-19.7517,0.0],[-175.1086,-19.7544,0.0],[-175.1083,-19.7564,0.0],[-175.1056,-19.7606,0.0],[-175.1008,-19.7619,7.5846],[-175.0947,-19.7675,0.0],[-175.0914,-19.7717,0.0],[-175.0919,-19.7731,0.0],[-175.0867,-19.7786,0.0],[-175.0808,-19.7806,11.7049],[-175.0758,-19.7886,0.0],[-175.07,-19.7875,33.9769],[-175.0581,-19.7892,18.5785],[-175.0517,-19.7869,33.4241],[-175.0458,-19.7881,0.0],[-175.0414,-19.7858,11.1548],[-175.0342,-19.7778,0.0],[-175.0317,-19.7736,0.0],[-175.0317,-19.7697,0.0],[-175.0286,-19.7661,4.5139],[-175.0297,-19.7617,29.7608],[-175.0264,-19.7594,0.0],[-175.029,-19.7548,38.1536],[-175.0325,-19.7403,0.0],[-175.0428,-19.7253,0.0],[-175.0456,-19.7178,0.0],[-175.0503,-19.7131,1.3702],[-175.0531,-19.7119,0.0],[-175.055,-19.7133,19.5838],[-175.0644,-19.7106,0.0],[-175.0664,-19.7119,27.7686],[-175.0778,-19.7081,0.0]]],
[[[-175.0131,-19.6458,0.0],[-175.0189,-19.6456,0.0],[-175.0217,-19.6483,14.4969],[-175.0281,-19.6581,10.174],[-175.0311,-19.6672,0.0],[-175.0372,-19.6661,0.0],[-175.0379,-19.6722,0.0],[-175.0328,-19.6731,0.0],[-175.0311,-19.6761,9.308],[-175.0322,-19.6842,17.0959],[-175.0281,-19.69,2.1278],[-175.025,-19.6917,0.0],[-175.0114,-19.6844,9.2343],[-174.9987,-19.6706,0.0],[-174.9972,-19.6633,0.0],[-174.9997,-19.6642,0.0],[-175.0,-19.6619,15.7358],[-175.0061,-19.6561,36.7264],[-175.0069,-19.6494,0.0],[-175.0131,-19.6458,0.0]]],
[[[-174.5189,-19.8461,4.2205],[-174.5181,-19.8453,0.0],[-174.5194,-19.8442,0.0],[-174.5214,-19.8453,0.0],[-174.52,-19.8464,0.0],[-174.5189,-19.8461,4.2205]]],
[[[-174.5483,-19.8206,0.0],[-174.5525,-19.8192,0.0],[-174.5581,-19.8236,3.8013],[-174.56,-19.8256,4.3463],[-174.5583,-19.8283,9.5287],[-174.5592,-19.8294,9.5287],[-174.5558,-19.8314,0.0],[-174.55,-19.8297,0.0],[-174.5456,-19.8308,3.5717],[-174.5433,-19.825,16.5294],[-174.5483,-19.8206,0.0]]],
[[[-174.5375,-19.78,0.0],[-174.5364,-19.7811,1.1267],[-174.5356,-19.7789,1.5747],[-174.5378,-19.7786,0.8625],[-174.5375,-19.78,0.0]]],
[[[-174.6207,-19.7655,0.0],[-174.6264,-19.7651,0.0],[-174.6272,-19.7692,8.3663],[-174.6233,-19.7719,0.0],[-174.6214,-19.7711,9.8097],[-174.6186,-19.7672,0.0],[-174.6207,-19.7655,0.0]]],
[[[-174.2778,-19.7244,1.3818],[-174.2808,-19.7208,3.1503],[-174.2803,-19.7194,0.0],[-174.282,-19.7192,0.0],[-174.2925,-19.7278,0.0],[-174.2926,-19.7328,0.0],[-174.2957,-19.7366,11.1511],[-174.3118,-19.7383,4.6801],[-174.3347,-19.7575,1.2176],[-174.3419,-19.7689,0.0],[-174.3492,-19.7733,0.7973],[-174.345,-19.7778,2.7764],[-174.3447,-19.7853,0.0],[-174.3494,-19.7944,2.5436],[-174.3544,-19.8119,0.3287],[-174.3656,-19.8197,4.9313],[-174.3758,-19.8228,0.0],[-174.3803,-19.8267,0.0],[-174.3772,-19.8281,0.0],[-174.3681,-19.8269,0.0],[-174.3448,-19.8332,0.0],[-174.3356,-19.8298,0.0],[-174.3333,-19.825,10.6576],[-174.3383,-19.8203,0.0],[-174.3406,-19.8144,0.0],[-174.3389,-19.8119,0.0],[-174.3389,-19.8075,0.0],[-174.3406,-19.7986,0.0],[-174.3344,-19.7831,0.0],[-174.3356,-19.7722,7.6139],[-174.3344,-19.7692,0.0],[-174.3378,-19.7644,0.0],[-174.3356,-19.7614,0.0],[-174.3286,-19.7631,0.0],[-174.3036,-19.7594,16.7391],[-174.2933,-19.7611,7.6673],[-174.2886,-19.7594,10.204],[-174.2825,-19.7511,3.8569],[-174.282,-19.7406,15.0652],[-174.2758,-19.7306,10.7556],[-174.2758,-19.7261,2.8228],[-174.2778,-19.7244,1.3818]]],
[[[-174.2772,-19.7178,9.6844],[-174.2747,-19.7178,5.2143],[-174.2733,-19.715,0.0],[-174.2731,-19.7125,0.0],[-174.275,-19.7097,4.1018],[-174.2783,-19.7142,2.1886],[-174.2772,-19.7178,9.6844]]],
[[[-174.3931,-19.6711,0.0],[-174.3947,-19.6703,0.0],[-174.3953,-19.6719,0.0],[-174.3936,-19.6728,0.0],[-174.3931,-19.6711,0.0]]],
[[[-174.2894,-19.6489,4.5252],[-174.2919,-19.6458,0.0],[-174.298,-19.6467,8.4036],[-174.298,-19.6592,9.9558],[-174.2872,-19.6689,5.9441],[-174.2883,-19.6769,0.0],[-174.2787,-19.6829,4.4275],[-174.2742,-19.6958,0.0],[-174.2728,-19.6972,0.6786],[-174.2672,-19.6964,0.0],[-174.2647,-19.6925,0.0],[-174.2672,-19.6794,6.4854],[-174.2786,-19.6683,3.1871],[-174.2894,-19.6489,4.5252]]],
[[[-174.5625,-19.7564,0.0],[-174.5633,-19.755,2.757],[-174.5653,-19.7553,2.4193],[-174.5636,-19.7569,0.0],[-174.5625,-19.7564,0.0]]],
[[[-174.4806,-19.6303,0.0],[-174.4828,-19.6294,0.0],[-174.4875,-19.6322,0.0],[-174.4903,-19.6314,0.0],[-174.4936,-19.6383,0.0],[-174.4931,-19.6419,1.028],[-174.4889,-19.6436,0.0],[-174.4847,-19.6425,1.6444],[-174.4769,-19.6344,0.0],[-174.4806,-19.6303,0.0]]],
[[[-174.4503,-19.5956,0.0],[-174.4528,-19.5925,0.0],[-174.4553,-19.5925,0.0],[-174.4583,-19.6028,5.1002],[-174.4519,-19.6056,0.0],[-174.4489,-19.6,2.9038],[-174.4503,-19.5956,0.0]]]]}}