{"type":"Feature","properties":{"ISO3166-1-Alpha-3":"TON","country":"Tonga","fill":"#F0F","id":"4948","name":"Ha'apai"},
"geometry":{"type": "MultiPolygon","coordinates": [[[[-174.78409,-20.25945,-1.5],[-174.78071,-20.24562,21.0996],[-174.78242,-20.23919,0.0],[-174.79813,-20.24318,11.5744],[-174.80529,-20.24424,7.2143],[-174.81115,-20.24839,0.0],[-174.81286,-20.25539,0.0],[-174.80187,-20.26458,0.0],[-174.78909,-20.2671,1.0247],[-174.78409,-20.25945,-1.5]]],
[[[-174.32018,-19.81927,0.0],[-174.31513,-19.80446,0.0],[-174.31379,-19.78476,0.0],[-174.30586,-19.76719,0.0],[-174.3098,-19.76474,0.0],[-174.32075,-19.76067,9.8678],[-174.32567,-19.7597,7.8726],[-174.32966,-19.775,0.0],[-174.33698,-19.78777,7.4121],[-174.34752,-19.79681,6.1222],[-174.36107,-19.80136,0.0],[-174.35786,-19.80836,0.0],[-174.35314,-19.81373,4.2655],[-174.34699,-19.81813,11.9454],[-174.33934,-19.82187,16.1469],[-174.32018,-19.81927,0.0]]],
[[[-175.04784,-19.78118,242.6096],[-175.04601,-19.75115,107.0379],[-175.05333,-19.72381,321.5501],[-175.06928,-19.71201,38.3244],[-175.08165,-19.71136,95.0468],[-175.09065,-19.71266,6.5196],[-175.09667,-19.7208,0.0],[-175.10033,-19.73984,116.4301],[-175.09948,-19.74977,199.5283],[-175.08727,-19.78086,0.0],[-175.08764,-19.78476,0.0],[-175.0865,-19.78729,0.0],[-175.08727,-19.78769,0.0],[-175.07575,-19.79225,0.0],[-175.07051,-19.79559,0.0],[-175.06554,-19.80136,0.0],[-175.05932,-19.79388,0.0],[-175.05932,-19.80136,0.0],[-175.04784,-19.78118,242.6096]]],
[[[-174.27168,-19.74912,0.0],[-174.26427,-19.73642,0.0],[-174.26106,-19.7243,0.0],[-174.2552,-19.71217,0.0],[-174.25219,-19.69931,0.0],[-174.25744,-19.68467,0.0],[-174.26997,-19.69687,0.8854],[-174.27819,-19.71063,0.0],[-174.2882,-19.72373,0.0],[-174.30582,-19.73301,0.0],[-174.30219,-19.74407,6.83],[-174.28755,-19.75058,21.6846],[-174.27168,-19.74912,0.0]]],
[[[-175.01989,-19.68483,143.1342],[-175.01399,-19.66343,676.0217],[-175.02615,-19.65293,0.0],[-175.03494,-19.66098,0.0],[-175.03726,-19.67791,0.0],[-175.03478,-19.68833,0.0],[-175.01989,-19.68483,143.1342]]],
[[[-174.24401,-19.64625,0.0],[-174.248,-19.63592,0.0],[-174.26085,-19.63055,0.0],[-174.26777,-19.62615,0.0],[-174.27278,-19.60426,0.0],[-174.2779,-19.59588,0.0],[-174.29304,-19.59271,0.0],[-174.28844,-19.6111,0.0],[-174.27522,-19.63567,0.0],[-174.26427,-19.65049,0.0],[-174.24926,-19.65374,0.0],[-174.24401,-19.64625,0.0]]]]}}