{"type": "Feature","id": "4961","bbox": [-160.99641,-10.42278,-160.9381,-10.37151],"geometry": {"type": "Polygon","coordinates": [[[-160.98624,-10.38209,0.0],[-160.9862,-10.38209,0.0],[-160.9381,-10.42278,0.0],[-160.97993,-10.38095,0.0],[-160.99641,-10.37151,0.0],[-160.99433,-10.37469,0.0],[-160.98624,-10.38209,0.0]]]}
,"properties": {"ISO3166-1-Alpha-3": "COK","country": "Cook Islands","fill": "#F0F","name": "Manihiki","area_km2": 2.439969,"hist_schema_id": "Elevation0-9000","hist_area_km2": {"0": 2.439969}}}