{"type":"Feature","properties":{"GID_1":"COK.4_1","GID_0":"COK","country":"CookIslands","province":"Manihiki","VARNAME_1":"NA","NL_NAME_1":"NA","TYPE_1":"IslandCouncil","ENGTYPE_1":"IslandCouncil","CC_1":"NA","HASC_1":"NA","ISO_1":"NA","name":"Manihiki.province"},
"geometry":{"type": "MultiPolygon","coordinates": [[[[-160.9653,-10.4535,5.9039],[-160.9638,-10.4537,2.2134],[-160.9632,-10.4522,0.626],[-160.9647,-10.4518,6.4748],[-160.9653,-10.4535,5.9039]]],
[[[-160.9531,-10.4424,0.0],[-160.9542,-10.439,1.5061],[-160.956,-10.4387,0.0],[-160.9586,-10.4447,2.1765],[-160.9551,-10.4468,2.0573],[-160.9531,-10.4424,0.0]]],
[[[-160.9555,-10.438,1.5061],[-160.9543,-10.4374,3.2261],[-160.955,-10.4355,1.7022],[-160.9561,-10.4364,4.3576],[-160.9555,-10.438,1.5061]]],
[[[-161.0319,-10.4369,6.8078],[-161.0333,-10.4356,0.0],[-161.0339,-10.43,6.4099],[-161.0287,-10.4037,0.0],[-161.0317,-10.4058,6.7749],[-161.035,-10.415,0.0],[-161.035,-10.4227,5.7536],[-161.0388,-10.436,0.0],[-161.0378,-10.4419,4.554],[-161.0219,-10.4469,0.0],[-161.0033,-10.4633,0.0],[-161.0,-10.4642,0.0],[-160.9954,-10.4607,10.457],[-161.0,-10.4578,0.0],[-161.0025,-10.4622,11.3866],[-161.005,-10.4611,0.0],[-161.0019,-10.4567,0.0],[-161.0053,-10.4561,0.0],[-161.0075,-10.4575,0.0],[-161.0081,-10.453,1.2001],[-161.0124,-10.451,6.1958],[-161.0106,-10.4488,0.0],[-161.0135,-10.4495,2.9512],[-161.0183,-10.4458,0.0],[-161.0194,-10.4464,2.6337],[-161.0264,-10.4406,0.0],[-161.0323,-10.4416,1.0368],[-161.033,-10.4398,5.3598],[-161.0361,-10.4394,9.0749],[-161.035,-10.4367,6.6026],[-161.0322,-10.4392,5.9009],[-161.03,-10.438,1.4862],[-161.0319,-10.4369,6.8078]]],
[[[-161.0067,-10.3698,1.7512],[-161.0094,-10.3694,0.0],[-161.0125,-10.3717,0.0],[-161.0114,-10.3769,0.0],[-161.0058,-10.3744,6.5502],[-160.9872,-10.4025,0.0],[-160.9717,-10.4172,8.7759],[-160.9579,-10.4264,3.2427],[-160.956,-10.4328,7.2873],[-160.9547,-10.433,1.0143],[-160.9539,-10.4253,0.0],[-160.9786,-10.4072,2.943],[-160.9878,-10.3961,0.0],[-160.9997,-10.3769,0.0],[-161.0067,-10.3698,1.7512]]],
[[[-161.0263,-10.3986,4.6732],[-161.0256,-10.3992,0.0],[-161.0227,-10.395,0.0],[-161.0236,-10.3922,0.0],[-161.0264,-10.3953,9.2427],[-161.0263,-10.3986,4.6732]]]]}}