{"type":"Feature","properties":{"GID_3":"ASM.4.1.10_1","GID_0":"ASM","country":"AmericanSamoa","GID_1":"ASM.4_1","state":"Western","NL_NAME_1":"NA","GID_2":"ASM.4.1_2","county":"Lealataua","NL_NAME_2":"NA","city":"Maloata","VARNAME_3":"NA","NL_NAME_3":"NA","TYPE_3":"Village","ENGTYPE_3":"Village","CC_3":"NA","HASC_3":"NA","name":"Maloata.city"},
"geometry":{"type": "MultiPolygon","coordinates": [[[[-170.7966,-14.3136,367.4258],[-170.8119,-14.299,12.3831],[-170.8163,-14.3015,68.6752],[-170.8207,-14.3001,6.3012],[-170.824,-14.303,49.0718],[-170.8232,-14.3076,92.2099],[-170.8174,-14.3165,280.8221],[-170.8124,-14.3143,326.3144],[-170.7966,-14.3136,367.4258]]]]}}