{"type": "Feature","bbox": [-170.76,-14.3407,-170.741,-14.3262],"geometry": {"type": "MultiPolygon","coordinates": [[[[-170.76,-14.3393,127.7144],[-170.7545,-14.3407,90.9455],[-170.7456,-14.3398,56.0537],[-170.741,-14.3333,43.4357],[-170.7507,-14.3262,140.2897],[-170.7592,-14.3319,165.0011],[-170.76,-14.3393,127.7144]]]]}
,"properties": {"GID_3": "ASM.4.4.6_1","GID_0": "ASM","country": "AmericanSamoa","GID_1": "ASM.4_1","state": "Western","NL_NAME_1": "NA","GID_2": "ASM.4.4_1","county": "Tualauta","NL_NAME_2": "NA","city": "Pava'ia'i","VARNAME_3": "NA","NL_NAME_3": "NA","TYPE_3": "Village","ENGTYPE_3": "Village","CC_3": "NA","HASC_3": "NA","name": "Pava'ia'i.city","area_km2": 2.136381,"hist_schema_id": "Elevation0-9000","hist_area_km2": {"50": 0.369758,"75": 0.780596,"100": 0.493014,"125": 0.410844,"150": 0.082168}}}