{"type": "Feature","id": "4946","bbox": [-174.66413,-18.81748,-173.91426,-18.56618],"geometry": {"type": "MultiPolygon","coordinates": [[[[-174.64045,-18.81658,114.9249],[-174.63024,-18.80901,109.8727],[-174.62682,-18.79754,41.1414],[-174.63386,-18.78533,0.0],[-174.64961,-18.77955,0.0],[-174.66124,-18.78688,14.3101],[-174.66413,-18.80136,72.3159],[-174.6538,-18.81748,152.0854],[-174.64045,-18.81658,114.9249]]],
[[[-173.91426,-18.60613,0.0],[-173.91539,-18.59531,0.0],[-173.92797,-18.58668,90.0326],[-173.93427,-18.57928,110.9814],[-173.94127,-18.57285,0.0],[-173.95637,-18.56732,0.0],[-173.96984,-18.56618,0.0],[-173.98811,-18.56732,0.0],[-174.00414,-18.57098,0.0],[-174.01098,-18.57789,0.0],[-174.02546,-18.60491,0.0],[-174.05358,-18.61907,0.0],[-174.0725,-18.63397,0.0],[-174.05944,-18.66351,0.0],[-174.05358,-18.66318,131.0167],[-174.04906,-18.66351,96.8749],[-174.04613,-18.66237,39.6087],[-174.04516,-18.65683,67.0607],[-174.03014,-18.66334,4.2698],[-174.02562,-18.65374,6.2386],[-174.02233,-18.63885,0.0],[-174.01098,-18.62949,51.3367],[-174.00646,-18.63437,55.0684],[-174.00036,-18.64568,14.6352],[-174.00117,-18.6574,0.0],[-174.0172,-18.66351,0.0],[-174.00996,-18.68711,0.0],[-174.00304,-18.6985,0.0],[-173.99055,-18.70517,0.0],[-173.99059,-18.68808,0.0],[-173.98595,-18.67099,0.0],[-173.97663,-18.66058,15.7258],[-173.9626,-18.66351,0.0],[-173.95722,-18.65301,0.0],[-173.94896,-18.64316,1.643],[-173.95763,-18.63421,6.759],[-173.95861,-18.62672,23.669],[-173.95295,-18.6207,25.5481],[-173.94209,-18.61582,40.0046],[-173.92296,-18.63698,-0.0204],[-173.91515,-18.62689,27.4039],[-173.91426,-18.60613,0.0]]]]}
,"properties": {"ISO3166-1-Alpha-3": "TON","country": "Tonga","fill": "#F0F","name": "Vava'u","area_km2": 131.25,"hist_schema_id": "Elevation0-9000","hist_area_km2": {"0": 42.533,"25": 20.411,"50": 21.4169,"75": 15.0493,"100": 9.8253,"125": 7.6149,"150": 5.8665,"175": 3.1333,"200": 1.5462,"225": 0.9834,"250": 0.4616,"275": 0.582,"300": 0.3613,"325": 0.3412,"350": 0.3813,"375": 0.2208,"400": 0.1004,"425": 0.2208,"450": 0.1004,"475": 0.1004}}}