{"type": "Feature","bbox": [-175.68,-19.1803,-173.9019,-15.5658],"geometry": {"type": "MultiPolygon","coordinates": [[[[-174.8505,-19.1787,0.0],[-174.8498,-19.1803,0.0],[-174.8481,-19.1783,0.0],[-174.8494,-19.1778,0.0],[-174.8505,-19.1787,0.0]]],
[[[-174.6374,-18.7878,0.0],[-174.6469,-18.7811,0.0],[-174.6506,-18.7842,0.0],[-174.6545,-18.7824,0.0],[-174.6602,-18.7844,0.0],[-174.6647,-18.7883,0.0],[-174.6639,-18.7911,38.9666],[-174.6678,-18.795,1.4835],[-174.6701,-18.8009,4.7118],[-174.6696,-18.8043,6.0844],[-174.6644,-18.8103,14.0725],[-174.6647,-18.8119,4.9833],[-174.6588,-18.8207,0.0],[-174.6501,-18.8263,0.0],[-174.6415,-18.8268,0.0],[-174.6398,-18.8244,27.5183],[-174.632,-18.8242,16.3293],[-174.6187,-18.802,0.0],[-174.6203,-18.7983,0.0],[-174.6242,-18.7964,12.2717],[-174.6278,-18.7915,1.2377],[-174.6324,-18.7909,0.0],[-174.6374,-18.7878,0.0]]],
[[[-174.108,-18.7935,0.0],[-174.1115,-18.7906,0.0],[-174.1136,-18.7929,0.0],[-174.1097,-18.7957,5.0576],[-174.108,-18.7935,0.0]]],
[[[-174.1711,-18.7892,0.0],[-174.172,-18.7908,10.7321],[-174.1708,-18.7919,0.0],[-174.1697,-18.7901,0.0],[-174.1711,-18.7892,0.0]]],
[[[-174.0792,-18.82,1.6401],[-174.0797,-18.8175,0.0],[-174.083,-18.8189,0.0],[-174.0819,-18.8206,5.8813],[-174.0792,-18.82,1.6401]]],
[[[-174.0608,-18.8172,0.0],[-174.063,-18.8164,5.25],[-174.0647,-18.8181,0.0],[-174.0617,-18.8194,7.3079],[-174.0608,-18.8172,0.0]]],
[[[-174.0686,-18.7517,0.5908],[-174.0669,-18.7517,0.0],[-174.0664,-18.7506,0.0],[-174.0683,-18.75,2.6017],[-174.0686,-18.7517,0.5908]]],
[[[-174.0757,-18.7499,0.0],[-174.0781,-18.7486,0.0],[-174.08,-18.7516,0.0],[-174.0767,-18.7525,2.428],[-174.0757,-18.7499,0.0]]],
[[[-174.1255,-18.7581,0.0],[-174.1247,-18.76,0.0],[-174.123,-18.7575,0.0],[-174.1242,-18.7564,8.5244],[-174.1255,-18.7581,0.0]]],
[[[-174.0978,-18.7405,1.7953],[-174.1003,-18.7392,0.0],[-174.1048,-18.7429,1.8675],[-174.1086,-18.7419,2.6802],[-174.1108,-18.7453,7.3315],[-174.1139,-18.7439,0.0],[-174.116,-18.7453,2.7069],[-174.1161,-18.7486,0.0],[-174.1121,-18.7506,2.5845],[-174.1089,-18.747,10.005],[-174.1038,-18.7461,14.8278],[-174.1,-18.7483,0.0],[-174.0954,-18.7473,4.6326],[-174.0931,-18.7491,3.1365],[-174.0919,-18.7461,7.7338],[-174.0896,-18.7463,0.0],[-174.0914,-18.7417,3.3926],[-174.0956,-18.7424,0.0],[-174.0978,-18.7405,1.7953]]],
[[[-174.0969,-18.7222,0.0],[-174.0994,-18.7238,0.0],[-174.1017,-18.7232,1.3235],[-174.1021,-18.7169,0.0],[-174.1036,-18.7158,0.0],[-174.1051,-18.7235,0.0],[-174.1095,-18.7283,2.9847],[-174.1072,-18.7292,13.4298],[-174.102,-18.7271,13.523],[-174.097,-18.7282,0.0],[-174.0914,-18.7267,1.2543],[-174.0926,-18.7238,4.2883],[-174.0969,-18.7222,0.0]]],
[[[-174.0989,-18.7177,0.0],[-174.0969,-18.7175,2.6304],[-174.0975,-18.7159,0.0],[-174.0986,-18.7164,0.0],[-174.0989,-18.7177,0.0]]],
[[[-174.0539,-18.7311,0.0],[-174.0528,-18.733,0.0],[-174.0503,-18.7317,0.0],[-174.0506,-18.7278,0.0],[-174.0539,-18.7293,0.0],[-174.0539,-18.7311,0.0]]],
[[[-174.0656,-18.7268,0.0],[-174.0659,-18.7284,0.0],[-174.0644,-18.7289,1.0087],[-174.0642,-18.7261,0.0],[-174.0656,-18.7268,0.0]]],
[[[-174.0883,-18.7276,0.0],[-174.0856,-18.7292,0.0],[-174.0855,-18.7257,0.0],[-174.0881,-18.7248,14.8001],[-174.0883,-18.7276,0.0]]],
[[[-174.0792,-18.7212,11.7165],[-174.079,-18.719,8.2664],[-174.0815,-18.7161,0.0],[-174.0841,-18.7158,0.0],[-174.0864,-18.7181,0.0],[-174.0858,-18.7208,13.2746],[-174.0833,-18.7228,11.3667],[-174.0792,-18.7212,11.7165]]],
[[[-174.0122,-18.8469,0.0],[-174.0094,-18.8506,0.5331],[-174.0112,-18.8446,3.0583],[-174.0125,-18.845,0.0],[-174.0122,-18.8469,0.0]]],
[[[-174.0407,-18.8004,0.0],[-174.0389,-18.7994,0.9268],[-174.0403,-18.7983,0.9268],[-174.0411,-18.7989,1.1802],[-174.0407,-18.8004,0.0]]],
[[[-174.0031,-18.7914,2.5677],[-174.0082,-18.791,0.0],[-174.0107,-18.7936,0.0],[-174.0105,-18.7964,0.0],[-174.0056,-18.7972,1.7901],[-174.0028,-18.7961,13.0677],[-174.0031,-18.7914,2.5677]]],
[[[-174.018,-18.7705,0.0],[-174.0158,-18.7675,0.0],[-174.0194,-18.7633,2.657],[-174.0217,-18.7667,13.3628],[-174.0203,-18.7697,0.0],[-174.018,-18.7705,0.0]]],
[[[-173.9967,-18.8567,4.9713],[-173.9956,-18.8594,1.5999],[-173.9944,-18.8572,4.2163],[-173.9953,-18.8558,0.0],[-173.9967,-18.8567,4.9713]]],
[[[-173.9751,-18.8239,0.0],[-173.9761,-18.8247,0.0],[-173.9753,-18.8261,0.0],[-173.9733,-18.8244,0.4424],[-173.9751,-18.8239,0.0]]],
[[[-173.9922,-18.7243,3.4645],[-173.9936,-18.7225,0.0],[-173.995,-18.7233,1.9144],[-173.9933,-18.7253,0.0],[-173.9922,-18.7243,3.4645]]],
[[[-173.9177,-18.721,0.0],[-173.9239,-18.7165,0.0],[-173.9182,-18.7226,0.0],[-173.9185,-18.7266,0.0],[-173.9203,-18.729,0.0],[-173.9254,-18.7305,0.0],[-173.92,-18.7299,0.0],[-173.9174,-18.7272,0.0],[-173.9177,-18.721,0.0]]],
[[[-174.0336,-18.755,0.0],[-174.0353,-18.7536,0.0],[-174.0406,-18.7558,6.6853],[-174.0367,-18.7636,2.6937],[-174.0326,-18.7638,8.6581],[-174.0314,-18.7622,7.1918],[-174.0317,-18.7572,0.0],[-174.0336,-18.755,0.0]]],
[[[-174.0081,-18.7583,0.0],[-174.0077,-18.7569,0.0],[-174.0087,-18.7547,2.7908],[-174.0097,-18.7569,1.9288],[-174.0081,-18.7583,0.0]]],
[[[-174.0123,-18.7398,17.8949],[-174.015,-18.7381,3.408],[-174.0158,-18.7419,16.9031],[-174.0123,-18.7455,0.0],[-174.0117,-18.7489,1.1188],[-174.0131,-18.7511,2.0592],[-174.01,-18.7533,0.0],[-174.0107,-18.748,1.1188],[-174.0077,-18.7472,0.0],[-174.0065,-18.7432,0.0],[-174.0123,-18.7398,17.8949]]],
[[[-173.9988,-18.7457,0.0],[-174.0,-18.7436,0.0],[-174.0015,-18.7444,0.0],[-174.0009,-18.7461,7.8793],[-173.9988,-18.7457,0.0]]],
[[[-173.9919,-18.7125,8.1123],[-173.9945,-18.7116,6.1131],[-173.9961,-18.7142,0.0],[-173.9878,-18.7208,0.0],[-173.9883,-18.7133,0.0],[-173.9919,-18.7125,8.1123]]],
[[[-173.9972,-18.7053,0.0],[-173.9986,-18.7066,4.8164],[-173.9972,-18.7083,0.0],[-173.9964,-18.7075,1.5987],[-173.9972,-18.7053,0.0]]],
[[[-173.9517,-18.6958,2.2086],[-173.9502,-18.6936,0.0],[-173.9538,-18.6911,0.0],[-173.9603,-18.6947,2.3326],[-173.9639,-18.7,6.9874],[-173.9633,-18.7058,8.4117],[-173.958,-18.7116,0.0],[-173.9563,-18.7108,2.7329],[-173.9555,-18.6995,0.0],[-173.9517,-18.6958,2.2086]]],
[[[-173.922,-18.6935,20.88],[-173.9244,-18.6922,0.0],[-173.9269,-18.695,13.2615],[-173.9278,-18.7022,0.0],[-173.9256,-18.7069,0.0],[-173.9241,-18.7061,0.3318],[-173.9255,-18.7,0.0],[-173.9226,-18.698,4.6765],[-173.922,-18.6935,20.88]]],
[[[-174.0414,-18.7394,3.5396],[-174.0397,-18.7383,0.0],[-174.0408,-18.7372,0.0],[-174.0422,-18.7384,3.5396],[-174.0414,-18.7394,3.5396]]],
[[[-174.0353,-18.6866,13.905],[-174.0413,-18.6824,0.0],[-174.0473,-18.6818,0.0],[-174.0472,-18.6856,0.0],[-174.0436,-18.6892,0.0],[-174.0345,-18.693,14.9289],[-174.0283,-18.6994,21.1935],[-174.0287,-18.7018,8.3319],[-174.0333,-18.7008,0.0],[-174.035,-18.7019,0.0],[-174.0378,-18.7135,1.0706],[-174.0322,-18.7222,19.7885],[-174.0231,-18.7281,0.0],[-174.0203,-18.725,16.97],[-174.0209,-18.7175,28.6766],[-174.0184,-18.7034,58.9808],[-174.0228,-18.6961,0.0],[-174.03,-18.6932,7.0245],[-174.0353,-18.6866,13.905]]],
[[[-174.0199,-18.6937,0.0],[-174.0194,-18.695,0.0],[-174.0197,-18.6908,0.0],[-174.0219,-18.6894,0.0],[-174.0231,-18.6906,0.0],[-174.0199,-18.6937,0.0]]],
[[[-174.0173,-18.6791,0.0],[-174.0228,-18.6742,8.4493],[-174.0208,-18.6711,9.7795],[-174.0225,-18.6703,3.02],[-174.0261,-18.6761,31.9507],[-174.0233,-18.6844,10.3555],[-174.0198,-18.6872,1.1344],[-174.0164,-18.6861,10.4014],[-174.0173,-18.6791,0.0]]],
[[[-173.9864,-18.6886,3.2297],[-173.9867,-18.6897,1.5074],[-173.9854,-18.6903,1.5074],[-173.985,-18.6872,0.0],[-173.9864,-18.6886,3.2297]]],
[[[-173.9455,-18.6866,0.0],[-173.9438,-18.6878,0.4621],[-173.9425,-18.6867,0.4621],[-173.9433,-18.6853,0.0],[-173.9455,-18.6866,0.0]]],
[[[-173.953,-18.6817,6.7731],[-173.9581,-18.6814,9.0893],[-173.96,-18.6839,7.0014],[-173.9511,-18.6878,6.7405],[-173.9486,-18.6872,7.0529],[-173.9481,-18.6845,0.0],[-173.9502,-18.6819,2.4342],[-173.953,-18.6817,6.7731]]],
[[[-173.9202,-18.6847,13.5433],[-173.92,-18.6783,28.9363],[-173.9228,-18.6758,0.0],[-173.9253,-18.6809,1.6014],[-173.924,-18.6829,1.7231],[-173.9253,-18.6878,3.9759],[-173.9242,-18.6908,2.0582],[-173.9214,-18.6889,3.216],[-173.9202,-18.6847,13.5433]]],
[[[-174.0186,-18.6722,0.0],[-174.0197,-18.6736,0.0],[-174.0192,-18.6747,0.0],[-174.0178,-18.6734,8.0767],[-174.0186,-18.6722,0.0]]],
[[[-174.0086,-18.6609,0.5383],[-174.0097,-18.6601,0.5383],[-174.0106,-18.6609,0.0],[-174.0095,-18.6623,0.4987],[-174.0086,-18.6609,0.5383]]],
[[[-174.0075,-18.6496,0.0],[-174.016,-18.6494,0.0],[-174.0165,-18.6533,0.0],[-174.0149,-18.6552,0.0],[-174.0097,-18.6564,0.0],[-174.0075,-18.6518,0.0],[-174.006,-18.6517,0.0],[-174.0075,-18.6496,0.0]]],
[[[-174.0061,-18.6473,0.0],[-174.008,-18.6461,0.0],[-174.0087,-18.6465,0.0],[-174.0083,-18.6475,0.0],[-174.0061,-18.6473,0.0]]],
[[[-173.9556,-18.6766,5.13],[-173.9529,-18.6748,2.1387],[-173.9531,-18.6681,1.8661],[-173.961,-18.6742,0.0],[-173.9607,-18.6767,0.0],[-173.9556,-18.6766,5.13]]],
[[[-173.9228,-18.6706,2.2134],[-173.9206,-18.6694,4.0221],[-173.9217,-18.6658,17.6813],[-173.9201,-18.6624,19.6643],[-173.9217,-18.6611,0.0],[-173.9247,-18.6642,0.0],[-173.9242,-18.6694,0.0],[-173.9228,-18.6706,2.2134]]],
[[[-173.95,-18.6617,0.0],[-173.9491,-18.6636,0.0],[-173.9469,-18.6625,4.3403],[-173.9478,-18.6608,0.0],[-173.95,-18.6617,0.0]]],
[[[-173.9545,-18.5731,0.0],[-173.9552,-18.5747,0.0],[-173.9599,-18.5748,14.5649],[-173.9666,-18.5696,2.877],[-173.9703,-18.5685,13.6811],[-173.9725,-18.5657,0.0],[-173.9746,-18.5657,5.7401],[-174.0,-18.5772,45.2048],[-174.0051,-18.5739,1.0967],[-174.0034,-18.581,16.4512],[-174.0039,-18.5953,0.0],[-174.0081,-18.6029,0.0],[-174.0121,-18.6057,0.0],[-174.0148,-18.6057,0.0],[-174.0176,-18.613,13.5932],[-174.0221,-18.6182,39.6254],[-174.0251,-18.6188,4.026],[-174.0291,-18.6255,11.1594],[-174.036,-18.6247,56.5841],[-174.0388,-18.6205,6.8139],[-174.0443,-18.6222,40.7104],[-174.05,-18.6192,0.0],[-174.053,-18.6211,0.0],[-174.0622,-18.6217,0.0],[-174.0646,-18.6235,0.0],[-174.0663,-18.6296,141.8735],[-174.0691,-18.6306,32.3874],[-174.0679,-18.6315,43.9116],[-174.0681,-18.6368,16.3453],[-174.0636,-18.6419,11.9883],[-174.0655,-18.6496,0.0],[-174.058,-18.6505,0.0],[-174.0569,-18.6519,16.5504],[-174.0586,-18.6617,29.143],[-174.0572,-18.67,14.4288],[-174.0544,-18.6728,18.0295],[-174.05,-18.6711,22.224],[-174.0383,-18.6717,0.0],[-174.0342,-18.6689,0.0],[-174.0255,-18.6584,3.114],[-174.0181,-18.6564,4.9005],[-174.0205,-18.6522,8.4924],[-174.0164,-18.6473,0.0],[-174.0098,-18.6486,0.0],[-174.0099,-18.6449,0.0],[-174.0075,-18.645,0.0],[-174.0058,-18.6435,0.0],[-174.0065,-18.6423,0.0],[-173.9995,-18.6369,0.0],[-173.9978,-18.6375,0.0],[-173.9985,-18.6401,17.1986],[-173.9961,-18.6422,0.0],[-173.9786,-18.6292,1.4769],[-173.9772,-18.6272,4.2484],[-173.9778,-18.6208,5.85],[-173.9839,-18.6169,21.7448],[-173.9847,-18.6142,0.0],[-173.9875,-18.6128,0.0],[-173.9847,-18.6119,0.0],[-173.9856,-18.6105,0.0],[-173.9891,-18.6097,0.0],[-173.9911,-18.6069,1.1498],[-173.9817,-18.608,0.0],[-173.9742,-18.6128,7.261],[-173.9717,-18.6189,10.2616],[-173.9747,-18.6233,11.4706],[-173.9747,-18.6294,0.0],[-173.9789,-18.6328,6.5864],[-173.9819,-18.6383,0.0],[-173.9833,-18.6397,18.9677],[-173.9908,-18.6402,20.4137],[-173.9967,-18.6451,26.8042],[-174.0042,-18.6455,0.0],[-174.0049,-18.647,17.6785],[-174.0025,-18.6519,0.0],[-174.0,-18.6525,8.5965],[-173.9937,-18.649,0.0],[-173.9858,-18.6521,1.0634],[-173.981,-18.6561,16.2083],[-173.9822,-18.658,0.0],[-173.9811,-18.6639,21.6884],[-173.9842,-18.6744,0.0],[-173.9964,-18.6792,3.3498],[-173.9992,-18.6783,0.0],[-173.9983,-18.6761,27.5502],[-173.9892,-18.6691,0.0],[-173.9881,-18.6661,4.4959],[-173.9947,-18.6528,0.0],[-174.0044,-18.6591,0.0],[-174.0078,-18.6631,33.2656],[-174.0083,-18.6662,0.0],[-174.0109,-18.6679,1.759],[-174.0126,-18.6756,0.0],[-174.0156,-18.6768,7.5053],[-173.9979,-18.6941,13.3973],[-173.9973,-18.6972,20.6114],[-174.0011,-18.6981,12.3818],[-174.0037,-18.7006,15.2733],[-174.0072,-18.7006,2.1091],[-174.0069,-18.7042,5.9001],[-174.0,-18.7025,20.9941],[-173.9875,-18.703,0.0],[-173.9855,-18.7069,0.0],[-173.9869,-18.7119,0.0],[-173.9819,-18.7036,2.5905],[-173.9828,-18.7002,0.0],[-173.9861,-18.6989,0.0],[-173.9886,-18.6919,1.1544],[-173.9939,-18.6911,0.0],[-173.9947,-18.6894,2.2809],[-173.9928,-18.6878,7.5709],[-173.9881,-18.6881,0.0],[-173.9847,-18.6808,0.7043],[-173.9739,-18.6755,2.6936],[-173.9753,-18.6578,3.9178],[-173.9776,-18.6538,2.3887],[-173.9733,-18.6513,0.0],[-173.9652,-18.655,0.0],[-173.9652,-18.6619,0.0],[-173.9697,-18.6678,4.8342],[-173.965,-18.6703,0.0],[-173.9608,-18.6656,4.4311],[-173.9616,-18.6611,3.7863],[-173.9603,-18.6589,0.0],[-173.9621,-18.6561,2.5473],[-173.9588,-18.6525,1.4208],[-173.9613,-18.6515,0.0],[-173.9608,-18.6491,4.1129],[-173.9569,-18.6466,5.6919],[-173.9542,-18.6469,7.4083],[-173.9541,-18.6501,0.9177],[-173.9514,-18.6515,3.3188],[-173.9522,-18.6553,3.6064],[-173.9553,-18.6575,0.0],[-173.9522,-18.6611,0.0],[-173.9503,-18.6581,0.0],[-173.9447,-18.6547,0.0],[-173.9442,-18.6525,1.5279],[-173.9497,-18.6506,0.5725],[-173.9464,-18.6455,6.0317],[-173.9517,-18.6425,0.8697],[-173.9502,-18.6416,0.1781],[-173.9411,-18.645,0.0],[-173.9405,-18.64,6.8298],[-173.9426,-18.6378,0.0],[-173.9464,-18.6372,0.6328],[-173.952,-18.6322,0.5179],[-173.9547,-18.6347,12.7058],[-173.9572,-18.6339,6.759],[-173.9578,-18.6264,0.9235],[-173.955,-18.6266,0.0],[-173.9458,-18.6342,1.612],[-173.938,-18.6361,15.5888],[-173.9347,-18.6303,0.0],[-173.9352,-18.6258,0.5749],[-173.9306,-18.6218,1.0281],[-173.9336,-18.6181,-0.0078],[-173.9353,-18.62,1.2203],[-173.9366,-18.6189,0.0],[-173.9344,-18.6145,0.0],[-173.9378,-18.6125,0.0],[-173.9358,-18.6117,10.5207],[-173.9342,-18.6136,0.0],[-173.9317,-18.6119,1.9003],[-173.9235,-18.6226,8.5032],[-173.925,-18.6328,1.6164],[-173.9233,-18.6342,0.8955],[-173.9208,-18.633,0.0],[-173.9181,-18.6364,1.1256],[-173.9211,-18.6389,0.1316],[-173.9261,-18.6383,0.4194],[-173.9283,-18.6405,0.8616],[-173.9352,-18.6414,8.2216],[-173.9372,-18.6433,7.1468],[-173.9328,-18.6508,2.7345],[-173.9272,-18.6539,1.6994],[-173.925,-18.6527,0.0],[-173.9258,-18.6489,7.1993],[-173.9241,-18.646,6.1071],[-173.9208,-18.648,0.0],[-173.9159,-18.6469,2.064],[-173.9136,-18.65,0.0],[-173.9106,-18.6508,0.0],[-173.9092,-18.6481,0.0],[-173.9111,-18.6458,0.0],[-173.9194,-18.6408,0.0],[-173.9167,-18.6386,3.3251],[-173.912,-18.6381,0.0],[-173.91,-18.64,0.0],[-173.9053,-18.64,0.0],[-173.9031,-18.6369,26.4028],[-173.9039,-18.6322,41.2184],[-173.9019,-18.63,0.0],[-173.9039,-18.6194,16.3991],[-173.9086,-18.6139,0.0],[-173.9153,-18.6161,0.0],[-173.9233,-18.611,0.0],[-173.9231,-18.6073,10.6159],[-173.9186,-18.6028,3.2643],[-173.9183,-18.5998,1.8851],[-173.925,-18.5983,5.68],[-173.9281,-18.595,8.6921],[-173.9232,-18.5886,4.7461],[-173.9225,-18.5816,25.3034],[-173.9289,-18.5775,0.0],[-173.9297,-18.5742,0.0],[-173.9329,-18.5711,0.0],[-173.9361,-18.5706,0.0],[-173.9406,-18.5733,4.1369],[-173.945,-18.5719,8.0456],[-173.9464,-18.5755,12.1123],[-173.9542,-18.5703,0.0],[-173.9545,-18.5731,0.0]]],
[[[-174.0453,-18.7165,0.0],[-174.0444,-18.7172,0.0],[-174.0412,-18.7148,0.0],[-174.0427,-18.7137,0.0],[-174.0453,-18.7165,0.0]]],
[[[-174.0491,-18.7081,0.0],[-174.043,-18.7077,29.4071],[-174.0412,-18.7033,9.2175],[-174.0453,-18.7016,11.057],[-174.0489,-18.7028,0.0],[-174.0499,-18.7039,7.1689],[-174.0491,-18.7081,0.0]]],
[[[-174.0542,-18.6994,7.4344],[-174.0564,-18.6983,16.1837],[-174.0586,-18.7002,23.2813],[-174.0567,-18.7058,10.7745],[-174.0539,-18.7028,24.9413],[-174.0542,-18.6994,7.4344]]],
[[[-174.0689,-18.6959,0.0],[-174.067,-18.6915,0.0],[-174.0681,-18.6875,0.0],[-174.0794,-18.6925,0.0],[-174.0822,-18.6953,0.0],[-174.0886,-18.6961,0.0],[-174.0962,-18.7013,34.239],[-174.1014,-18.7014,29.9608],[-174.1025,-18.7111,17.7387],[-174.1004,-18.7109,0.0],[-174.0892,-18.6994,26.7596],[-174.0819,-18.6983,2.7907],[-174.0764,-18.7003,0.2275],[-174.0742,-18.7042,0.0],[-174.0683,-18.7061,12.2843],[-174.0683,-18.7139,2.4404],[-174.0647,-18.7161,6.6705],[-174.0611,-18.716,0.0],[-174.063,-18.7125,0.0],[-174.0665,-18.7121,0.9727],[-174.0657,-18.7039,7.4234],[-174.07,-18.7001,20.7953],[-174.0689,-18.6959,0.0]]],
[[[-174.1402,-18.7174,24.3923],[-174.1403,-18.7133,3.4457],[-174.1457,-18.7157,5.8786],[-174.1437,-18.7196,0.0],[-174.1402,-18.7174,24.3923]]],
[[[-174.1386,-18.7178,10.1301],[-174.1352,-18.7169,0.0],[-174.1353,-18.7136,0.0],[-174.1378,-18.7158,1.2327],[-174.1386,-18.7178,10.1301]]],
[[[-174.1337,-18.6998,11.7893],[-174.1364,-18.6988,0.0],[-174.1365,-18.6962,0.0],[-174.1409,-18.6972,0.0],[-174.1436,-18.7028,19.3388],[-174.1377,-18.7086,0.0],[-174.1319,-18.7069,5.2589],[-174.1337,-18.6998,11.7893]]],
[[[-174.0995,-18.6711,0.0],[-174.1086,-18.6686,29.3885],[-174.112,-18.6723,32.2196],[-174.1182,-18.672,10.891],[-174.1252,-18.6757,0.0],[-174.1278,-18.6819,6.1649],[-174.1336,-18.6869,0.0],[-174.1375,-18.6936,9.0793],[-174.1358,-18.6947,0.0],[-174.1304,-18.6876,9.8687],[-174.1258,-18.6867,1.5739],[-174.1236,-18.6883,0.0],[-174.1272,-18.6953,2.276],[-174.1255,-18.7009,0.0],[-174.1309,-18.7057,12.9231],[-174.1305,-18.7075,21.5103],[-174.1238,-18.7074,8.6828],[-174.1212,-18.7013,33.8794],[-174.1202,-18.693,0.0],[-174.1111,-18.6794,23.8428],[-174.0997,-18.675,0.0],[-174.0917,-18.6764,0.0],[-174.0831,-18.672,1.9218],[-174.093,-18.6687,5.9046],[-174.0963,-18.6712,54.2271],[-174.0995,-18.6711,0.0]]],
[[[-174.0446,-18.6926,1.4496],[-174.045,-18.6912,0.0],[-174.0466,-18.6917,1.9448],[-174.0455,-18.6937,0.509],[-174.0446,-18.6926,1.4496]]],
[[[-174.0675,-18.6833,32.7476],[-174.0678,-18.6842,0.0],[-174.0662,-18.6849,18.5263],[-174.0658,-18.6828,0.0],[-174.0675,-18.6833,32.7476]]],
[[[-174.0737,-18.6694,0.0],[-174.0755,-18.6712,2.1588],[-174.075,-18.6719,1.2795],[-174.073,-18.6711,0.0],[-174.0737,-18.6694,0.0]]],
[[[-174.0704,-18.6588,0.0],[-174.0702,-18.6609,0.0],[-174.0672,-18.6606,0.0],[-174.0686,-18.6583,10.0337],[-174.0704,-18.6588,0.0]]],
[[[-174.1017,-18.6848,2.212],[-174.1052,-18.6813,0.0],[-174.105,-18.685,0.0],[-174.1022,-18.6862,2.212],[-174.1017,-18.6848,2.212]]],
[[[-174.1761,-18.1638,4.7723],[-174.1753,-18.1597,6.974],[-174.1767,-18.1586,0.7263],[-174.1838,-18.1616,0.0],[-174.1833,-18.1649,0.0],[-174.1798,-18.1655,4.0816],[-174.1761,-18.1638,4.7723]]],
[[[-174.3097,-18.015,14.6218],[-174.3102,-18.0133,4.4702],[-174.3151,-18.0117,22.3465],[-174.3209,-18.0125,0.0],[-174.3246,-18.0155,8.1627],[-174.3261,-18.0222,0.0],[-174.3289,-18.025,4.6527],[-174.3283,-18.0302,0.0],[-174.3196,-18.0344,1.4572],[-174.3161,-18.0325,5.2296],[-174.3122,-18.0331,0.0],[-174.3064,-18.0275,27.1492],[-174.3045,-18.0208,6.1894],[-174.3055,-18.0189,0.0],[-174.3093,-18.0174,20.0864],[-174.3097,-18.015,14.6218]]],
[[[-175.6308,-15.5667,18.7993],[-175.6323,-15.5658,0.0],[-175.6422,-15.568,0.4078],[-175.6658,-15.5781,10.2912],[-175.6742,-15.5858,3.4914],[-175.6758,-15.5931,1.152],[-175.68,-15.5998,4.6645],[-175.6794,-15.6108,0.0],[-175.6758,-15.6167,0.0],[-175.6555,-15.6361,23.8981],[-175.6464,-15.6403,0.0],[-175.6342,-15.6397,0.0],[-175.6179,-15.6333,0.0],[-175.6061,-15.6208,2.4665],[-175.6011,-15.6055,1.1494],[-175.6,-15.5897,0.0],[-175.6022,-15.5848,0.0],[-175.6084,-15.577,0.0],[-175.6164,-15.5708,0.0],[-175.6276,-15.5661,0.0],[-175.6308,-15.5667,18.7993]]]]}
,"properties": {"GID_1": "TON.5_1","GID_0": "TON","country": "Tonga","province": "Vava'u","VARNAME_1": "NA","NL_NAME_1": "NA","TYPE_1": "IslandGroup","ENGTYPE_1": "IslandGroup","CC_1": "NA","HASC_1": "TO.VA","ISO_1": "NA","name": "Vava'u.province","area_km2": 223.5841,"hist_schema_id": "Elevation0-9000","hist_area_km2": {"0": 53.8617,"25": 53.5522,"50": 45.3355,"75": 26.8208,"100": 14.892,"125": 11.3529,"150": 7.897,"175": 4.0871,"200": 1.8909,"225": 1.0239,"250": 0.4616,"275": 0.582,"300": 0.3613,"325": 0.3412,"350": 0.3813,"375": 0.2208,"400": 0.1004,"425": 0.2208,"450": 0.1004,"475": 0.1004}}}