{"type":"Feature","properties":{"ISO3166-1-Alpha-3":"NIU","country":"Niue","fill":"#F0F","id":"5481","name":"Niue"},
"geometry":{"type": "Polygon","coordinates": [[[-169.85114,-18.9651,73.7916],[-169.86372,-18.96404,80.2526],[-169.89582,-18.9651,0.0],[-169.91601,-19.00311,27.7272],[-169.92182,-19.00701,0.0],[-169.92638,-19.00742,0.0],[-169.93025,-19.0084,0.0],[-169.93371,-19.0136,0.0],[-169.9344,-19.02093,0.0],[-169.93159,-19.02654,0.0],[-169.92797,-19.03183,0.0],[-169.92626,-19.03753,0.0],[-169.9477,-19.06943,0.0],[-169.95043,-19.08733,0.0],[-169.92626,-19.0949,48.4846],[-169.92406,-19.09938,18.8714],[-169.91942,-19.11598,0.0],[-169.92479,-19.11932,0.0],[-169.92797,-19.12282,0.0],[-169.93053,-19.1264,0.0],[-169.93371,-19.12965,0.0],[-169.92109,-19.12802,0.0],[-169.90998,-19.12859,53.2476],[-169.90205,-19.13299,66.3159],[-169.89892,-19.14275,0.0],[-169.88097,-19.12908,50.1839],[-169.873,-19.12591,44.9824],[-169.86543,-19.12965,47.4904],[-169.82384,-19.10231,58.6843],[-169.80598,-19.08196,62.1332],[-169.79686,-19.07391,59.2377],[-169.78291,-19.06894,64.623],[-169.79426,-19.04713,61.389],[-169.82262,-18.97259,64.5423],[-169.82531,-18.96795,61.7378],[-169.85114,-18.9651,73.7916]]]}}