{"type": "Feature","id": "4962","bbox": [-158.06481,-9.11395,-157.90876,-8.94671],"geometry": {"type": "MultiPolygon","coordinates": [[[[-157.98579,-9.09751,0.0],[-158.00935,-9.06618,0.0],[-158.01094,-9.06666,0.0],[-157.97936,-9.11281,0.0],[-157.97533,-9.11395,0.0],[-157.98579,-9.09751,0.0]]],
[[[-157.90876,-9.03484,0.0],[-157.91019,-9.03265,0.0],[-157.91251,-9.03037,0.0],[-157.92695,-9.01499,0.0],[-157.92744,-9.01751,0.0],[-157.92569,-9.02337,0.0],[-157.92117,-9.02858,0.0],[-157.9167,-9.03029,0.0],[-157.91019,-9.03647,0.0],[-157.90876,-9.03484,0.0]]],
[[[-158.02998,-9.06162,0.0],[-158.03185,-9.05991,0.0],[-158.06481,-9.01458,0.0],[-158.03759,-9.05942,0.0],[-158.03165,-9.06333,0.0],[-158.02998,-9.06162,0.0]]],
[[[-157.94074,-8.98073,0.0],[-157.94074,-8.97454,0.0],[-158.00288,-8.94671,0.0],[-158.00829,-8.95289,0.0],[-157.99714,-8.96461,0.0],[-157.97863,-8.97601,0.0],[-157.96186,-8.98073,0.0],[-157.94074,-8.98073,0.0]]]]}
,"properties": {"ISO3166-1-Alpha-3": "COK","country": "Cook Islands","fill": "#F0F","name": "Penrhyn","area_km2": 16.02028,"hist_schema_id": "Elevation0-9000","hist_area_km2": {"0": 16.02028}}}