{"type": "Feature","bbox": [-158.0575,-9.0861,-157.8814,-8.9156],"geometry": {"type": "MultiPolygon","coordinates": [[[[-157.9233,-9.0822,0.0],[-157.9244,-9.0797,0.9869],[-157.9281,-9.0828,7.3392],[-157.9256,-9.0847,0.0],[-157.9233,-9.0822,0.0]]],
[[[-157.9158,-8.9802,0.0],[-157.9173,-8.9774,0.0],[-157.9208,-8.9797,0.0],[-157.9178,-8.9878,7.0544],[-157.9142,-8.9928,7.5132],[-157.9065,-8.9973,0.7452],[-157.9063,-9.0,0.0],[-157.9027,-9.0008,0.9472],[-157.9017,-9.0039,1.0118],[-157.9003,-9.0033,1.0118],[-157.8997,-9.0064,0.0],[-157.897,-9.0086,2.4352],[-157.8967,-9.0131,2.8426],[-157.8858,-9.0261,2.9275],[-157.8864,-9.0325,6.0061],[-157.8917,-9.0375,0.0],[-157.8894,-9.0381,0.0],[-157.8823,-9.0325,5.6178],[-157.8814,-9.0256,5.008],[-157.8914,-9.0147,0.0],[-157.9003,-8.9983,2.1931],[-157.9119,-8.9881,0.0],[-157.9158,-8.9802,0.0]]],
[[[-157.9217,-8.9759,4.0475],[-157.9208,-8.9767,0.0],[-157.92,-8.9742,0.0],[-157.9225,-8.9719,2.5331],[-157.9228,-8.9733,0.0],[-157.9217,-8.9759,4.0475]]],
[[[-157.9239,-8.9542,0.0],[-157.9253,-8.9539,3.4779],[-157.9258,-8.9511,0.0],[-157.9285,-8.9514,3.6046],[-157.9267,-8.9594,0.0],[-157.9233,-8.9644,3.9477],[-157.923,-8.9714,0.0],[-157.9214,-8.9697,0.0],[-157.9222,-8.9639,0.0],[-157.92,-8.962,0.0],[-157.923,-8.9589,0.0],[-157.9239,-8.9542,0.0]]],
[[[-157.9598,-9.0789,0.0],[-157.9628,-9.0781,0.0],[-157.9625,-9.0861,0.0],[-157.9553,-9.0823,0.0],[-157.9598,-9.0789,0.0]]],
[[[-158.0515,-8.9789,0.0],[-158.0528,-8.9778,1.6238],[-158.0512,-8.9751,0.5789],[-158.0522,-8.9731,1.7251],[-158.0575,-8.9772,0.0],[-158.0402,-9.0026,0.0],[-158.03,-9.0244,0.0],[-158.025,-9.0283,0.0],[-158.0067,-9.0303,0.0],[-157.9978,-9.0364,0.0],[-157.9931,-9.0414,0.0],[-157.9881,-9.0542,0.0],[-157.9794,-9.0655,0.0],[-157.9725,-9.0789,0.0],[-157.967,-9.085,0.0],[-157.9647,-9.0844,1.4069],[-157.9641,-9.0819,0.7577],[-157.9719,-9.0727,0.0],[-157.9761,-9.0642,0.0],[-157.9831,-9.0553,0.0],[-157.9931,-9.0364,4.2553],[-158.0056,-9.0253,2.1236],[-158.0067,-9.0283,4.4467],[-158.0078,-9.0269,0.0],[-158.0097,-9.0286,0.0],[-158.0111,-9.0266,0.0],[-158.0189,-9.0253,0.0],[-158.02,-9.0269,1.4106],[-158.0233,-9.0239,0.7303],[-158.0247,-9.0247,12.8417],[-158.0241,-9.0219,1.044],[-158.0292,-9.0164,0.0],[-158.04,-8.9969,4.6725],[-158.0514,-8.9814,0.9949],[-158.0515,-8.9789,0.0]]],
[[[-158.0477,-8.966,0.0],[-158.0483,-8.9632,1.3011],[-158.05,-8.9637,1.3011],[-158.0505,-8.966,0.0],[-158.0484,-8.966,1.4904],[-158.0494,-8.9643,1.3011],[-158.0477,-8.966,0.0]]],
[[[-158.0511,-8.9225,0.0],[-158.0528,-8.9211,0.0],[-158.0539,-8.9242,0.9764],[-158.0508,-8.9383,0.0],[-158.0494,-8.9414,0.0],[-158.0459,-8.942,0.0],[-158.0456,-8.9378,0.0],[-158.0483,-8.9342,8.5563],[-158.0511,-8.9225,0.0]]],
[[[-157.9272,-8.9496,0.0],[-157.9262,-8.948,0.0],[-157.9286,-8.9449,0.0],[-157.9274,-8.9406,0.7034],[-157.929,-8.941,0.0],[-157.9305,-8.9443,4.2231],[-157.9292,-8.9496,0.0],[-157.9272,-8.9496,0.0]]],
[[[-157.9969,-8.9158,0.0],[-158.0028,-8.9156,0.0],[-158.0086,-8.9197,0.4256],[-158.0064,-8.9219,0.0],[-157.9972,-8.9192,10.695],[-157.9919,-8.92,3.2964],[-157.9667,-8.9356,6.2987],[-157.9561,-8.9394,3.977],[-157.9458,-8.9397,0.0],[-157.9322,-8.9353,0.0],[-157.9336,-8.9333,0.0],[-157.9453,-8.9347,0.0],[-157.9517,-8.9372,0.9616],[-157.9588,-8.9358,0.0],[-157.9658,-8.9308,0.0],[-157.9811,-8.9239,0.4505],[-157.9908,-8.9169,0.0],[-157.9969,-8.9158,0.0]]],
[[[-158.0475,-8.9167,0.0],[-158.0489,-8.9167,0.0],[-158.0486,-8.9186,0.0],[-158.0444,-8.9236,0.0],[-158.0372,-8.9256,10.9886],[-158.0328,-8.9289,0.0],[-158.018,-8.9275,1.5162],[-158.0161,-8.9261,1.1469],[-158.0161,-8.9236,0.0],[-158.0136,-8.9255,0.0],[-158.0086,-8.9222,0.0],[-158.0114,-8.9194,0.0],[-158.0183,-8.9236,0.0],[-158.0269,-8.9258,0.0],[-158.0344,-8.9239,0.0],[-158.0475,-8.9167,0.0]]]]}
,"properties": {"GID_1": "COK.8_1","GID_0": "COK","country": "CookIslands","province": "Penhryn","VARNAME_1": "NA","NL_NAME_1": "NA","TYPE_1": "IslandCouncil","ENGTYPE_1": "IslandCouncil","CC_1": "NA","HASC_1": "NA","ISO_1": "NA","name": "Penhryn.province","area_km2": 17.44458,"hist_schema_id": "Elevation0-9000","hist_area_km2": {"0": 15.72746,"25": 1.71712}}}