{"type": "Feature","bbox": [-169.6285,-14.1727,-169.61,-14.1567],"geometry": {"type": "MultiPolygon","coordinates": [[[[-169.61,-14.1703,0.0],[-169.6115,-14.1567,67.7363],[-169.6169,-14.1582,0.0],[-169.6202,-14.1632,13.8801],[-169.6285,-14.1695,71.1453],[-169.6135,-14.1727,203.2889],[-169.61,-14.1703,0.0]]]]}
,"properties": {"GID_3": "ASM.2.4.2_1","GID_0": "ASM","country": "AmericanSamoa","GID_1": "ASM.2_1","state": "Manu'a","NL_NAME_1": "NA","GID_2": "ASM.2.4_1","county": "Olosega","NL_NAME_2": "NA","city": "Sili","VARNAME_3": "NA","NL_NAME_3": "NA","TYPE_3": "Village","ENGTYPE_3": "Village","CC_3": "NA","HASC_3": "NA","name": "Sili.city","area_km2": 1.952961,"hist_schema_id": "Elevation0-9000","hist_area_km2": {"0": 0.102789,"25": 0.020558,"50": 0.041115,"75": 0.061673,"100": 0.061673,"125": 0.061673,"150": 0.185019,"175": 0.082231,"200": 0.082231,"225": 0.205574,"250": 0.123346,"275": 0.102788,"300": 0.123345,"325": 0.061672,"350": 0.102786,"375": 0.102787,"400": 0.08223,"425": 0.020557,"450": 0.082229,"475": 0.041115,"500": 0.061672,"550": 0.082229,"575": 0.041114,"600": 0.020557}}}