{"type": "Feature","bbox": [-170.6873,-14.2864,-170.6768,-14.278],"geometry": {"type": "MultiPolygon","coordinates": [[[[-170.6768,-14.2864,26.7029],[-170.6806,-14.2825,0.0],[-170.6839,-14.278,1.3734],[-170.6873,-14.2863,102.5048],[-170.6768,-14.2864,26.7029]]]]}
,"properties": {"GID_3": "ASM.1.2.9_1","GID_0": "ASM","country": "AmericanSamoa","GID_1": "ASM.1_1","state": "Eastern","NL_NAME_1": "NA","GID_2": "ASM.1.2_1","county": "Ma'Oputasi","NL_NAME_2": "NA","city": "Utulei","VARNAME_3": "NA","NL_NAME_3": "NA","TYPE_3": "Village","ENGTYPE_3": "Village","CC_3": "NA","HASC_3": "NA","name": "Utulei.city","area_km2": 0.4931225,"hist_schema_id": "Elevation0-9000","hist_area_km2": {"0": 0.1643756,"25": 0.1027337,"50": 0.0616402,"75": 0.0410931,"125": 0.0821866,"150": 0.0205466,"175": 0.0205466}}}