{"type": "Feature","bbox": [-170.7403,-14.3216,-170.6785,-14.274],"geometry": {"type": "MultiPolygon","coordinates": [[[[-170.7003,-14.3162,1.3654],[-170.687,-14.3001,61.7313],[-170.6806,-14.3002,0.0],[-170.6785,-14.2964,83.3375],[-170.6914,-14.2922,132.7978],[-170.7019,-14.2931,549.8851],[-170.7185,-14.2972,425.9694],[-170.7106,-14.2847,156.4449],[-170.7141,-14.2787,310.4827],[-170.7222,-14.274,0.0],[-170.7235,-14.2804,53.5666],[-170.7224,-14.2852,0.0],[-170.7321,-14.2827,0.0],[-170.7371,-14.2854,0.0],[-170.7403,-14.2902,0.0],[-170.7316,-14.2974,326.699],[-170.7276,-14.3049,212.5959],[-170.7321,-14.3207,40.0563],[-170.7257,-14.3194,20.9249],[-170.7213,-14.3216,13.2089],[-170.7048,-14.3134,0.0],[-170.7003,-14.3162,1.3654]]]]}
,"properties": {"GID_2": "ASM.1.1_1","GID_0": "ASM","country": "AmericanSamoa","GID_1": "ASM.1_1","state": "Eastern","NL_NAME_1": "NA","county": "Ituau","VARNAME_2": "NA","NL_NAME_2": "NA","TYPE_2": "County","ENGTYPE_2": "County","CC_2": "NA","HASC_2": "AS.ET.IT","name": "Ituau.county","area_km2": 15.36785,"hist_schema_id": "Elevation0-9000","hist_area_km2": {"0": 2.46534,"25": 1.45867,"50": 0.90399,"75": 0.90401,"100": 0.69854,"125": 0.82182,"150": 1.17109,"175": 0.86291,"200": 0.76019,"225": 0.90401,"250": 0.82182,"275": 0.86291,"300": 0.678,"325": 0.39036,"350": 0.34927,"375": 0.30818,"400": 0.24655,"425": 0.16436,"450": 0.30818,"475": 0.14382,"500": 0.02055,"525": 0.04109,"550": 0.04109,"575": 0.04109}}}