{"type":"Feature","properties":{"GID_1":"WSM.5_1","GID_0":"WSM","country":"Samoa","province":"Gaga'emauga","VARNAME_1":"Gagaemauga","NL_NAME_1":"NA","TYPE_1":"Itumalo","ENGTYPE_1":"District","CC_1":"NA","HASC_1":"WS.GE","ISO_1":"NA","name":"Gaga'emauga.province"},
"geometry":{"type": "MultiPolygon","coordinates": [[[[-171.9471,-13.9731,17.9903],[-171.9465,-13.9743,17.9903],[-171.9513,-13.9748,0.0],[-171.9497,-13.9786,1.3],[-171.9429,-13.9856,1.8695],[-171.937,-13.9892,1.3719],[-171.9325,-13.9889,2.1521],[-171.9175,-14.0047,0.0],[-171.9085,-14.0056,5.1112],[-171.909,-13.951599999999999,172.8047],[-171.914,-13.9547,137.4697],[-171.9193,-13.9648,59.4469],[-171.924,-13.9682,44.591],[-171.9271,-13.965,53.9233],[-171.9305,-13.9646,46.0094],[-171.938,-13.968,22.5345],[-171.9398,-13.9716,24.6502],[-171.9471,-13.9731,17.9903]]],
[[[-172.3538,-13.6295,929.1241],[-172.3265,-13.5989,638.8117],[-172.3237,-13.5909,577.9682],[-172.2961,-13.583,347.6473],[-172.2592,-13.5663,128.4302],[-172.2592,-13.5198,6.7315],[-172.2616,-13.5181,14.5598],[-172.2642,-13.5092,3.1526],[-172.2701,-13.5077,0.0],[-172.2739,-13.5046,9.0448],[-172.2781,-13.4977,0.0],[-172.2842,-13.4923,1.6628],[-172.2906,-13.479,4.4747],[-172.3102,-13.4553,0.0],[-172.3322,-13.4425,0.0],[-172.3352,-13.4424,0.0],[-172.336,-13.4439,0.0],[-172.3283,-13.4464,0.0],[-172.328,-13.4492,0.6993],[-172.3369,-13.4475,0.0],[-172.3462,-13.4421,0.5173],[-172.357,-13.4398,2.6778],[-172.3633,-13.449,2.612],[-172.3715,-13.4485,1.2413],[-172.3785,-13.475,145.0659],[-172.3831,-13.4742,146.0448],[-172.3884,-13.4808,187.535],[-172.39,-13.518,410.034],[-172.3896,-13.5816,963.415],[-172.3921,-13.6106,1104.2491],[-172.3603,-13.6382,964.2706],[-172.3538,-13.6295,929.1241]]]]}}