{"type": "Feature","id": "4990","bbox": [-172.41418,-14.00469,-171.79143,-13.46282],"geometry": {"type": "MultiPolygon","coordinates": [[[[-171.85407,-14.00189,0.0],[-171.84793,-13.94375,292.1808],[-171.87154,-13.94162,364.4684],[-171.87565,-14.00469,0.0],[-171.85407,-14.00189,0.0]]],
[[[-171.79231,-13.8165,0.0],[-171.81491,-13.81162,27.3239],[-171.81203,-13.86609,148.2106],[-171.79143,-13.87067,116.3379],[-171.79231,-13.8165,0.0]]],
[[[-172.29724,-13.5617,215.104],[-172.22277,-13.55836,0.0],[-172.28051,-13.49358,0.0],[-172.30077,-13.4765,33.2597],[-172.32238,-13.46689,40.7995],[-172.34443,-13.46299,61.313],[-172.36616,-13.46282,53.1905],[-172.41418,-13.63687,1416.3712],[-172.39102,-13.63746,1192.5886],[-172.34745,-13.63858,895.3075],[-172.31097,-13.63951,742.9102],[-172.29724,-13.5617,215.104]]]]}
,"properties": {"ISO3166-1-Alpha-3": "WSM","country": "Samoa","fill": "#FF0","name": "Gaga'emauga","area_km2": 255.3948,"hist_schema_id": "Elevation0-9000","hist_area_km2": {"0": 11.4877,"25": 16.2146,"50": 19.743,"75": 18.384,"100": 15.0261,"125": 12.5943,"150": 12.0786,"175": 9.0897,"200": 7.2141,"225": 5.7296,"250": 5.008,"275": 4.6988,"300": 4.5544,"325": 3.5857,"350": 4.1215,"375": 3.627,"400": 3.0297,"425": 2.7413,"450": 2.6794,"475": 3.2359,"500": 2.7825,"525": 2.8855,"550": 3.1121,"575": 3.6273,"600": 3.3388,"625": 3.6273,"650": 3.0709,"675": 3.1326,"700": 3.5242,"725": 3.7302,"750": 3.3591,"775": 3.153,"800": 3.1736,"825": 3.5651,"850": 3.2972,"875": 3.3796,"900": 6.0377,"925": 4.1626,"950": 3.565,"975": 3.0293,"1000": 2.2668,"1025": 1.7928,"1050": 1.6898,"1075": 1.8546,"1100": 2.0812,"1125": 1.8339,"1150": 1.7927,"1175": 1.4012,"1200": 1.1333,"1225": 1.0921,"1250": 1.0715,"1275": 0.7624,"1300": 0.886,"1325": 0.3915,"1350": 0.5357,"1375": 0.3297,"1400": 0.0824}}}