{"type":"Feature","properties":{"GID_2":"WSM.6.1_1","GID_0":"WSM","country":"Samoa","GID_1":"WSM.6_1","province":"Gagaifomauga","NL_NAME_1":"NA","county":"GagaifomaugaI","VARNAME_2":"NA","NL_NAME_2":"NA","TYPE_2":"Unknown","ENGTYPE_2":"Unknown","CC_2":"NA","HASC_2":"NA","name":"Gagaifomauga_I.county"},
"geometry":{"type": "MultiPolygon","coordinates": [[[[-172.3715,-13.4485,1.2413],[-172.3778,-13.4462,0.0],[-172.3876,-13.4459,0.0],[-172.4058,-13.4509,0.0],[-172.4148,-13.4498,2.5652],[-172.4065,-13.4721,80.6402],[-172.3785,-13.475,145.0659],[-172.3715,-13.4485,1.2413]]]]}}