{"type": "Feature","bbox": [-158.2972,-20.0295,-158.0812,-19.8081],"geometry": {"type": "MultiPolygon","coordinates": [[[[-158.1214,-19.9658,2.1081],[-158.1344,-19.9667,16.8734],[-158.1372,-19.9706,0.0],[-158.1411,-19.9825,0.0],[-158.1422,-20.0,3.7599],[-158.1402,-20.0039,3.5573],[-158.1286,-20.0151,0.0],[-158.1213,-20.0283,0.0],[-158.1162,-20.0295,0.836],[-158.1098,-20.0234,3.88],[-158.0989,-20.0169,0.0],[-158.0897,-20.0151,0.0],[-158.0852,-20.0117,0.0],[-158.0812,-20.004,0.0],[-158.0875,-19.9906,3.4653],[-158.1022,-19.975,11.203],[-158.1081,-19.9697,15.2287],[-158.1214,-19.9658,2.1081]]],
[[[-158.2886,-19.8081,6.7233],[-158.2964,-19.8103,0.041],[-158.2972,-19.813,0.0],[-158.2914,-19.8164,0.0],[-158.2825,-19.8161,0.3064],[-158.2814,-19.8144,0.6185],[-158.2833,-19.8106,2.0923],[-158.2853,-19.8083,7.5063],[-158.2886,-19.8081,6.7233]]]]}
,"properties": {"GID_1": "COK.2_1","GID_0": "COK","country": "CookIslands","province": "Atiu","VARNAME_1": "NA","NL_NAME_1": "NA","TYPE_1": "IslandCouncil","ENGTYPE_1": "IslandCouncil","CC_1": "NA","HASC_1": "NA","ISO_1": "NA","name": "Atiu.province","area_km2": 30.6047,"hist_schema_id": "Elevation0-9000","hist_area_km2": {"0": 4.72296,"25": 17.75282,"50": 4.86142,"75": 3.26751}}}