{"type":"Feature","properties":{"ISO3166-1-Alpha-3":"COK","country":"Cook Islands","fill":"#F0F","id":"4950","name":"Atiu"},
"geometry":{"type": "MultiPolygon","coordinates": [[[[-158.08178,-20.01279,0.0],[-158.07832,-19.99424,0.0],[-158.09736,-19.98154,7.4759],[-158.12031,-19.97283,24.6084],[-158.1352,-19.9765,25.7614],[-158.12995,-20.00075,1.64],[-158.1151,-20.01572,29.7692],[-158.09655,-20.01971,0.0],[-158.08178,-20.01279,0.0]]],
[[[-158.2733,-19.82627,0.0],[-158.27636,-19.8235,0.0],[-158.28108,-19.82195,0.0],[-158.2683,-19.83261,0.0],[-158.2733,-19.82627,0.0]]],
[[[-158.29377,-19.81658,0.0],[-158.28767,-19.81064,10.8101],[-158.29597,-19.81455,1.5893],[-158.29735,-19.81732,0.0],[-158.29377,-19.81658,0.0]]]]}}