{"type": "Feature","bbox": [-178.1592,-14.3691,-177.9986,-14.2456],"geometry": {"type": "MultiPolygon","coordinates": [[[[-178.0533,-14.3206,0.0],[-178.0567,-14.3217,0.0],[-178.0569,-14.3236,0.0],[-178.0542,-14.3219,0.0],[-178.0497,-14.3225,0.0],[-178.0497,-14.3239,2.422],[-178.0578,-14.3261,0.0],[-178.0667,-14.3319,6.0239],[-178.0703,-14.3358,0.0],[-178.0706,-14.3406,0.0],[-178.0733,-14.3444,3.8022],[-178.0731,-14.3478,17.5129],[-178.0675,-14.3514,0.0],[-178.0561,-14.3506,2.7934],[-178.0503,-14.3547,0.0],[-178.0652,-14.3656,0.0],[-178.062,-14.3691,0.0],[-178.0478,-14.3606,6.2876],[-178.0419,-14.3622,0.0],[-178.0225,-14.3478,0.0],[-177.9986,-14.3361,0.0],[-178.0,-14.3339,0.0],[-178.0028,-14.3339,0.0],[-178.0058,-14.3314,0.0],[-178.0222,-14.3314,8.3119],[-178.0269,-14.3278,0.0],[-178.0289,-14.3233,3.2452],[-178.0533,-14.3206,0.0]]],
[[[-178.1592,-14.2461,0.0],[-178.1591,-14.2555,207.001],[-178.1555,-14.2615,270.207],[-178.1387,-14.2771,403.4998],[-178.1344,-14.2854,195.1488],[-178.1363,-14.299,173.0108],[-178.1391,-14.3041,110.2712],[-178.1392,-14.3114,0.0],[-178.1356,-14.3125,0.0641],[-178.1192,-14.3114,0.0],[-178.1119,-14.3139,0.0],[-178.1064,-14.3139,0.0],[-178.1036,-14.3128,0.0],[-178.1025,-14.3103,0.0],[-178.1003,-14.3114,0.0],[-178.095,-14.3094,0.0],[-178.0869,-14.3128,0.0],[-178.0753,-14.3122,11.0136],[-178.0669,-14.3136,0.0],[-178.0533,-14.3072,0.0],[-178.0553,-14.3056,0.0],[-178.0578,-14.3067,34.4175],[-178.0583,-14.3053,0.0],[-178.0633,-14.305,0.0],[-178.0714,-14.2981,0.0],[-178.0786,-14.2983,0.6537],[-178.0819,-14.2953,0.0],[-178.0839,-14.2967,0.36],[-178.0883,-14.2961,0.0],[-178.0992,-14.2875,0.0],[-178.1047,-14.2806,0.0],[-178.1153,-14.2747,12.7452],[-178.1236,-14.2644,2.3501],[-178.1275,-14.2631,11.9051],[-178.1308,-14.2586,0.0],[-178.1344,-14.2572,0.0],[-178.1375,-14.2581,18.1698],[-178.1405,-14.255,0.0],[-178.1419,-14.2558,0.0],[-178.1492,-14.2525,0.0],[-178.1514,-14.2531,1.0543],[-178.1558,-14.2456,0.0],[-178.1592,-14.2461,0.0]]]]}
,"properties": {"GID_1": "WLF.1_1","GID_0": "WLF","country": "WallisandFutuna","province": "Alo","VARNAME_1": "NA","NL_NAME_1": "NA","TYPE_1": "Kingdom","ENGTYPE_1": "Kingdom","CC_1": "NA","HASC_1": "WF.AL","ISO_1": "NA","name": "Alo.province","area_km2": 50.97037,"hist_schema_id": "Elevation0-9000","hist_area_km2": {"0": 8.77225,"25": 4.70452,"50": 4.49902,"75": 3.7389,"100": 3.80059,"125": 3.92386,"150": 3.36919,"175": 3.02002,"200": 2.19829,"225": 2.075,"250": 2.21884,"275": 1.84906,"300": 1.43813,"325": 1.4793,"350": 0.98622,"375": 0.76023,"400": 0.57531,"425": 0.4726,"450": 0.61644,"475": 0.32877,"500": 0.12329,"525": 0.02055}}}