{"type": "Feature","id": "4997","bbox": [-178.13709,-14.37892,-177.97671,-14.25555],"geometry": {"type": "MultiPolygon","coordinates": [[[[-178.00349,-14.3388,0.0],[-178.01509,-14.3331,35.0134],[-178.02554,-14.33066,4.6329],[-178.05915,-14.34596,251.2646],[-178.06599,-14.35247,0.0],[-178.0677,-14.36061,0.0],[-178.05899,-14.36769,0.0],[-178.03291,-14.37892,0.0],[-178.0242,-14.37859,0.0],[-178.01765,-14.37176,0.0],[-178.00349,-14.36207,0.0],[-177.9842,-14.35377,0.0],[-177.97671,-14.348,0.0],[-177.9816,-14.34393,0.0],[-177.9901,-14.33994,0.0],[-177.99413,-14.34035,0.0],[-178.00349,-14.3388,0.0]]],
[[[-178.04674,-14.3126,0.0],[-178.09248,-14.289,0.0],[-178.10509,-14.28525,48.1357],[-178.10814,-14.27899,0.0],[-178.13077,-14.25555,0.0],[-178.13494,-14.27401,372.0145],[-178.13709,-14.28902,251.7061],[-178.12994,-14.30188,116.2373],[-178.12655,-14.31315,0.0],[-178.12145,-14.3139,0.0],[-178.10884,-14.31943,0.0],[-178.10005,-14.31601,0.0],[-178.04674,-14.31943,0.0],[-178.04674,-14.3126,0.0]]]]}
,"properties": {"ISO3166-1-Alpha-3": "WLF","country": "Wallis and Futuna","fill": "#F0F","name": "Alo","area_km2": 59.7593,"hist_schema_id": "Elevation0-9000","hist_area_km2": {"0": 31.55189,"25": 3.1021,"50": 2.36252,"75": 2.2187,"100": 2.32143,"125": 2.5269,"150": 1.68464,"175": 1.89009,"200": 1.78739,"225": 1.8079,"250": 1.97228,"275": 1.60249,"300": 1.25319,"325": 1.23272,"350": 0.88347,"375": 0.71913,"400": 0.45202,"425": 0.20548,"450": 0.18493}}}