{"type": "Feature","bbox": [-170.6217,-14.2702,-170.604,-14.2624],"geometry": {"type": "MultiPolygon","coordinates": [[[[-170.604,-14.2648,190.985],[-170.6217,-14.2624,248.4268],[-170.6197,-14.27,6.977],[-170.6096,-14.2702,0.0],[-170.604,-14.2648,190.985]]]]}
,"properties": {"GID_3": "ASM.1.4.7_1","GID_0": "ASM","country": "AmericanSamoa","GID_1": "ASM.1_1","state": "Eastern","NL_NAME_1": "NA","GID_2": "ASM.1.4_1","county": "Sua","NL_NAME_2": "NA","city": "Faga'itua","VARNAME_3": "NA","NL_NAME_3": "NA","TYPE_3": "Village","ENGTYPE_3": "Village","CC_3": "NA","HASC_3": "NA","name": "Faga'itua.city","area_km2": 1.1507054,"hist_schema_id": "Elevation0-9000","hist_area_km2": {"0": 0.2671255,"25": 0.1849336,"50": 0.12329,"75": 0.226032,"100": 0.1232907,"125": 0.1027423,"150": 0.0821941,"175": 0.0205486,"200": 0.0205486}}}