{"type": "Feature","bbox": [-170.71,-14.306,-170.687,-14.2931],"geometry": {"type": "MultiPolygon","coordinates": [[[[-170.687,-14.3001,61.7313],[-170.7019,-14.2931,549.8851],[-170.71,-14.2959,339.5859],[-170.6906,-14.306,0.0],[-170.687,-14.3001,61.7313]]]]}
,"properties": {"GID_3": "ASM.1.1.1_1","GID_0": "ASM","country": "AmericanSamoa","GID_1": "ASM.1_1","state": "Eastern","NL_NAME_1": "NA","GID_2": "ASM.1.1_1","county": "Ituau","NL_NAME_2": "NA","city": "Faganeanea","VARNAME_3": "NA","NL_NAME_3": "NA","TYPE_3": "Village","ENGTYPE_3": "Village","CC_3": "NA","HASC_3": "NA","name": "Faganeanea.city","area_km2": 1.499812,"hist_schema_id": "Elevation0-9000","hist_area_km2": {"25": 0.143816,"50": 0.061635,"75": 0.061635,"100": 0.082181,"125": 0.082181,"150": 0.04109,"175": 0.061636,"200": 0.082181,"225": 0.061636,"250": 0.082181,"275": 0.061636,"300": 0.102727,"325": 0.082182,"350": 0.061637,"375": 0.082182,"400": 0.061637,"425": 0.041091,"450": 0.061637,"475": 0.041091,"500": 0.020546,"525": 0.041092,"550": 0.041092,"575": 0.041092}}}