{"type":"Feature","properties":{"GID_2":"WSM.3.5_1","GID_0":"WSM","country":"Samoa","GID_1":"WSM.3_1","province":"Atua","NL_NAME_1":"NA","county":"Falealili","VARNAME_2":"NA","NL_NAME_2":"NA","TYPE_2":"Unknown","ENGTYPE_2":"Unknown","CC_2":"NA","HASC_2":"NA","name":"Falealili.county"},
"geometry":{"type": "MultiPolygon","coordinates": [[[[-171.6328,-13.9667,470.0825],[-171.6876,-13.9494,1103.5188],[-171.6907,-13.9469,1080.5586],[-171.7242,-13.9373,1087.1379],[-171.7313,-13.9393,1137.7395],[-171.7399,-13.9368,985.9166],[-171.7409,-13.9894,137.2981],[-171.7391,-13.9915,124.7646],[-171.7477,-14.0279,30.3206],[-171.7481,-14.0453,0.0],[-171.7457,-14.0458,1.515],[-171.7419,-14.0439,4.3649],[-171.7349,-14.0452,0.0],[-171.7277,-14.0444,0.0],[-171.716,-14.0357,4.7481],[-171.7042,-14.035,0.0],[-171.7024,-14.0303,5.4749],[-171.6998,-14.0294,5.9945],[-171.6933,-14.0298,0.0],[-171.6883,-14.0323,1.074],[-171.6858,-14.0356,0.0],[-171.6808,-14.0364,0.0],[-171.6775,-14.0394,4.7799],[-171.6608,-14.0408,1.6616],[-171.654,-14.0441,0.0],[-171.6358,-14.0392,2.7967],[-171.6253,-14.0383,0.0],[-171.6152,-14.0346,0.0],[-171.61,-14.0367,0.9314],[-171.6054,-14.0414,0.0],[-171.6001,-14.0425,4.2385],[-171.5977,-14.0354,34.111],[-171.5974,-14.0211,60.9416],[-171.5919,-14.0202,80.7377],[-171.5865,-14.0131,106.1656],[-171.5848,-14.0074,138.5196],[-171.5903,-14.0044,167.7104],[-171.5928,-14.0008,175.2481],[-171.5942,-13.9887,210.1112],[-171.5978,-13.9847,219.4135],[-171.5973,-13.9764,232.2666],[-171.6328,-13.9667,470.0825]]]]}}