{"type": "Feature","bbox": [-170.7222,-14.2972,-170.6543,-14.2517],"geometry": {"type": "MultiPolygon","coordinates": [[[[-170.6806,-14.2825,0.0],[-170.6839,-14.278,1.3734],[-170.6904,-14.2739,0.0],[-170.6797,-14.2685,0.0],[-170.6704,-14.2701,0.0],[-170.6659,-14.2726,0.9382],[-170.6636,-14.2898,8.2892],[-170.6543,-14.2732,394.1378],[-170.6553,-14.266,206.0638],[-170.6588,-14.2624,381.4632],[-170.6699,-14.2652,361.2673],[-170.6779,-14.2631,266.6913],[-170.687,-14.2647,429.2059],[-170.6904,-14.252,0.0],[-170.6957,-14.2517,0.0],[-170.7017,-14.2552,5.7328],[-170.7047,-14.2604,0.0],[-170.7103,-14.2607,0.0],[-170.7222,-14.274,0.0],[-170.7141,-14.2787,310.4827],[-170.7106,-14.2847,156.4449],[-170.7185,-14.2972,425.9694],[-170.7019,-14.2931,549.8851],[-170.6914,-14.2922,132.7978],[-170.6785,-14.2964,83.3375],[-170.6808,-14.2909,0.0],[-170.6768,-14.2864,26.7029],[-170.6806,-14.2825,0.0]]]]}
,"properties": {"GID_2": "ASM.1.2_1","GID_0": "ASM","country": "AmericanSamoa","GID_1": "ASM.1_1","state": "Eastern","NL_NAME_1": "NA","county": "Ma'Oputasi","VARNAME_2": "NA","NL_NAME_2": "NA","TYPE_2": "County","ENGTYPE_2": "County","CC_2": "NA","HASC_2": "AS.ET.MA","name": "Ma'Oputasi.county","area_km2": 17.75308,"hist_schema_id": "Elevation0-9000","hist_area_km2": {"0": 2.73283,"25": 1.35614,"50": 1.39723,"75": 1.33559,"100": 1.2534,"125": 1.08902,"150": 1.10956,"175": 0.98629,"200": 0.92465,"225": 1.13013,"250": 0.8219,"275": 0.57534,"300": 0.51369,"325": 0.71916,"350": 0.57532,"375": 0.3493,"400": 0.43149,"425": 0.18492,"450": 0.16438,"475": 0.0411,"500": 0.06164}}}