{"type": "Feature","bbox": [-175.3567,-21.1544,-175.2503,-21.0428],"geometry": {"type": "MultiPolygon","coordinates": [[[[-175.339,-21.1544,12.8826],[-175.3134,-21.1188,1.3371],[-175.3278,-21.1172,1.7461],[-175.3308,-21.1139,0.0],[-175.3306,-21.11,0.0],[-175.3355,-21.1079,3.6547],[-175.3363,-21.1058,2.4702],[-175.3361,-21.0981,1.1261],[-175.3381,-21.0951,3.533],[-175.338,-21.091,1.6632],[-175.3331,-21.0797,4.2796],[-175.3233,-21.0675,13.0758],[-175.3228,-21.065,0.0],[-175.325,-21.0622,0.0],[-175.328,-21.0625,0.0],[-175.3328,-21.0664,17.0582],[-175.3436,-21.0797,1.7412],[-175.3567,-21.0925,4.3293],[-175.3483,-21.1192,6.5586],[-175.3488,-21.1275,5.6586],[-175.347,-21.1313,13.8271],[-175.3483,-21.1331,0.0],[-175.3431,-21.1488,1.4672],[-175.339,-21.1544,12.8826]]],
[[[-175.2542,-21.0428,0.0],[-175.2578,-21.0453,0.0],[-175.255,-21.0506,0.0],[-175.2586,-21.0564,1.4027],[-175.2578,-21.0575,1.4027],[-175.2503,-21.0483,0.0],[-175.2505,-21.0453,0.0],[-175.2542,-21.0428,0.0]]]]}
,"properties": {"GID_2": "TON.4.3_1","GID_0": "TON","country": "Tonga","GID_1": "TON.4_1","province": "Tongatapu","NL_NAME_1": "NA","county": "Kolovai","VARNAME_2": "NA","NL_NAME_2": "NA","TYPE_2": "District","ENGTYPE_2": "District","CC_2": "NA","HASC_2": "NA","name": "Kolovai.county","area_km2": 18.61243,"hist_schema_id": "Elevation0-9000","hist_area_km2": {"0": 9.53374,"25": 9.07869}}}