{"type":"Feature","properties":{"GID_1":"WLF.3_1","GID_0":"WLF","country":"WallisandFutuna","province":"Uvéa","VARNAME_1":"MataUtu","NL_NAME_1":"NA","TYPE_1":"Kingdom","ENGTYPE_1":"Kingdom","CC_1":"NA","HASC_1":"WF.UV","ISO_1":"NA","name":"Uvéa.province"},
"geometry":{"type": "MultiPolygon","coordinates": [[[[-176.2164,-13.3911,0.0],[-176.2164,-13.3922,0.0],[-176.2125,-13.3889,0.4344],[-176.2131,-13.3861,0.0],[-176.2167,-13.3906,0.0],[-176.2164,-13.3911,0.0]]],
[[[-176.2142,-13.3708,0.0],[-176.2197,-13.3653,1.0772],[-176.2214,-13.3658,0.0],[-176.2211,-13.3711,0.0],[-176.218,-13.3731,0.0],[-176.2203,-13.3797,0.0],[-176.2167,-13.3786,0.0],[-176.2117,-13.3808,1.514],[-176.2108,-13.38,1.514],[-176.2097,-13.3758,0.0],[-176.2122,-13.3756,9.4795],[-176.2142,-13.3708,0.0]]],
[[[-176.2231,-13.3653,0.0],[-176.2242,-13.3628,0.0],[-176.2261,-13.3633,9.2914],[-176.2247,-13.3653,0.0],[-176.2231,-13.3653,0.0]]],
[[[-176.2136,-13.3581,3.5176],[-176.2125,-13.3594,3.5176],[-176.2117,-13.3586,0.0],[-176.2125,-13.3561,0.0],[-176.2133,-13.3569,0.0],[-176.2136,-13.3581,3.5176]]],
[[[-176.1694,-13.3706,1.1513],[-176.1708,-13.3669,0.0],[-176.1744,-13.3697,3.7831],[-176.1717,-13.3747,3.4695],[-176.1728,-13.3794,0.0],[-176.1697,-13.3811,3.0444],[-176.1725,-13.3867,5.1657],[-176.1714,-13.3892,1.1199],[-176.1678,-13.3842,1.2863],[-176.1694,-13.3706,1.1513]]],
[[[-176.1247,-13.2878,0.0],[-176.1267,-13.2872,0.0],[-176.1292,-13.2889,4.9641],[-176.1255,-13.2903,0.0],[-176.1247,-13.2878,0.0]]],
[[[-176.1436,-13.2817,0.0],[-176.1439,-13.2786,1.6409],[-176.1458,-13.2778,0.0],[-176.1494,-13.2822,0.0],[-176.1453,-13.2833,0.0],[-176.1436,-13.2817,0.0]]],
[[[-176.1331,-13.2756,0.0],[-176.1289,-13.2747,0.0],[-176.1292,-13.2714,0.0],[-176.1322,-13.2731,0.0],[-176.1331,-13.2756,0.0]]],
[[[-176.1864,-13.3075,0.0],[-176.1847,-13.3056,4.1345],[-176.1825,-13.3072,1.9993],[-176.1803,-13.3067,0.0],[-176.1794,-13.3011,0.0],[-176.1828,-13.2972,0.0],[-176.1817,-13.2931,-0.2445],[-176.1756,-13.2844,3.5666],[-176.1708,-13.2825,-0.466],[-176.1614,-13.2661,0.0],[-176.1647,-13.2628,17.7065],[-176.1672,-13.2528,0.0],[-176.1742,-13.2517,10.4998],[-176.1764,-13.2494,0.1474],[-176.1758,-13.2475,0.0],[-176.1789,-13.245,1.8612],[-176.1806,-13.2369,0.0],[-176.1847,-13.2322,-0.5779],[-176.1842,-13.2303,-0.3532],[-176.188,-13.2242,0.0],[-176.1906,-13.2244,0.0],[-176.197,-13.2194,0.0],[-176.2014,-13.2186,0.0151],[-176.2133,-13.2233,3.4611],[-176.2142,-13.2269,0.7104],[-176.2211,-13.2344,0.0],[-176.2206,-13.2375,0.0],[-176.2244,-13.2467,0.0],[-176.2233,-13.2492,7.3715],[-176.2269,-13.2544,0.0],[-176.2256,-13.2569,21.0843],[-176.2272,-13.2611,0.0],[-176.2239,-13.2656,15.8598],[-176.2256,-13.2717,6.2361],[-176.2247,-13.2775,2.2964],[-176.2292,-13.2831,6.1986],[-176.2361,-13.2836,0.0],[-176.2403,-13.2867,5.213],[-176.245,-13.2869,0.0],[-176.2511,-13.29,0.0],[-176.2486,-13.2997,2.4315],[-176.2508,-13.3067,3.9119],[-176.2464,-13.3144,23.1943],[-176.2414,-13.3144,2.8362],[-176.2397,-13.3158,1.6777],[-176.235,-13.3148,2.166],[-176.2355,-13.3178,3.6307],[-176.2319,-13.3228,0.0],[-176.23,-13.3217,0.0],[-176.2281,-13.3228,0.0],[-176.2256,-13.3203,1.0155],[-176.2247,-13.3211,1.0155],[-176.2269,-13.3267,0.0],[-176.22,-13.33,0.0],[-176.2169,-13.3383,5.8224],[-176.2195,-13.3481,0.0],[-176.2183,-13.3489,0.0],[-176.2167,-13.3472,0.6134],[-176.215,-13.3503,0.0],[-176.2128,-13.3486,0.309],[-176.2067,-13.3531,0.0],[-176.2042,-13.3519,-0.1572],[-176.2036,-13.3489,-0.3713],[-176.1997,-13.3444,0.88],[-176.1972,-13.3433,1.09],[-176.1953,-13.3453,0.0],[-176.1914,-13.3453,0.0],[-176.1847,-13.3503,0.0],[-176.1756,-13.3447,6.5494],[-176.1753,-13.3414,38.8187],[-176.1803,-13.3375,0.0],[-176.1847,-13.3392,0.32],[-176.1867,-13.3375,0.0],[-176.1875,-13.3346,0.2199],[-176.1844,-13.3322,0.0],[-176.185,-13.3308,0.0],[-176.19,-13.3319,0.2967],[-176.1878,-13.3297,0.0],[-176.1892,-13.3283,-0.0492],[-176.1883,-13.3256,0.4116],[-176.1856,-13.3231,0.0677],[-176.1886,-13.3208,0.0],[-176.1886,-13.3189,0.0],[-176.1858,-13.3161,0.0],[-176.1867,-13.3147,0.0],[-176.1822,-13.3114,0.0],[-176.1864,-13.3075,0.0]]],
[[[-176.2053,-13.1867,0.0],[-176.2036,-13.1861,4.938],[-176.2039,-13.1828,0.0],[-176.2056,-13.1839,0.0],[-176.2053,-13.1867,0.0]]],
[[[-176.1458,-13.2714,0.0],[-176.1478,-13.2703,3.6535],[-176.1519,-13.2733,2.8466],[-176.1475,-13.275,0.0],[-176.145,-13.2733,0.0],[-176.1458,-13.2714,0.0]]],
[[[-176.1675,-13.2203,1.6456],[-176.1675,-13.2186,2.8392],[-176.1692,-13.2175,0.0],[-176.1697,-13.22,0.0],[-176.1675,-13.2203,1.6456]]],
[[[-176.1975,-13.1867,7.4327],[-176.1997,-13.1844,0.0],[-176.2022,-13.1894,0.1638],[-176.1992,-13.1883,4.7055],[-176.1922,-13.1961,0.0],[-176.1897,-13.1956,0.0],[-176.1894,-13.1978,0.0],[-176.1875,-13.1975,0.0],[-176.1764,-13.2081,0.0],[-176.1722,-13.2081,0.0],[-176.1931,-13.1872,0.0],[-176.1975,-13.1867,7.4327]]]]}}