{"type":"Feature","properties":{"ISO3166-1-Alpha-3":"WLF","country":"Wallis and Futuna","fill":"#F0F","id":"4996","name":"`Uvea"},
"geometry":{"type": "Polygon","coordinates": [[[-176.15547,-13.20892,0.0],[-176.1704,-13.22145,0.0],[-176.18403,-13.23789,10.8783],[-176.19017,-13.25701,67.4662],[-176.18281,-13.27793,27.798],[-176.19957,-13.29062,77.7485],[-176.19477,-13.30674,22.4663],[-176.18391,-13.32383,0.0],[-176.18281,-13.33929,26.4023],[-176.17321,-13.34645,0.0],[-176.15949,-13.35027,0.0],[-176.14717,-13.34775,0.0],[-176.14184,-13.33587,0.0],[-176.14765,-13.31048,0.0],[-176.14448,-13.30088,0.0],[-176.12816,-13.29827,0.0],[-176.13056,-13.29119,0.0],[-176.13215,-13.28851,0.0],[-176.13561,-13.28476,0.0],[-176.1256,-13.26409,0.0],[-176.13056,-13.24765,0.0],[-176.14302,-13.23073,0.0],[-176.15547,-13.20892,0.0]]]}}