{"type": "Feature","bbox": [-170.7778,-14.3413,-170.7592,-14.3167],"geometry": {"type": "MultiPolygon","coordinates": [[[[-170.7763,-14.3413,35.8924],[-170.76,-14.3393,127.7144],[-170.7592,-14.3319,165.0011],[-170.7619,-14.3273,229.721],[-170.762,-14.3185,288.85],[-170.7667,-14.3167,445.3689],[-170.7778,-14.3294,179.3912],[-170.7763,-14.3413,35.8924]]]]}
,"properties": {"GID_3": "ASM.4.2.3_1","GID_0": "ASM","country": "AmericanSamoa","GID_1": "ASM.4_1","state": "Western","NL_NAME_1": "NA","GID_2": "ASM.4.2_1","county": "Leasina","NL_NAME_2": "NA","city": "Malaeloa/Aitulagi","VARNAME_3": "NA","NL_NAME_3": "NA","TYPE_3": "Village","ENGTYPE_3": "Village","CC_3": "NA","HASC_3": "NA","name": "Malaeloa_Aitulagi.city","area_km2": 3.759267,"hist_schema_id": "Elevation0-9000","hist_area_km2": {"50": 0.924386,"75": 0.205422,"100": 0.328677,"125": 0.349218,"150": 0.493015,"175": 0.267052,"200": 0.287596,"225": 0.205428,"250": 0.20543,"275": 0.06163,"300": 0.041086,"325": 0.082173,"350": 0.082173,"375": 0.041087,"400": 0.041087,"425": 0.061631,"450": 0.082174}}}