{"type":"Feature","properties":{"GID_1":"WSM.4_1","GID_0":"WSM","country":"Samoa","province":"Fa'asaleleaga","VARNAME_1":"Faasaleleaga","NL_NAME_1":"NA","TYPE_1":"Itumalo","ENGTYPE_1":"District","CC_1":"NA","HASC_1":"WS.FA","ISO_1":"WS-FA","name":"Fa'asaleleaga.province"},
"geometry":{"type": "MultiPolygon","coordinates": [[[[-172.1976,-13.7005,1.3919],[-172.1986,-13.6979,0.5924],[-172.1934,-13.6922,3.7963],[-172.1929,-13.6893,0.8409],[-172.1795,-13.6788,1.0213],[-172.1737,-13.6678,0.0],[-172.1811,-13.6621,2.3872],[-172.1868,-13.6524,0.0],[-172.1883,-13.6436,0.0],[-172.1919,-13.6404,0.0],[-172.1919,-13.6372,0.0],[-172.1974,-13.632,2.7781],[-172.194,-13.6228,1.3817],[-172.1976,-13.6205,3.3032],[-172.2047,-13.595,0.0],[-172.214,-13.5837,2.1965],[-172.2109,-13.5834,0.0],[-172.209,-13.5813,0.0],[-172.2114,-13.5778,0.0],[-172.2186,-13.5753,3.1415],[-172.2267,-13.5697,4.9571],[-172.2267,-13.5594,0.0],[-172.2283,-13.5572,8.7077],[-172.2351,-13.5546,7.6011],[-172.2381,-13.5434,4.5562],[-172.2474,-13.5321,3.8987],[-172.2578,-13.523,19.6739],[-172.2592,-13.5198,6.7315],[-172.2592,-13.5663,128.4302],[-172.2961,-13.583,347.6473],[-172.3237,-13.5909,577.9682],[-172.3265,-13.5989,638.8117],[-172.3604,-13.6377,969.0004],[-172.3602,-13.6419,948.58],[-172.3153,-13.6681,777.558],[-172.3121,-13.6733,719.1002],[-172.2783,-13.6913,409.2467],[-172.2842,-13.7008,366.5731],[-172.2652,-13.7198,159.7828],[-172.2648,-13.7509,14.0665],[-172.2528,-13.7501,22.9442],[-172.2474,-13.7516,19.2337],[-172.2394,-13.7584,35.7059],[-172.2357,-13.7689,32.0258],[-172.2308,-13.7738,27.4815],[-172.2205,-13.7946,3.3022],[-172.2136,-13.7905,7.9963],[-172.2141,-13.7835,7.6594],[-172.2114,-13.7782,0.0],[-172.2135,-13.7645,0.0],[-172.2219,-13.751,5.2028],[-172.2172,-13.7448,0.0],[-172.2197,-13.7364,0.0],[-172.1959,-13.7215,1.0391],[-172.1969,-13.7159,0.0],[-172.203,-13.7126,1.2724],[-172.2007,-13.7097,0.0],[-172.203,-13.7054,0.0],[-172.1976,-13.7005,1.3919]]]]}}