{"type":"Feature","properties":{"ISO3166-1-Alpha-3":"WSM","country":"Samoa","fill":"#F0F","id":"4989","name":"Fa'asaleleaga"},
"geometry":{"type": "Polygon","coordinates": [[[-172.20104,-13.59254,0.0],[-172.20531,-13.58766,0.0],[-172.21752,-13.58278,15.0638],[-172.22277,-13.5783,16.978],[-172.22358,-13.57391,19.0883],[-172.22187,-13.5626,0.0],[-172.22277,-13.55836,0.0],[-172.29724,-13.5617,215.104],[-172.31097,-13.63951,742.9102],[-172.25375,-13.75624,22.085],[-172.23544,-13.77226,29.7211],[-172.21296,-13.80096,0.0],[-172.21235,-13.79062,0.0],[-172.21532,-13.76767,12.1792],[-172.2115,-13.74456,0.0],[-172.20214,-13.73016,0.0],[-172.19066,-13.71795,0.0],[-172.18061,-13.70241,0.0],[-172.17565,-13.68027,0.0],[-172.18139,-13.66766,18.1995],[-172.19026,-13.65602,12.9284],[-172.19489,-13.6369,6.6166],[-172.19567,-13.61386,0.0],[-172.19758,-13.60312,0.0],[-172.20104,-13.59254,0.0]]]}}