{"type":"Feature","properties":{"GID_2":"WSM.9.8_1","GID_0":"WSM","country":"Samoa","GID_1":"WSM.9_1","province":"Tuamasaga","NL_NAME_1":"NA","county":"VaimaugaEast","VARNAME_2":"NA","NL_NAME_2":"NA","TYPE_2":"Unknown","ENGTYPE_2":"Unknown","CC_2":"NA","HASC_2":"NA","name":"Vaimauga_East.county"},
"geometry":{"type": "MultiPolygon","coordinates": [[[[-171.6955,-13.8614,16.8871],[-171.6985,-13.8595,0.0],[-171.7056,-13.8636,1.5594],[-171.7081,-13.8633,1.4],[-171.7114,-13.8548,3.1698],[-171.7208,-13.8506,7.7891],[-171.7225,-13.8442,0.0],[-171.7292,-13.8414,5.2051],[-171.7364,-13.8425,0.0],[-171.7405,-13.8414,3.42],[-171.7437,-13.8464,25.9895],[-171.7393,-13.8531,37.3329],[-171.741,-13.8619,69.9199],[-171.7402,-13.866,89.2743],[-171.746,-13.8718,122.9885],[-171.7438,-13.8801,236.6514],[-171.7471,-13.8899,340.7568],[-171.7385,-13.9047,457.7607],[-171.7361,-13.9057,462.3563],[-171.7327,-13.9113,536.6143],[-171.7276,-13.9233,867.6912],[-171.7242,-13.9373,1087.1379],[-171.6979,-13.9448,1055.4014],[-171.6949,-13.916,530.1099],[-171.693,-13.9131,621.5146],[-171.6955,-13.8614,16.8871]]]]}}