{"type": "Feature","bbox": [-172.0114,-13.9748,-171.8813,-13.8777],"geometry": {"type": "MultiPolygon","coordinates": [[[[-171.9301,-13.8832,346.0568],[-171.9358,-13.8837,342.1943],[-171.9358,-13.8864,369.9251],[-171.9486,-13.8879,350.6915],[-171.9491,-13.879,303.2947],[-171.9771,-13.8777,378.7242],[-171.9717,-13.8874,397.9464],[-171.9714,-13.8946,468.5241],[-171.9683,-13.9023,269.0247],[-171.9695,-13.9106,233.0047],[-171.9754,-13.9235,179.6488],[-172.0047,-13.9197,4.5425],[-172.0074,-13.9218,25.6131],[-172.0072,-13.9242,8.9174],[-172.0114,-13.9262,0.0],[-172.0094,-13.9288,3.8474],[-172.0037,-13.9301,0.0],[-172.0036,-13.936,16.2384],[-171.9961,-13.935,1.661],[-171.9942,-13.9361,7.6648],[-171.9942,-13.9389,0.0],[-171.9895,-13.9416,11.8682],[-171.9917,-13.9469,0.0],[-171.9886,-13.9519,0.0],[-171.9859,-13.9514,0.0],[-171.9851,-13.9529,2.1565],[-171.9794,-13.9472,18.7667],[-171.9758,-13.9462,6.6204],[-171.9783,-13.9433,0.0],[-171.9797,-13.9369,2.5137],[-171.9753,-13.9339,9.89],[-171.9731,-13.9344,3.7293],[-171.9692,-13.9406,0.9398],[-171.9614,-13.9478,4.3286],[-171.9594,-13.9594,2.7991],[-171.9581,-13.9631,0.832],[-171.9517,-13.9692,4.6775],[-171.9513,-13.9748,0.0],[-171.9398,-13.9716,24.6502],[-171.938,-13.968,22.5345],[-171.9305,-13.9646,46.0094],[-171.9271,-13.965,53.9233],[-171.924,-13.9682,44.591],[-171.9193,-13.9648,59.4469],[-171.914,-13.9547,137.4697],[-171.9029,-13.9478,217.7746],[-171.8813,-13.9305,427.7158],[-171.906,-13.9256,434.8929],[-171.903,-13.9153,515.708],[-171.9054,-13.9054,549.3707],[-171.9065,-13.8881,543.4133],[-171.929,-13.8868,364.8563],[-171.9301,-13.8832,346.0568]]]]}
,"properties": {"GID_2": "WSM.1.5_1","GID_0": "WSM","country": "Samoa","GID_1": "WSM.1_1","province": "A'ana","NL_NAME_1": "NA","county": "Lefaga&Faleseela","VARNAME_2": "NA","NL_NAME_2": "NA","TYPE_2": "Unknown","ENGTYPE_2": "Unknown","CC_2": "NA","HASC_2": "NA","name": "Lefaga&Faleseela.county","area_km2": 73.05593,"hist_schema_id": "Elevation0-9000","hist_area_km2": {"0": 2.59271,"25": 4.77385,"50": 5.59693,"75": 3.29238,"100": 2.48988,"125": 3.12783,"150": 3.51883,"175": 3.16904,"200": 3.0456,"225": 3.7042,"250": 3.53962,"275": 2.96341,"300": 3.1487,"325": 4.26014,"350": 5.39217,"375": 5.39224,"400": 3.82807,"425": 2.53141,"450": 2.09926,"475": 1.31719,"500": 1.3172,"525": 0.94673,"550": 0.57629,"575": 0.20582,"600": 0.14408,"625": 0.02058,"650": 0.06175}}}