{"type": "Feature","id": "4998","bbox": [-170.72151,-14.31482,-170.56725,-14.25237],"geometry": {"type": "Polygon","coordinates": [[[-170.59101,-14.26483,64.0827],[-170.62007,-14.25457,0.0],[-170.66145,-14.25237,72.7105],[-170.69848,-14.26051,253.7468],[-170.72151,-14.28924,46.7485],[-170.71483,-14.30084,366.987],[-170.71385,-14.31442,3.674],[-170.70124,-14.31248,6.9908],[-170.69263,-14.31482,0.0],[-170.68358,-14.30283,0.0],[-170.65929,-14.28525,124.2022],[-170.64232,-14.28069,229.3383],[-170.58418,-14.27776,0.0],[-170.56847,-14.27093,2.6917],[-170.56725,-14.25856,83.7006],[-170.57624,-14.25254,129.4853],[-170.59101,-14.26483,64.0827]]]}
,"properties": {"ISO3166-1-Alpha-3": "ASM","country": "American Samoa","fill": "#F0F","name": "Eastern","area_km2": 54.57406,"hist_schema_id": "Elevation0-9000","hist_area_km2": {"0": 14.40353,"25": 3.45197,"50": 3.08214,"75": 3.84243,"100": 3.76025,"125": 3.30818,"150": 3.63692,"175": 2.77394,"200": 2.32187,"225": 2.65063,"250": 2.34242,"275": 1.97257,"300": 1.49997,"325": 1.62326,"350": 1.19175,"375": 0.86299,"400": 0.80135,"425": 0.49313,"450": 0.26711,"475": 0.08219,"500": 0.08219,"525": 0.04109,"550": 0.04109,"575": 0.04109}}}