{"type": "Feature","bbox": [-170.7403,-14.3216,-170.5467,-14.241],"geometry": {"type": "MultiPolygon","coordinates": [[[[-170.7147,-14.3188,0.0],[-170.7048,-14.3134,0.0],[-170.7003,-14.3162,1.3654],[-170.687,-14.3001,61.7313],[-170.6806,-14.3002,0.0],[-170.6785,-14.2964,83.3375],[-170.6808,-14.2909,0.0],[-170.6768,-14.2864,26.7029],[-170.6839,-14.278,1.3734],[-170.6904,-14.2739,0.0],[-170.6847,-14.2706,10.2318],[-170.6797,-14.2685,0.0],[-170.675,-14.2688,4.644],[-170.6659,-14.2726,0.9382],[-170.6636,-14.2898,8.2892],[-170.6432,-14.2875,0.0],[-170.6359,-14.2792,44.374],[-170.6305,-14.2796,6.5195],[-170.6197,-14.27,6.977],[-170.6096,-14.2702,0.0],[-170.6058,-14.273,0.0],[-170.6056,-14.2795,0.0],[-170.602,-14.2841,8.0876],[-170.59,-14.2788,32.0203],[-170.586,-14.2754,0.0],[-170.5775,-14.2743,0.0],[-170.5675,-14.2693,17.9898],[-170.5627,-14.2627,0.4935],[-170.5642,-14.2501,6.6142],[-170.563,-14.246,8.8955],[-170.5682,-14.2478,0.0],[-170.5787,-14.2478,9.2019],[-170.5833,-14.2508,0.0],[-170.5862,-14.2554,11.5892],[-170.5867,-14.2612,0.0],[-170.5992,-14.2555,0.0],[-170.6048,-14.2558,0.0],[-170.6117,-14.2536,0.0],[-170.6247,-14.2575,0.0],[-170.6294,-14.255,0.0],[-170.6247,-14.2499,0.0],[-170.6321,-14.2489,11.7374],[-170.638,-14.2487,0.0],[-170.6521,-14.2556,0.0],[-170.6535,-14.2502,22.5309],[-170.6588,-14.2504,0.0],[-170.6622,-14.2467,9.9735],[-170.6735,-14.2502,0.0],[-170.6724,-14.241,72.2165],[-170.6826,-14.2443,0.0],[-170.6904,-14.252,0.0],[-170.6957,-14.2517,0.0],[-170.7017,-14.2552,5.7328],[-170.7047,-14.2604,0.0],[-170.7103,-14.2607,0.0],[-170.7222,-14.274,0.0],[-170.7235,-14.2804,53.5666],[-170.7224,-14.2852,0.0],[-170.7321,-14.2827,0.0],[-170.7371,-14.2854,0.0],[-170.7403,-14.2902,0.0],[-170.7316,-14.2974,326.699],[-170.7276,-14.3049,212.5959],[-170.7321,-14.3207,40.0563],[-170.7257,-14.3194,20.9249],[-170.7213,-14.3216,13.2089],[-170.7147,-14.3188,0.0]]],
[[[-170.5586,-14.2796,4.9979],[-170.5614,-14.2833,0.0],[-170.5601,-14.2874,0.8604],[-170.554,-14.2892,0.0],[-170.5472,-14.2877,12.0759],[-170.5467,-14.2815,13.9874],[-170.553,-14.2786,2.8845],[-170.5586,-14.2796,4.9979]]]]}
,"properties": {"GID_1": "ASM.1_1","GID_0": "ASM","country": "AmericanSamoa","state": "Eastern","VARNAME_1": "NA","NL_NAME_1": "NA","TYPE_1": "District","ENGTYPE_1": "District","CC_1": "NA","HASC_1": "AS.ET","ISO_1": "NA","name": "Eastern.state","area_km2": 69.59449,"hist_schema_id": "Elevation0-9000","hist_area_km2": {"0": 11.34214,"25": 6.1231,"50": 5.69175,"75": 5.69177,"100": 5.67122,"125": 4.97257,"150": 4.93141,"175": 3.96569,"200": 3.26707,"225": 3.7191,"250": 3.06156,"275": 2.6506,"300": 1.95199,"325": 1.76708,"350": 1.37666,"375": 0.98626,"400": 0.94517,"425": 0.57532,"450": 0.51365,"475": 0.18491,"500": 0.08219,"525": 0.04109,"550": 0.04109,"575": 0.04109}}}