{"type":"Feature","properties":{"GID_1":"TKL.3_1","GID_0":"TKL","country":"Tokelau","province":"Nukunonu","VARNAME_1":"NA","NL_NAME_1":"NA","TYPE_1":"Atoll","ENGTYPE_1":"Atoll","CC_1":"NA","HASC_1":"TK.NU","ISO_1":"NA","name":"Nukunonu.province"},
"geometry":{"type": "MultiPolygon","coordinates": [[[[-171.8078,-9.2261,0.0],[-171.8092,-9.2253,1.5921],[-171.81,-9.2276,3.3109],[-171.8085,-9.2276,3.3109],[-171.8078,-9.2261,0.0]]],
[[[-171.8169,-9.2253,0.6892],[-171.8156,-9.2242,0.0],[-171.8169,-9.2228,0.0],[-171.8181,-9.2244,3.3818],[-171.8169,-9.2253,0.6892]]],
[[[-171.8328,-9.2167,0.0],[-171.835,-9.2156,0.0],[-171.8358,-9.2172,0.0447],[-171.8325,-9.2192,3.3458],[-171.8303,-9.2183,0.0],[-171.8328,-9.2167,0.0]]],
[[[-171.8531,-9.195,1.4479],[-171.8597,-9.1875,0.015],[-171.8608,-9.1894,0.0528],[-171.8597,-9.1914,0.0],[-171.8439,-9.2056,2.3926],[-171.8475,-9.1994,0.4854],[-171.8531,-9.195,1.4479]]],
[[[-171.79,-9.2281,0.0],[-171.7906,-9.2303,0.0],[-171.7894,-9.2306,0.0],[-171.7889,-9.2289,0.0],[-171.79,-9.2281,0.0]]],
[[[-171.8028,-9.2269,1.6971],[-171.8047,-9.2269,2.7032],[-171.8031,-9.2297,0.0],[-171.8019,-9.2278,0.0],[-171.8028,-9.2269,1.6971]]],
[[[-171.7713,-9.2206,4.9143],[-171.7728,-9.2192,0.0],[-171.7742,-9.2199,0.0],[-171.7728,-9.2214,0.0],[-171.7713,-9.2206,4.9143]]],
[[[-171.785,-9.1492,0.0],[-171.7864,-9.1478,2.7892],[-171.7853,-9.1422,0.0],[-171.7894,-9.135,0.9551],[-171.7872,-9.1594,14.2449],[-171.7836,-9.1725,0.0],[-171.7689,-9.2081,8.3254],[-171.7686,-9.2106,12.0729],[-171.7722,-9.2161,0.0],[-171.7697,-9.2169,0.2991],[-171.7653,-9.2097,8.2745],[-171.7828,-9.1672,5.1857],[-171.7858,-9.1553,5.0943],[-171.785,-9.1492,0.0]]],
[[[-171.8597,-9.1611,0.0414],[-171.8619,-9.1608,0.0],[-171.8628,-9.1661,0.0609],[-171.8614,-9.1658,-0.0168],[-171.8597,-9.1611,0.0414]]],
[[[-171.8608,-9.1589,0.0],[-171.8586,-9.1603,0.0],[-171.8578,-9.1561,1.7744],[-171.8592,-9.1539,0.0201],[-171.86,-9.1544,0.0],[-171.8608,-9.1589,0.0]]],
[[[-171.8583,-9.1531,0.0201],[-171.8572,-9.1528,0.0],[-171.8572,-9.1425,0.0],[-171.8589,-9.1394,0.0138],[-171.86,-9.1406,0.0],[-171.86,-9.1514,0.0],[-171.8583,-9.1531,0.0201]]],
[[[-171.8611,-9.1197,0.4894],[-171.8575,-9.1169,0.0],[-171.8586,-9.1158,0.0944],[-171.8622,-9.1181,0.0],[-171.8611,-9.1197,0.4894]]],
[[[-171.7872,-9.1244,0.0],[-171.7886,-9.1233,2.1017],[-171.7894,-9.1244,2.1017],[-171.79,-9.1342,0.0],[-171.7867,-9.13,0.0],[-171.7872,-9.1244,0.0]]],
[[[-171.7861,-9.1211,1.8678],[-171.7839,-9.1206,0.0],[-171.7853,-9.1178,0.0],[-171.7872,-9.1203,1.8678],[-171.7861,-9.1211,1.8678]]],
[[[-171.7797,-9.1039,0.0],[-171.7817,-9.1022,1.4604],[-171.7851,-9.103,10.9839],[-171.7875,-9.105,8.768],[-171.7884,-9.1087,2.1906],[-171.7854,-9.1083,6.1895],[-171.7831,-9.1053,4.6079],[-171.7822,-9.1061,4.6079],[-171.7845,-9.1074,1.9115],[-171.7858,-9.1108,0.0532],[-171.784,-9.1113,0.0],[-171.7797,-9.1039,0.0]]]]}}