{"type": "Feature","bbox": [-170.6543,-14.2889,-170.6396,-14.269],"geometry": {"type": "MultiPolygon","coordinates": [[[[-170.6543,-14.2732,394.1378],[-170.6496,-14.2889,0.0],[-170.6432,-14.2875,0.0],[-170.6396,-14.284,20.8417],[-170.6447,-14.2739,240.2184],[-170.6452,-14.269,201.2851],[-170.6543,-14.2732,394.1378]]]]}
,"properties": {"GID_3": "ASM.1.4.4_1","GID_0": "ASM","country": "AmericanSamoa","GID_1": "ASM.1_1","state": "Eastern","NL_NAME_1": "NA","GID_2": "ASM.1.4_1","county": "Sua","NL_NAME_2": "NA","city": "Aumi","VARNAME_3": "NA","NL_NAME_3": "NA","TYPE_3": "Village","ENGTYPE_3": "Village","CC_3": "NA","HASC_3": "NA","name": "Aumi.city","area_km2": 2.034167,"hist_schema_id": "Elevation0-9000","hist_area_km2": {"0": 0.123279,"25": 0.06164,"50": 0.12328,"75": 0.102734,"100": 0.12328,"125": 0.123281,"150": 0.184923,"175": 0.205472,"200": 0.267116,"225": 0.226021,"250": 0.143833,"275": 0.123284,"300": 0.08219,"325": 0.020548,"375": 0.020548,"400": 0.041095,"425": 0.041095,"450": 0.020548}}}