{"type":"Feature","properties":{"featurecla":"Island","name":"Aitutaki","namealt":null,"region":"Oceania","subregion":"Polynesia","min_label":6.0,"max_label":11.0,"scalerank":6},
"geometry":{"type": "MultiPolygon","coordinates": [[[[-159.78996836963285,-18.918876905357649,0.0],[-159.7316807475774,-18.860284112505838,0.0],[-159.78996932179609,-18.801934503130951,0.0],[-159.84844100148359,-18.860284112505838,0.0],[-159.78996836963285,-18.918876905357649,0.0]]],
[[[-159.78996836963285,-18.918876905357649,0.0],[-159.78996932179609,-18.918877862505965,0.0],[-159.78996741444752,-18.918877862505965,0.0],[-159.78996836963285,-18.918876905357649,0.0]]]]}}