{"type": "Feature","bbox": [-145.47130286366624,-17.498223565630909,-145.35454260976005,-17.381402276568409],"geometry": {"type": "Polygon","coordinates": [[[-145.35454260976005,-17.439873956255923,0.0],[-145.41283118397871,-17.381402276568409,0.0],[-145.47130286366624,-17.439873956255923,0.0],[-145.41283118397871,-17.498223565630909,0.0],[-145.35454260976005,-17.439873956255923,0.0]]]}
,"properties": {"featurecla": "Island","name": "Anaa","namealt": null,"region": "Oceania","subregion": "Polynesia","min_label": 6.0,"max_label": 11.0,"scalerank": 6,"area_km2": 80.46533,"hist_schema_id": "Elevation0-9000","hist_area_km2": {"0": 80.46533}}}