{"type": "Feature","bbox": [-172.5412510600774,-8.6293270812558944,-172.42442977101493,-8.5125057921934086],"geometry": {"type": "MultiPolygon","coordinates": [[[[-172.4827784277276,-8.6293261266007022,0.0],[-172.42442977101493,-8.57085540156848,0.0],[-172.4827793803899,-8.5125057921934086,0.0],[-172.5412510600774,-8.57085540156848,0.0],[-172.4827784277276,-8.6293261266007022,0.0]]],
[[[-172.4827784277276,-8.6293261266007022,0.0],[-172.4827793803899,-8.6293270812558944,0.0],[-172.48277747304121,-8.6293270812558944,0.0],[-172.4827784277276,-8.6293261266007022,0.0]]]]}
,"properties": {"featurecla": "Island","name": "Atafu","namealt": null,"region": "Oceania","subregion": "Polynesia","min_label": 6.0,"max_label": 11.0,"scalerank": 6,"area_km2": 83.40045,"hist_schema_id": "Elevation0-9000","hist_area_km2": {"0": 82.49891,"25": 0.90154}}}