{"type": "Feature","bbox": [-176.53795516163987,0.137884832806506,-176.42119490773359,0.254645086712785],"geometry": {"type": "MultiPolygon","coordinates": [[[[-176.47948252978912,0.13788578796094,0.0],[-176.42119490773359,0.196356512494106,0.0],[-176.47948348195234,0.254645086712785,0.0],[-176.53795516163987,0.196356512494106,0.0],[-176.47948252978912,0.13788578796094,0.0]]],
[[[-176.47948252978912,0.13788578796094,0.0],[-176.47948348195234,0.137884832806506,0.0],[-176.47948157460377,0.137884832806506,0.0],[-176.47948252978912,0.13788578796094,0.0]]]]}
,"properties": {"featurecla": "Island","name": "Baker I.","namealt": null,"region": "Oceania","subregion": "Polynesia","min_label": 6.0,"max_label": 11.0,"scalerank": 6,"area_km2": 84.34188,"hist_schema_id": "Elevation0-9000","hist_area_km2": {"0": 84.34188}}}