{"type": "Feature","bbox": [-151.78465926320234,-16.524712823443409,-151.74706160695234,-16.471246026568437],"geometry": {"type": "Polygon","coordinates": [[[-151.74846541554615,-16.503106378130951,37.5635],[-151.75371443898365,-16.482598565630951,0.0],[-151.76396834523359,-16.471246026568437,0.0],[-151.78056990773362,-16.476983331255951,0.0],[-151.78465926320234,-16.491753839068451,0.0],[-151.77702986867109,-16.51067473750598,0.0],[-151.76274764210862,-16.52459075313098,0.0],[-151.74706160695234,-16.524712823443409,0.0],[-151.74846541554615,-16.503106378130951,37.5635]]]}
,"properties": {"featurecla": "Island","name": "Bora Bora","namealt": null,"region": "Oceania","subregion": "Polynesia","min_label": 5.4,"max_label": 10.0,"scalerank": 5,"area_km2": 16.58866,"hist_schema_id": "Elevation0-9000","hist_area_km2": {"0": 15.14531,"25": 0.73184,"50": 0.40658,"75": 0.18296,"100": 0.10165,"125": 0.02033}}}