{"type": "Feature","bbox": [-140.72795569569752,-8.0400936828184371,-140.63860022694752,-7.9489071593809228],"geometry": {"type": "Polygon","coordinates": [[[-140.70799719960377,-8.03850676875588,298.3818],[-140.6990860667913,-8.0278866515684371,185.5454],[-140.69261634022871,-8.0138485656309228,18.3626],[-140.68407141835377,-7.9840634093808944,438.3743],[-140.67577063710377,-7.9755184875059228,259.399],[-140.65843665272877,-7.97222258906838,357.645],[-140.65324866444749,-7.9695370421934513,193.7107],[-140.63860022694752,-7.9585507140684371,0.0],[-140.6733292308538,-7.9489071593809228,0.0],[-140.70653235585382,-7.9619686828184228,0.0],[-140.72795569569752,-7.9902889953184228,0.0],[-140.727345344135,-8.0269100890684228,0.0],[-140.71788489491621,-8.0400936828184371,0.0],[-140.70799719960377,-8.03850676875588,298.3818]]]}
,"properties": {"featurecla": "Island","name": "Eiao","namealt": null,"region": "Oceania","subregion": "Polynesia","min_label": 6.0,"max_label": 11.0,"scalerank": 6,"area_km2": 42.20283,"hist_schema_id": "Elevation0-9000","hist_area_km2": {"0": 16.77663,"25": 0.86089,"50": 0.90287,"75": 1.25983,"100": 1.3228,"125": 1.19681,"150": 1.11281,"175": 1.32275,"200": 1.38571,"225": 1.4907,"250": 1.32273,"275": 1.46971,"300": 1.40671,"325": 2.09956,"350": 1.55369,"375": 1.51168,"400": 1.38571,"425": 1.19675,"450": 0.94481,"475": 0.77686,"500": 0.58789,"525": 0.23096,"550": 0.08398}}}