{"type": "Feature","bbox": [-138.69896399647871,-10.549371026568409,-138.62035071522877,-10.425225518755937],"geometry": {"type": "Polygon","coordinates": [[[-138.63713538319752,-10.54094817500588,0.0],[-138.62035071522877,-10.509698175005909,107.8755],[-138.62059485585377,-10.470635675005951,304.1544],[-138.63689124257249,-10.439507745318409,2.3184],[-138.65056311757252,-10.430352471880909,129.7197],[-138.66539466054121,-10.426080010943423,31.0288],[-138.69896399647871,-10.425225518755937,0.0],[-138.68181311757249,-10.457085870318437,0.0],[-138.67973792226002,-10.472344659380937,0.0],[-138.69463050038502,-10.506646417193409,0.0],[-138.69353186757246,-10.524956964068409,0.0],[-138.68571936757249,-10.540826104693451,0.0],[-138.67162024647877,-10.549371026568409,0.0],[-138.63713538319752,-10.54094817500588,0.0]]]}
,"properties": {"featurecla": "Island","name": "Fatu Hiva","namealt": null,"region": "Oceania","subregion": "Polynesia","min_label": 6.0,"max_label": 11.0,"scalerank": 6,"area_km2": 86.72765,"hist_schema_id": "Elevation0-9000","hist_area_km2": {"0": 14.17653,"25": 1.25089,"50": 1.56363,"75": 1.87634,"100": 1.93888,"125": 2.62687,"150": 2.8145,"175": 2.77281,"200": 2.58518,"225": 3.27319,"250": 3.87781,"275": 5.3166,"300": 3.6902,"325": 3.12726,"350": 2.89789,"375": 2.9187,"400": 2.877,"425": 2.79361,"450": 2.68933,"475": 2.60594,"500": 2.16814,"525": 3.21055,"550": 2.98118,"575": 2.18898,"600": 2.08474,"625": 1.79288,"650": 1.52185,"675": 1.04235,"700": 0.64626,"725": 0.54201,"750": 0.16677,"775": 0.22931,"800": 0.12508,"825": 0.10423,"850": 0.08339,"875": 0.08339,"900": 0.04169,"950": 0.04169}}}