{"type": "Feature","bbox": [-151.04009139210865,-16.819512628130923,-150.97850691945234,-16.759698175005909],"geometry": {"type": "Polygon","coordinates": [[[-150.97966658742109,-16.799126885943451,137.0067],[-150.97850691945234,-16.786797784380923,101.9109],[-150.9792393413274,-16.778619073443451,284.746],[-150.98552596242115,-16.767998956255909,228.9727],[-150.9944981303899,-16.760674737505937,0.0],[-151.00249373585865,-16.759698175005909,0.0],[-151.00597273976484,-16.767998956255909,20.07],[-151.01128279835865,-16.77092864375598,4.4381],[-151.02300154835865,-16.77178313594348,0.0],[-151.03478133351484,-16.775811456255909,1.1521],[-151.04009139210865,-16.788872979693409,0.0],[-151.0377110210149,-16.798516534380909,0.0],[-151.03154647023359,-16.805108331255923,0.0],[-151.01341902882734,-16.819512628130923,0.0],[-151.00511824757734,-16.819268487505965,0.0],[-150.99901473195234,-16.81670501094348,0.0],[-150.99492537648359,-16.812310479693465,0.0],[-150.99291121632734,-16.80584075313098,173.4544],[-150.98406111867112,-16.808038018755894,9.1826],[-150.97966658742109,-16.799126885943451,137.0067]]]}
,"properties": {"featurecla": "Island","name": "Huahine","namealt": null,"region": "Oceania","subregion": "Polynesia","min_label": 6.0,"max_label": 11.0,"scalerank": 6,"area_km2": 29.33105,"hist_schema_id": "Elevation0-9000","hist_area_km2": {"0": 15.00008,"25": 2.43587,"50": 2.39529,"75": 1.8472,"100": 1.50209,"125": 1.25851,"150": 1.31942,"175": 1.01494,"200": 0.69015,"225": 0.48718,"250": 0.58867,"275": 0.44658,"300": 0.18269,"325": 0.12179,"350": 0.0406}}}