{"type":"Feature","properties":{"featurecla":"Island","name":"Johnston Atoll","namealt":null,"region":"Oceania","subregion":"Polynesia","min_label":6.0,"max_label":11.0,"scalerank":6},
"geometry":{"type": "MultiPolygon","coordinates": [[[[-169.5308741308526,16.700080610684211,0.0],[-169.47252547413993,16.758490301556662,0.0],[-169.5308750835149,16.81690094608777,0.0],[-169.58934676320243,16.758490301556662,0.0],[-169.5308741308526,16.700080610684211,0.0]]],
[[[-169.5308741308526,16.700080610684211,0.0],[-169.5308750835149,16.700079657025356,0.0],[-169.53087317616624,16.700079657025356,0.0],[-169.5308741308526,16.700080610684211,0.0]]]]}}