{"type": "Feature","bbox": [-157.05809676320234,20.741400457806634,-156.80742537648365,20.931952215619134],"geometry": {"type": "Polygon","coordinates": [[[-156.87712752492115,20.754217840618992,242.7299],[-156.8406895366399,20.778998114056662,209.6425],[-156.81743514210865,20.809088446087969,106.5184],[-156.8080967632024,20.826117254681492,0.0],[-156.80742537648365,20.835821844525384,0.0],[-156.81401717335865,20.846625067181577,0.0],[-156.84227645070234,20.874273992962827,0.0],[-156.84850203663987,20.877997137493992,0.0],[-156.86180770070234,20.885809637494162,0.0],[-156.9130772319524,20.931952215619134,0.0],[-157.02879988820234,20.924627996869077,2.1559],[-157.05809676320234,20.908514715618992,3.1836],[-157.03716170460865,20.877997137493992,187.9287],[-157.00224959523365,20.85877106327527,302.1532],[-156.99230086476487,20.847479559368992,336.4745],[-156.98876082570234,20.826117254681492,41.2566],[-156.9885166850774,20.802679754681606,0.0],[-156.98570906788984,20.780157782025242,146.5277],[-156.9776524272649,20.761053778119134,328.8097],[-156.96147811085859,20.747626043744077,161.3698],[-156.91973006398362,20.741400457806634,90.3305],[-156.87712752492115,20.754217840618992,242.7299]]]}
,"properties": {"featurecla": "Island","name": "Läna‘i","namealt": null,"region": "Oceania","subregion": "Polynesia","min_label": 5.4,"max_label": 10.0,"scalerank": 5,"area_km2": 336.2577,"hist_schema_id": "Elevation0-9000","hist_area_km2": {"0": 17.5695,"25": 11.3698,"50": 8.7157,"75": 8.7358,"100": 8.8947,"125": 9.6285,"150": 9.946,"175": 10.9371,"200": 10.6006,"225": 10.6803,"250": 11.5127,"275": 11.7504,"300": 11.7505,"325": 15.4769,"350": 19.8782,"375": 24.3978,"400": 20.512,"425": 13.4152,"450": 19.082,"475": 17.2589,"500": 12.4034,"525": 10.9769,"550": 6.797,"575": 6.0441,"600": 5.5489,"625": 3.4484,"650": 2.4773,"675": 2.2394,"700": 1.8431,"725": 1.7242,"750": 1.6845,"775": 1.4467,"800": 1.3278,"825": 1.4467,"850": 1.1891,"875": 0.9315,"900": 0.7531,"925": 0.5549,"950": 0.436,"975": 0.436,"1000": 0.3171,"1025": 0.1189}}}