{"type":"Feature","properties":{"featurecla":"Island","name":"Mangaia","namealt":null,"region":"Oceania","subregion":"Polynesia","min_label":6.0,"max_label":11.0,"scalerank":6},
"geometry":{"type": "MultiPolygon","coordinates": [[[[-157.9421290141641,-21.967949174970741,0.0],[-157.88384139210865,-21.909600518755965,0.0],[-157.94212996632734,-21.851128839068465,0.0],[-158.00060164601484,-21.909600518755965,0.0],[-157.9421290141641,-21.967949174970741,0.0]]],
[[[-157.9421290141641,-21.967949174970741,0.0],[-157.94212996632734,-21.967950128130951,0.0],[-157.94212805897877,-21.967950128130951,0.0],[-157.9421290141641,-21.967949174970741,0.0]]]]}}