{"type":"Feature","properties":{"featurecla":"Island","name":"Manihiki","namealt":null,"region":"Oceania","subregion":"Polynesia","min_label":6.0,"max_label":11.0,"scalerank":6},
"geometry":{"type": "MultiPolygon","coordinates": [[[[-160.98106944385165,-10.439262651533141,0.0],[-160.92278182179612,-10.380913995318465,0.0],[-160.9810703960149,-10.32256438594348,0.0],[-161.0395420757024,-10.380913995318465,0.0],[-160.98106944385165,-10.439262651533141,0.0]]],
[[[-160.98106944385165,-10.439262651533141,0.0],[-160.9810703960149,-10.439263604693451,0.0],[-160.98106848866621,-10.439263604693451,0.0],[-160.98106944385165,-10.439262651533141,0.0]]]]}}