{"type":"Feature","properties":{"featurecla":"Island","name":"Moloka‘i","namealt":null,"region":"Oceania","subregion":"Polynesia","min_label":5.4,"max_label":10.0,"scalerank":5},
"geometry":{"type": "Polygon","coordinates": [[[-157.2396153178899,21.2259585632753,0.0],[-157.25005232960859,21.22937653202527,0.0],[-157.25627791554612,21.233648992962856,0.0],[-157.25786482960868,21.214422918744134,21.5591],[-157.25511824757734,21.200079657025356,0.0],[-157.25798689992109,21.18549225468152,0.0],[-157.27617537648368,21.165350653119077,0.0],[-157.28557479054615,21.157294012494049,0.0],[-157.29662215382737,21.145086981244049,0.0],[-157.30437361867115,21.129461981244162,0.0],[-157.30406844288987,21.110785223431577,0.0],[-157.29271590382737,21.095953680462969,25.8177],[-157.27324568898359,21.088507391400356,0.0],[-157.25115096242115,21.089606024212912,48.5761],[-157.23210799367115,21.100226141400356,141.9827],[-157.21556746632737,21.105353094525242,138.7445],[-157.15325057179609,21.103338934369162,114.0792],[-157.06792342335859,21.110785223431577,35.0954],[-157.04540145070234,21.107550360150327,21.9834],[-156.94829451710865,21.069220282025327,21.1485],[-156.90874373585859,21.058172918744106,13.3222],[-156.86974227101484,21.054510809369162,21.1529],[-156.83110701710859,21.062262274212856,12.3053],[-156.79350936085865,21.077093817181634,88.9909],[-156.75578963429609,21.096686102337827,0.0],[-156.72496688038984,21.124945379681719,0.0],[-156.70818221242109,21.165350653119077,0.0],[-156.71971785695234,21.16528961796277,0.0],[-156.74919783742109,21.172125555462856,229.6185],[-156.76909529835865,21.172552801556549,153.8884],[-156.76970564992109,21.172125555462856,153.8884],[-156.7775791850774,21.174505926556577,1.2189],[-156.7831944194524,21.177740789837827,0.0],[-156.78862654835865,21.180060125775356,0.0],[-156.7963780132024,21.179632879681662,0.0],[-156.8019932475774,21.176459051556634,0.0],[-156.81297957570234,21.167303778119134,696.6689],[-156.82054793507737,21.165350653119077,515.7245],[-156.88945662648365,21.165350653119077,194.895],[-156.90990340382734,21.168280340619162,0.0],[-156.9230869975774,21.176031805462827,0.0],[-156.94719588429612,21.200079657025356,0.0],[-156.9659336772649,21.214544989056577,0.0],[-156.9680088725774,21.21106598515027,14.7012],[-156.96660506398365,21.1984927429628,48.3923],[-156.9750889507024,21.185858465619106,46.5135],[-156.98992049367112,21.184027410931577,0.0],[-157.02471053273359,21.196539617962856,0.0],[-157.04027449757737,21.200079657025356,0.0],[-157.17375838429609,21.2063052429628,0.0],[-157.18541609913984,21.214422918744134,0.0],[-157.19664656788984,21.225592352337912,0.0],[-157.20751082570243,21.233099676556719,0.0],[-157.21813094288987,21.230231024212969,0.0],[-157.22795760304612,21.225470282025469,0.0],[-157.2396153178899,21.2259585632753,0.0]]]}}