{"type":"Feature","properties":{"featurecla":"Island","name":"Moorea","namealt":null,"region":"Oceania","subregion":"Polynesia","min_label":5.4,"max_label":10.0,"scalerank":5},
"geometry":{"type": "Polygon","coordinates": [[[-149.78575789601484,-17.477959893755951,16.0501],[-149.78624617726487,-17.467705987505909,0.0],[-149.7968662944524,-17.463189385943465,0.0],[-149.81096541554615,-17.463433526568423,0.0],[-149.82329451710865,-17.465508721880909,0.0],[-149.8317784038274,-17.471490167193465,0.0],[-149.8347080913274,-17.483697198443465,0.0],[-149.84599959523365,-17.47673919063098,0.0],[-149.85375106007734,-17.477959893755951,0.0],[-149.86040389210865,-17.48198821406848,0.0],[-149.86821639210865,-17.483697198443465,0.0],[-149.8701084819524,-17.486626885943451,0.0],[-149.87779891163987,-17.490777276568409,0.0],[-149.88603865773365,-17.490533135943437,0.0],[-149.88994490773365,-17.48027922969348,0.0],[-149.89787947804615,-17.471001885943465,0.0],[-149.91570174367115,-17.472344659380965,0.0],[-149.93425643117112,-17.48027922969348,0.0],[-149.9445713725774,-17.49114348750598,0.0],[-149.9376133647649,-17.511285089068409,0.0],[-149.9141758647649,-17.534112237505937,0.0],[-149.8853672710149,-17.554131768755937,0.0],[-149.86205184132734,-17.565606378130965,177.0909],[-149.84288680226484,-17.566338800005937,241.1702],[-149.82256209523359,-17.548516534380937,1017.1842],[-149.80486189992115,-17.522271417193423,219.1816],[-149.78575789601484,-17.477959893755951,16.0501]]]}}