{"type": "Feature","bbox": [-146.42985999257252,-16.196099542193437,-146.31309973866621,-16.079278253130937],"geometry": {"type": "Polygon","coordinates": [[[-146.31309973866621,-16.137749932818451,0.0],[-146.371388312885,-16.079278253130937,0.0],[-146.42985999257252,-16.137749932818451,0.0],[-146.371388312885,-16.196099542193437,0.0],[-146.31309973866621,-16.137749932818451,0.0]]]}
,"properties": {"featurecla": "Island","name": "Niau","namealt": null,"region": "Oceania","subregion": "Polynesia","min_label": 6.0,"max_label": 11.0,"scalerank": 6,"area_km2": 80.99861,"hist_schema_id": "Elevation0-9000","hist_area_km2": {"0": 78.37147,"25": 2.62714}}}