{"type":"Feature","properties":{"featurecla":"Island","name":"Nihoa","namealt":null,"region":"Oceania","subregion":"Polynesia","min_label":6.0,"max_label":11.0,"scalerank":6},
"geometry":{"type": "MultiPolygon","coordinates": [[[[-161.94396006885162,22.986396529151278,0.0],[-161.88567244679609,23.0448062195253,0.0],[-161.94396102101484,23.103216864056577,0.0],[-162.00243270070237,23.0448062195253,0.0],[-161.94396006885162,22.986396529151278,0.0]]],
[[[-161.94396006885162,22.986396529151278,0.0],[-161.94396102101484,22.986395574994106,0.0],[-161.94395911366627,22.986395574994106,0.0],[-161.94396006885162,22.986396529151278,0.0]]]]}}