{"type": "Feature","bbox": [-175.70903670460865,-15.645562432818451,-175.59227645070234,-15.52886321406848],"geometry": {"type": "MultiPolygon","coordinates": [[[[-175.65062510691712,-15.645561479658227,0.0],[-175.59227645070234,-15.587212823443465,0.0],[-175.65062606007734,-15.52886321406848,0.0],[-175.70903670460865,-15.587212823443465,0.0],[-175.65062510691712,-15.645561479658227,0.0]]],
[[[-175.65062510691712,-15.645561479658227,0.0],[-175.65062606007734,-15.645562432818451,0.0],[-175.65062415272877,-15.645562432818451,0.0],[-175.65062510691712,-15.645561479658227,0.0]]]]}
,"properties": {"featurecla": "Island","name": "Niuafo‘ou","namealt": null,"region": "Oceania","subregion": "Polynesia","min_label": 6.0,"max_label": 11.0,"scalerank": 6,"area_km2": 81.13836,"hist_schema_id": "Elevation0-9000","hist_area_km2": {"0": 52.83437,"25": 7.26986,"50": 9.31209,"75": 5.59544,"100": 2.4302,"125": 2.12388,"150": 0.85774,"175": 0.51055,"200": 0.18381,"225": 0.02042}}}