{"type":"Feature","properties":{"featurecla":"Island","name":"Niue","namealt":null,"region":"Oceania","subregion":"Polynesia","min_label":5.4,"max_label":10.0,"scalerank":5},
"geometry":{"type": "Polygon","coordinates": [[[-169.82402693898365,-19.101250909380909,58.6843],[-169.80614363820234,-19.080743096880909,60.2356],[-169.79698836476484,-19.072686456255951,60.2195],[-169.78301131398365,-19.067681573443409,62.6525],[-169.79436385304615,-19.046075128130951,59.0956],[-169.82280623585868,-18.971490167193437,64.5423],[-169.82549178273359,-18.966729425005951,65.2263],[-169.8513096538274,-18.964043878130838,69.4877],[-169.8638828960149,-18.962823175005951,78.3734],[-169.89598738820237,-18.964043878130838,0.0],[-169.91619002492109,-19.001885675005909,6.0474],[-169.92192732960862,-19.005791925005909,0.0],[-169.92656600148368,-19.006280206255923,0.0],[-169.93041121632734,-19.007134698443423,0.0],[-169.93389022023365,-19.012383721880923,0.0],[-169.93450057179609,-19.019707940630909,0.0],[-169.93169295460865,-19.025445245318423,0.0],[-169.92815291554615,-19.03057219844348,0.0],[-169.92638289601484,-19.036309503130909,0.0],[-169.94786727101487,-19.068291925005937,0.0],[-169.95055281788987,-19.086114190630838,0.0],[-169.92638289601484,-19.093804620318394,76.2878],[-169.92418563038993,-19.098321221880838,18.8714],[-169.91954695851487,-19.114800714068409,0.0],[-169.9249180522649,-19.118096612505965,0.0],[-169.92815291554615,-19.12163665156848,0.0],[-169.9306553569524,-19.12517669063098,0.0],[-169.93389022023365,-19.128472589068451,0.0],[-169.92119490773365,-19.126763604693451,0.0],[-169.91008650929609,-19.127373956255894,45.1135],[-169.90215193898368,-19.131768487505909,72.8817],[-169.89910018117118,-19.141534112505937,0.0],[-169.88109481007734,-19.127862237505909,46.5225],[-169.87316023976493,-19.12468840938098,44.9824],[-169.8655918803899,-19.128472589068451,44.9046],[-169.82402693898365,-19.101250909380909,58.6843]]]}}