{"type":"Feature","properties":{"featurecla":"Island","name":"Ni‘ihau","namealt":null,"region":"Oceania","subregion":"Polynesia","min_label":5.4,"max_label":10.0,"scalerank":5},
"geometry":{"type": "Polygon","coordinates": [[[-160.19701277882734,21.798590399212827,1.2824],[-160.1911534038274,21.805914617962912,0.0],[-160.18614852101484,21.835638739056634,21.6357],[-160.1789463725774,21.849737860150469,3.1606],[-160.14513289601484,21.888617254681577,169.8814],[-160.13591658742115,21.891058660931549,183.3893],[-160.1170567241399,21.89160797733777,89.0417],[-160.10393416554609,21.894354559369106,240.1878],[-160.08428084523359,21.907599188275356,332.6621],[-160.07231795460865,21.912054754681662,0.0],[-160.07964217335862,21.93909332890027,0.0],[-160.0760410991399,21.964606024212912,19.6292],[-160.06389510304612,21.986151434369162,16.7184],[-160.04564559132743,22.00147125858777,0.0],[-160.0587071147649,22.015082098431606,0.0],[-160.09068953663984,22.017645574993992,0.0],[-160.10198104054615,22.013251043743992,0.0],[-160.11394393117109,22.00147125858777,0.0],[-160.13579451710859,21.972967840619134,0.0],[-160.14684188038984,21.961920477337884,0.0],[-160.1611241069524,21.952948309369134,0.0],[-160.16350447804615,21.9414126648378,0.0],[-160.19432723195234,21.933783270306549,0.0],[-160.23003279835862,21.885382391400356,0.0],[-160.24278914601484,21.857611395306492,0.0],[-160.24822127492109,21.829169012494134,0.0],[-160.24108016163984,21.806463934369134,8.5207],[-160.21636092335859,21.795965887494134,18.9467],[-160.20567977101484,21.795904852337827,23.0159],[-160.19701277882734,21.798590399212827,1.2824]]]}}