{"type": "Feature","bbox": [-163.2298496928899,-18.129205010943437,-163.11308943898362,-18.012383721880937],"geometry": {"type": "MultiPolygon","coordinates": [[[[-163.1714380951984,-18.129204057783227,0.0],[-163.11308943898362,-18.070855401568451,0.0],[-163.17143904835862,-18.012383721880937,0.0],[-163.2298496928899,-18.070855401568451,0.0],[-163.1714380951984,-18.129204057783227,0.0]]],
[[[-163.1714380951984,-18.129204057783227,0.0],[-163.17143904835862,-18.129205010943437,0.0],[-163.17143714101002,-18.129205010943437,0.0],[-163.1714380951984,-18.129204057783227,0.0]]]]}
,"properties": {"featurecla": "Island","name": "Palmerston","namealt": null,"region": "Oceania","subregion": "Polynesia","min_label": 6.0,"max_label": 11.0,"scalerank": 6,"area_km2": 80.16193,"hist_schema_id": "Elevation0-9000","hist_area_km2": {"0": 79.87975,"25": 0.28219}}}