{"type": "Feature","bbox": [-158.03386580617115,-9.0242245421934655,-157.91704451710868,-8.90740325313098],"geometry": {"type": "MultiPolygon","coordinates": [[[[-157.97539317382137,-9.024223587538188,0.0],[-157.91704451710868,-8.9657528625059655,0.0],[-157.97539412648365,-8.90740325313098,0.0],[-158.03386580617115,-8.9657528625059655,0.0],[-157.97539317382137,-9.024223587538188,0.0]]],
[[[-157.97539317382137,-9.024223587538188,0.0],[-157.97539412648365,-9.0242245421934655,0.0],[-157.97539221913496,-9.0242245421934655,0.0],[-157.97539317382137,-9.024223587538188,0.0]]]]}
,"properties": {"featurecla": "Island","name": "Penrhyn","namealt": null,"region": "Oceania","subregion": "Polynesia","min_label": 6.0,"max_label": 11.0,"scalerank": 6,"area_km2": 83.35372,"hist_schema_id": "Elevation0-9000","hist_area_km2": {"0": 83.31183,"25": 0.04189}}}