{"type":"Feature","properties":{"featurecla":"Island","name":"Pukapuka","namealt":null,"region":"Oceania","subregion":"Polynesia","min_label":6.0,"max_label":11.0,"scalerank":6},
"geometry":{"type": "MultiPolygon","coordinates": [[[[-165.8159693451984,-10.940605424970727,0.0],[-165.75762068898362,-10.882256768755965,0.0],[-165.81597029835859,-10.823785089068451,0.0],[-165.8743809428899,-10.882256768755965,0.0],[-165.8159693451984,-10.940605424970727,0.0]]],
[[[-165.8159693451984,-10.940605424970727,0.0],[-165.81597029835859,-10.940606378130951,0.0],[-165.81596839101002,-10.940606378130951,0.0],[-165.8159693451984,-10.940605424970727,0.0]]]]}}