{"type": "Feature","bbox": [-155.9697178569524,-5.6802304015684371,-155.8528965678899,-5.5635311828184646],"geometry": {"type": "MultiPolygon","coordinates": [[[[-155.91118419044281,-5.6802294489062319,0.0],[-155.8528965678899,-5.6218807921934513,0.0],[-155.91118514210859,-5.5635311828184646,0.0],[-155.9697178569524,-5.6218807921934513,0.0],[-155.91118419044281,-5.6802294489062319,0.0]]],
[[[-155.91118419044281,-5.6802294489062319,0.0],[-155.91118514210859,-5.6802304015684371,0.0],[-155.91118323476,-5.6802304015684371,0.0],[-155.91118419044281,-5.6802294489062319,0.0]]]]}
,"properties": {"featurecla": "Island","name": "Starbuck","namealt": null,"region": "Oceania","subregion": "Polynesia","min_label": 6.0,"max_label": 11.0,"scalerank": 6,"area_km2": 83.87339,"hist_schema_id": "Elevation0-9000","hist_area_km2": {"0": 83.87339}}}