{"type":"Feature","properties":{"featurecla":"Island","name":"Suwarrow","namealt":null,"region":"Oceania","subregion":"Polynesia","min_label":6.0,"max_label":11.0,"scalerank":6},
"geometry":{"type": "MultiPolygon","coordinates": [[[[-163.12572276466165,-13.474785112968618,0.0],[-163.06743514210865,-13.416436456255937,0.0],[-163.12572371632743,-13.357964776568338,0.0],[-163.18425643117115,-13.416436456255937,0.0],[-163.12572276466165,-13.474785112968618,0.0]]],
[[[-163.12572276466165,-13.474785112968618,0.0],[-163.12572371632743,-13.474786065630923,0.0],[-163.12572180897874,-13.474786065630923,0.0],[-163.12572276466165,-13.474785112968618,0.0]]]]}}