{"type": "Feature","bbox": [-138.50322425038502,-17.393975518755894,-138.38646399647874,-17.277154229693409],"geometry": {"type": "Polygon","coordinates": [[[-138.38646399647874,-17.335625909380909,0.0],[-138.44481360585371,-17.277154229693409,0.0],[-138.50322425038502,-17.335625909380909,0.0],[-138.44481360585371,-17.393975518755894,0.0],[-138.38646399647874,-17.335625909380909,0.0]]]}
,"properties": {"featurecla": "Island","name": "Tatakoto","namealt": null,"region": "Oceania","subregion": "Polynesia","min_label": 6.0,"max_label": 11.0,"scalerank": 6,"area_km2": 80.49095,"hist_schema_id": "Elevation0-9000","hist_area_km2": {"0": 80.45048,"25": 0.04047}}}