{"type": "Feature","bbox": [-140.70952307851002,-21.742730401568409,-140.59276282460371,-21.625909112505909],"geometry": {"type": "Polygon","coordinates": [[[-140.59276282460371,-21.684380792193423,2.0613],[-140.65099036366627,-21.625909112505909,0.0],[-140.70952307851002,-21.684380792193423,0.0],[-140.65099036366627,-21.742730401568409,0.0],[-140.59276282460371,-21.684380792193423,2.0613]]]}
,"properties": {"featurecla": "Island","name": "Tematagi","namealt": null,"region": "Oceania","subregion": "Polynesia","min_label": 6.0,"max_label": 11.0,"scalerank": 6,"area_km2": 78.33436,"hist_schema_id": "Elevation0-9000","hist_area_km2": {"0": 78.33436}}}