{"type":"Feature","properties":{"featurecla":"Island","name":"Tongatapu","namealt":null,"region":"Oceania","subregion":"Polynesia","min_label":5.4,"max_label":10.0,"scalerank":5},
"geometry":{"type": "Polygon","coordinates": [[[-175.31560408742109,-21.120171807818409,5.7315],[-175.32640731007737,-21.116021417193451,0.0],[-175.34099471242112,-21.101495050005923,7.324],[-175.33421981007737,-21.088433526568423,0.0],[-175.3183506694524,-21.07561614375598,0.0],[-175.30589949757737,-21.061333917193409,0.0],[-175.33232772023362,-21.070122979693423,16.3717],[-175.35546004445234,-21.088433526568423,0.0],[-175.36492049367109,-21.11272551875598,0.0],[-175.35063826710862,-21.139825128130909,0.0],[-175.32585799367115,-21.172539971880909,0.0],[-175.31645857960859,-21.177422784380937,0.0],[-175.3039463725774,-21.179497979693409,2.9038],[-175.28972518117115,-21.184747003130909,15.8533],[-175.26494490773365,-21.198540948443465,3.8608],[-175.25749861867115,-21.191094659380965,25.242],[-175.20983016163984,-21.213189385943352,0.0],[-175.1966465678899,-21.225274346880909,0.0],[-175.18059432179612,-21.253838800005951,0.0],[-175.1705235210149,-21.262139581255965,0.0],[-175.14885604054615,-21.266778253130923,19.7326],[-175.13799178273365,-21.265069268755852,65.1638],[-175.12663924367115,-21.261651300005951,65.3777],[-175.11772811085859,-21.25481536250598,61.5343],[-175.11412703663987,-21.242852471880852,40.8179],[-175.11601912648362,-21.232354425005937,37.5716],[-175.11943709523359,-21.221123956255951,28.2314],[-175.12108504445237,-21.210503839068423,23.8474],[-175.11754500538987,-21.201958917193451,19.1321],[-175.06059920460859,-21.162530206255923,24.9439],[-175.05205428273365,-21.153741143755909,21.4533],[-175.0510166850774,-21.138116143755923,23.3365],[-175.05473982960865,-21.130303643755923,3.2954],[-175.06566512257737,-21.12273528438098,0.0],[-175.07750594288987,-21.120293878130923,0.0],[-175.09093367726484,-21.121514581255909,5.3672],[-175.10381209523362,-21.125176690630951,4.8559],[-175.11412703663987,-21.129571221880951,5.7418],[-175.12859236867109,-21.142876885943409,0.0],[-175.13439070851493,-21.156670831255965,0.0],[-175.14025008351487,-21.16716887813098,0.0],[-175.15508162648365,-21.170586846880965,1.5495],[-175.16326033742115,-21.168145440630909,10.6766],[-175.18096053273359,-21.158868096880965,1.6007],[-175.1932285991399,-21.156914971880923,3.8465],[-175.20366561085862,-21.160455010943352,0.0],[-175.21367537648362,-21.16716887813098,2.1397],[-175.2237461772649,-21.171319268755937,0.0],[-175.23418318898362,-21.167535089068465,4.9887],[-175.23833357960865,-21.15715911250598,15.3193],[-175.23149764210859,-21.148980401568409,14.0597],[-175.21654402882737,-21.139825128130909,7.24],[-175.21904647023365,-21.12883880000598,2.5505],[-175.2253330913274,-21.122613214068451,0.0],[-175.2332676616399,-21.118096612505923,1.9502],[-175.24077498585862,-21.112603448443465,2.9625],[-175.24999129445234,-21.110162042193409,1.3795],[-175.30663191945234,-21.120415948443451,1.6001],[-175.31560408742109,-21.120171807818409,5.7315]]]}}