{"type":"Feature","properties":{"featurecla":"Island","name":"Tubuaï","namealt":null,"region":"Oceania","subregion":"Polynesia","min_label":6.0,"max_label":11.0,"scalerank":6},
"geometry":{"type": "MultiPolygon","coordinates": [[[[-149.49199473632137,-23.434257767225702,0.0],[-149.43364607960859,-23.37578704219348,0.0],[-149.49199568898365,-23.317437432818409,0.0],[-149.55046736867109,-23.37578704219348,0.0],[-149.49199473632137,-23.434257767225702,0.0]]],
[[[-149.49199473632137,-23.434257767225702,0.0],[-149.49199568898365,-23.434258721880994,0.0],[-149.491993781635,-23.434258721880994,0.0],[-149.49199473632137,-23.434257767225702,0.0]]]]}}