{"type":"Feature","properties":{"featurecla":"Island","name":"Tutuila","namealt":null,"region":"Oceania","subregion":"Polynesia","min_label":5.4,"max_label":10.0,"scalerank":5},
"geometry":{"type": "Polygon","coordinates": [[[-170.56743514210868,-14.257378839068352,104.7947],[-170.57640731007734,-14.251275323443352,129.4853],[-170.5911778178899,-14.263604425005965,62.0684],[-170.6202305522649,-14.253350518755909,0.0],[-170.66155135304615,-14.251275323443352,72.7105],[-170.69859969288987,-14.25933196406848,237.4581],[-170.72160994679615,-14.288018487505965,46.7485],[-170.7380284038274,-14.290826104693409,100.9293],[-170.77269637257734,-14.290215753130965,0.0],[-170.78874861867115,-14.293389581255894,99.3736],[-170.83135115773362,-14.31816985469348,112.3168],[-170.82292830617118,-14.325494073443451,148.978],[-170.79662215382734,-14.33867766719348,0.0],[-170.75566756398365,-14.365899346880923,78.5577],[-170.74883162648359,-14.373467706255965,0.0],[-170.72197615773362,-14.352349542193423,0.0],[-170.68376814992115,-14.301568292193465,0.0],[-170.65941512257737,-14.283990167193437,139.9773],[-170.64244734913987,-14.279595635943437,229.3383],[-170.58434188038984,-14.276543878130937,0.0],[-170.56865584523365,-14.26983001094348,2.6917],[-170.56743514210868,-14.257378839068352,104.7947]]]}}