{"type":"Feature","properties":{"featurecla":"Island","name":"Ua Pou","namealt":null,"region":"Oceania","subregion":"Polynesia","min_label":5.4,"max_label":10.0,"scalerank":5},
"geometry":{"type": "Polygon","coordinates": [[[-140.05406653554127,-9.345025323443366,0.0],[-140.07689368397877,-9.3223202453184513,0.0],[-140.1017960277288,-9.3251278625058944,0.0],[-140.12163245351005,-9.3390438781308944,0.0],[-140.13963782460377,-9.3567440734434513,0.0],[-140.15880286366627,-9.3706600890684371,0.0],[-140.11150061757252,-9.436578057818366,0.0],[-140.09300696522877,-9.4463436828184086,0.0],[-140.06309973866621,-9.43486907344338,496.3438],[-140.04912268788502,-9.4069149718809513,146.234],[-140.04082190663502,-9.3728573546934371,251.2967],[-140.02782141835374,-9.3427059875059228,0.0],[-140.0416153636663,-9.34990813594338,0.0],[-140.05406653554127,-9.345025323443366,0.0]]]}}