{"type": "Feature","bbox": [-172.06377303273359,-14.051568292193423,-171.43785750538993,-13.804253839068409],"geometry": {"type": "Polygon","coordinates": [[[-171.57012068898365,-13.936944268755852,98.4687],[-171.5659092632024,-13.930352471880923,192.5902],[-171.55925643117118,-13.924126885943394,394.773],[-171.55754744679609,-13.914117120318409,77.6652],[-171.56767928273359,-13.895684503130965,13.1305],[-171.58531844288984,-13.882622979693465,0.0],[-171.60704695851484,-13.875054620318437,2.317],[-171.65038191945237,-13.87004973750598,0.0],[-171.79247176320237,-13.815240167193423,0.0],[-171.83464705617115,-13.806329034380965,29.0392],[-171.88036238820243,-13.804253839068409,27.3288],[-171.96538436085862,-13.817315362505894,0.0],[-172.0441807475774,-13.84514739375598,4.4925],[-172.05571639210865,-13.860650323443352,18.3762],[-172.06377303273359,-13.883843682818451,5.6587],[-172.0611485210149,-13.904961846880909,0.0],[-172.0407627788274,-13.914117120318409,0.0],[-172.01811873585862,-13.91668059688098,0.0],[-172.00646102101484,-13.923760675005909,8.9174],[-171.98894393117115,-13.948296807818437,87.6424],[-171.98210799367115,-13.948296807818437,0.0],[-171.97258650929609,-13.94500090938098,0.0],[-171.96202742726487,-13.956963800005923,0.0],[-171.94115340382737,-13.989190362505923,0.0],[-171.92674910695237,-13.99993255000598,0.0],[-171.9112461772649,-14.00518157344348,0.0],[-171.89366805226487,-14.005791925005923,0.0],[-171.85417830617112,-14.000664971880951,0.0],[-171.83812606007734,-14.00212981563098,0.0],[-171.82237898976493,-14.007256768755965,7.4282],[-171.80461775929615,-14.01653411250598,0.0],[-171.78453719288984,-14.021050714068423,0.0],[-171.77464949757737,-14.025079034380951,2.047],[-171.77043807179612,-14.033623956255909,0.0],[-171.76824080617112,-14.042046807818437,2.746],[-171.76219832570243,-14.047539971880909,0.0],[-171.75347029835862,-14.050347589068451,0.0],[-171.74315535695234,-14.050713800005937,0.0],[-171.70024764210862,-14.037774346880965,0.0],[-171.68419539601484,-14.036431573443451,0.0],[-171.65251814992115,-14.04399993281848,1.8674],[-171.63591658742115,-14.044976495318423,0.0],[-171.6196202007024,-14.036431573443451,0.0],[-171.59892928273368,-14.04656340938098,0.0],[-171.57939803273359,-14.048394464068409,0.0],[-171.5371006694524,-14.044488214068409,11.8186],[-171.46629988820234,-14.051568292193423,0.0],[-171.44084822804612,-14.050713800005937,0.0],[-171.44542586476487,-14.040215753130923,49.8837],[-171.44835555226484,-14.036431573443451,95.5732],[-171.43785750538993,-14.004937432818437,67.9813],[-171.46947371632737,-13.968194268755909,9.9621],[-171.5196446147649,-13.943536065630951,208.5371],[-171.56438338429615,-13.948296807818437,363.4926],[-171.57012068898365,-13.936944268755852,98.4687]]]}
,"properties": {"featurecla": "Island","name": "Upolu","namealt": null,"region": "Oceania","subregion": "Polynesia","min_label": 5.4,"max_label": 10.0,"scalerank": 5,"area_km2": 1139.0338,"hist_schema_id": "Elevation0-9000","hist_area_km2": {"0": 90.2513,"25": 108.8974,"50": 84.95,"75": 62.3964,"100": 53.5681,"125": 49.2669,"150": 44.6354,"175": 42.9267,"200": 42.5556,"225": 43.358,"250": 43.2957,"275": 39.1801,"300": 36.1353,"325": 40.2092,"350": 40.8886,"375": 35.9706,"400": 28.2744,"425": 23.3152,"450": 20.4552,"475": 18.5826,"500": 16.4628,"525": 15.8045,"550": 14.9815,"575": 14.0349,"600": 13.0471,"625": 13.6029,"650": 12.821,"675": 11.7508,"700": 10.4747,"725": 9.4663,"750": 8.602,"775": 8.7459,"800": 6.9143,"825": 5.9471,"850": 5.3914,"875": 3.9098,"900": 3.4777,"925": 2.9014,"950": 2.1607,"975": 2.2224,"1000": 2.2635,"1025": 1.7697,"1050": 1.5433,"1075": 0.926,"1100": 0.3087,"1125": 0.3087,"1150": 0.0823}}}