{"type":"Feature","properties":{"featurecla":"Island","name":"Vostok","namealt":null,"region":"Oceania","subregion":"Polynesia","min_label":6.0,"max_label":11.0,"scalerank":6},
"geometry":{"type": "MultiPolygon","coordinates": [[[[-152.37816416991507,-10.154350542656005,0.0],[-152.3198155132024,-10.096001885943423,0.0],[-152.3781651225774,-10.037530206255909,0.0],[-152.4366368022649,-10.096001885943423,0.0],[-152.37816416991507,-10.154350542656005,0.0]]],
[[[-152.37816416991507,-10.154350542656005,0.0],[-152.3781651225774,-10.154351495318409,0.0],[-152.37816321522871,-10.154351495318409,0.0],[-152.37816416991507,-10.154350542656005,0.0]]]]}}