{"type":"Feature","properties":{"featurecla":"Island","name":"Île Futuna","namealt":null,"region":"Oceania","subregion":"Polynesia","min_label":6.0,"max_label":11.0,"scalerank":6},
"geometry":{"type": "MultiPolygon","coordinates": [[[[-178.1430567485391,-14.332573196414216,0.0],[-178.08476912648365,-14.274102471880965,0.0],[-178.14305770070234,-14.21575286250598,0.0],[-178.20152938038984,-14.274102471880965,0.0],[-178.1430567485391,-14.332573196414216,0.0]]],
[[[-178.1430567485391,-14.332573196414216,0.0],[-178.14305770070234,-14.33257415156848,0.0],[-178.14305579335377,-14.33257415156848,0.0],[-178.1430567485391,-14.332573196414216,0.0]]]]}}