{"type": "Feature","bbox": [-172.0667,-13.9748,-171.8813,-13.8036],"geometry": {"type": "MultiPolygon","coordinates": [[[[-171.9054,-13.9054,549.3707],[-171.9065,-13.8881,543.4133],[-171.9029,-13.846,207.1082],[-171.9106,-13.8356,141.1998],[-171.9137,-13.819,65.9771],[-171.9158,-13.8169,58.8409],[-171.9189,-13.8044,0.0],[-171.9217,-13.8036,0.8047],[-171.9342,-13.81,4.4723],[-171.9414,-13.8097,5.7277],[-171.9461,-13.8147,4.2351],[-171.9522,-13.815,3.2591],[-171.9639,-13.8247,7.4242],[-171.9719,-13.8283,2.3986],[-171.9821,-13.8274,0.0],[-172.0061,-13.8292,0.2362],[-172.0108,-13.8289,1.5724],[-172.0195,-13.8237,0.0],[-172.0225,-13.8253,1.0325],[-172.0294,-13.8256,0.0],[-172.0346,-13.8296,1.6237],[-172.025,-13.8503,64.5399],[-172.0207,-13.8567,113.0821],[-172.0174,-13.8574,122.7539],[-172.0109,-13.8709,218.0605],[-172.0188,-13.8757,186.2687],[-172.0168,-13.8797,170.7218],[-172.0214,-13.8855,125.3193],[-172.0216,-13.8884,107.6995],[-172.0245,-13.8896,77.1791],[-172.0289,-13.8868,61.828],[-172.032,-13.8932,59.4974],[-172.039,-13.8912,62.4492],[-172.0503,-13.8836,35.7573],[-172.0602,-13.894,6.8317],[-172.0652,-13.8898,8.5325],[-172.0667,-13.8925,2.2501],[-172.0533,-13.9039,0.0],[-172.045,-13.9072,0.0],[-172.0381,-13.9078,5.1377],[-172.0358,-13.9103,0.0],[-172.0278,-13.9136,0.4031],[-172.0175,-13.9128,5.8483],[-172.01,-13.9147,0.0],[-172.0047,-13.918,2.5431],[-172.0048,-13.9201,4.5425],[-172.0074,-13.9218,25.6131],[-172.0072,-13.9242,8.9174],[-172.0111,-13.9255,0.0],[-172.0111,-13.9275,0.0],[-172.0037,-13.9301,0.0],[-172.0036,-13.936,16.2384],[-171.9961,-13.935,1.661],[-171.9942,-13.9361,7.6648],[-171.9942,-13.9389,0.0],[-171.99,-13.9405,23.3258],[-171.9897,-13.9444,14.9424],[-171.9917,-13.9469,0.0],[-171.9886,-13.9519,0.0],[-171.9862,-13.9514,0.0],[-171.9848,-13.9529,2.1565],[-171.9794,-13.9472,18.7667],[-171.9758,-13.9462,6.6204],[-171.9783,-13.9433,0.0],[-171.9797,-13.9369,2.5137],[-171.9753,-13.9339,9.89],[-171.9731,-13.9344,3.7293],[-171.9692,-13.9406,0.9398],[-171.9614,-13.9478,4.3286],[-171.9594,-13.9594,2.7991],[-171.9581,-13.9631,0.832],[-171.9517,-13.9692,4.6775],[-171.9513,-13.9748,0.0],[-171.9398,-13.9716,24.6502],[-171.938,-13.968,22.5345],[-171.9305,-13.9646,46.0094],[-171.9271,-13.965,53.9233],[-171.924,-13.9682,44.591],[-171.9193,-13.9648,59.4469],[-171.914,-13.9547,137.4697],[-171.9029,-13.9478,217.7746],[-171.8813,-13.9305,427.7158],[-171.906,-13.9256,434.8929],[-171.903,-13.9153,515.708],[-171.9054,-13.9054,549.3707]]],
[[[-172.0591,-13.8681,20.7685],[-172.0577,-13.8759,27.7171],[-172.0507,-13.8837,35.7573],[-172.0493,-13.8769,41.8909],[-172.0534,-13.8719,37.3637],[-172.0472,-13.8645,55.5977],[-172.059,-13.8532,5.3253],[-172.0631,-13.8595,0.468],[-172.0605,-13.8619,3.0302],[-172.0591,-13.8681,20.7685]]]]}
,"properties": {"GID_1": "WSM.1_1","GID_0": "WSM","country": "Samoa","province": "A'ana","VARNAME_1": "Aana","NL_NAME_1": "NA","TYPE_1": "Itumalo","ENGTYPE_1": "District","CC_1": "NA","HASC_1": "WS.AA","ISO_1": "NA","name": "A'ana.province","area_km2": 194.0929,"hist_schema_id": "Elevation0-9000","hist_area_km2": {"0": 11.4651,"25": 19.9453,"50": 18.9772,"75": 12.6795,"100": 10.8682,"125": 10.826599999999999,"150": 10.0442,"175": 8.5827,"200": 7.8005,"225": 9.5089,"250": 8.4591,"275": 7.8623,"300": 8.4386,"325": 9.0972,"350": 10.6819,"375": 9.5088,"400": 6.7097,"425": 3.8487,"450": 2.9432,"475": 1.6671,"500": 1.6465,"525": 1.0291,"550": 0.7615,"575": 0.3293,"600": 0.2058,"625": 0.1441,"650": 0.0617}}}