{"type": "Feature","id": "4985","bbox": [-172.05561,-14.00701,-171.84407,-13.80535],"geometry": {"type": "MultiPolygon","coordinates": [[[[-172.01801,-13.86381,153.9891],[-172.02805,-13.84072,40.5942],[-172.04406,-13.84637,10.4056],[-172.05561,-13.86191,16.4335],[-172.03174,-13.87067,102.8793],[-172.01801,-13.86381,153.9891]]],
[[[-171.84407,-13.90729,641.1475],[-171.85323,-13.87296,391.9753],[-171.85789,-13.80635,17.6046],[-171.8802,-13.80535,34.2417],[-171.9652,-13.81854,0.0],[-171.99261,-13.82821,1.2783],[-171.97224,-13.87296,352.3851],[-172.04064,-13.91522,0.0],[-172.01802,-13.9179,0.0],[-172.0063,-13.92498,35.6092],[-171.98884,-13.9494,87.6424],[-171.982,-13.9494,0.0],[-171.9724,-13.94622,0.0],[-171.9619,-13.9581,0.0],[-171.94099,-13.99041,0.0],[-171.92663,-14.00115,0.0],[-171.91112,-14.00644,0.0],[-171.8935,-14.00701,0.0],[-171.87565,-14.00469,0.0],[-171.87154,-13.94162,364.4684],[-171.84793,-13.94375,292.1808],[-171.84407,-13.90729,641.1475]]]]}
,"properties": {"ISO3166-1-Alpha-3": "WSM","country": "Samoa","fill": "#F0F","name": "A'ana","area_km2": 293.512,"hist_schema_id": "Elevation0-9000","hist_area_km2": {"0": 18.1506,"25": 28.9346,"50": 27.7022,"75": 17.2486,"100": 14.6967,"125": 14.2435,"150": 12.2465,"175": 10.5174,"200": 9.7764,"225": 11.423,"250": 10.97,"275": 9.8792,"300": 10.2086,"325": 10.6408,"350": 11.9374,"375": 11.1759,"400": 8.8296,"425": 6.4008,"450": 6.0098,"475": 4.9189,"500": 4.7748,"525": 4.6307,"550": 4.5278,"575": 4.1779,"600": 3.8486,"625": 4.3632,"650": 4.4866,"675": 3.1077,"700": 1.4612,"725": 0.7821,"750": 0.5145,"775": 0.5145,"800": 0.247,"825": 0.1029,"850": 0.0617}}}