{"type":"Feature","properties":{"GID_2":"WSM.4.1_1","GID_0":"WSM","country":"Samoa","GID_1":"WSM.4_1","province":"Fa'asaleleaga","NL_NAME_1":"NA","county":"FaasaleleagaI","VARNAME_2":"NA","NL_NAME_2":"NA","TYPE_2":"Unknown","ENGTYPE_2":"Unknown","CC_2":"NA","HASC_2":"NA","name":"Faasaleleaga_I.county"},
"geometry":{"type": "MultiPolygon","coordinates": [[[[-172.3469,-13.6215,911.2972],[-172.3604,-13.6377,969.0004],[-172.3602,-13.6419,948.58],[-172.3153,-13.6681,777.558],[-172.3121,-13.6733,719.1002],[-172.2783,-13.6913,409.2467],[-172.2842,-13.7008,366.5731],[-172.2652,-13.7198,159.7828],[-172.2648,-13.7509,14.0665],[-172.2528,-13.7501,22.9442],[-172.2474,-13.7516,19.2337],[-172.2394,-13.7584,35.7059],[-172.2357,-13.7689,32.0258],[-172.2308,-13.7738,27.4815],[-172.2205,-13.7946,3.3022],[-172.2146,-13.7918,0.0],[-172.2129,-13.7877,1.3167],[-172.2141,-13.7835,7.6594],[-172.2115,-13.7775,10.2575],[-172.2135,-13.7645,0.0],[-172.2219,-13.751,5.2028],[-172.2172,-13.7448,0.0],[-172.2197,-13.7364,0.0],[-172.1959,-13.7215,1.0391],[-172.1969,-13.7159,0.0],[-172.203,-13.7126,1.2724],[-172.2007,-13.7097,0.0],[-172.203,-13.7054,0.0],[-172.1973,-13.7007,1.3919],[-172.2229,-13.6859,67.9998],[-172.2292,-13.6851,88.4702],[-172.2351,-13.6865,110.0703],[-172.2397,-13.6835,132.7482],[-172.2554,-13.6806,244.3968],[-172.3292,-13.6312,863.2338],[-172.3327,-13.6314,894.6245],[-172.3411,-13.6268,925.551],[-172.3469,-13.6215,911.2972]]]]}}