{"type": "Feature","bbox": [-171.606,-13.9804,-171.5075,-13.8733],"geometry": {"type": "MultiPolygon","coordinates": [[[[-171.5083,-13.9539,41.4341],[-171.508,-13.9508,0.0],[-171.5147,-13.9514,3.6172],[-171.5164,-13.9492,2.6893],[-171.5125,-13.9436,11.9725],[-171.5075,-13.9432,0.0],[-171.5076,-13.941,0.0],[-171.51,-13.94,0.0],[-171.5134,-13.9411,0.0],[-171.5144,-13.9391,5.3141],[-171.5194,-13.9397,26.6032],[-171.5237,-13.935,0.0],[-171.5228,-13.9297,12.464],[-171.5242,-13.9281,0.0],[-171.5272,-13.9281,5.5307],[-171.5314,-13.9333,4.6452],[-171.5401,-13.9379,0.0],[-171.5403,-13.9408,1.6399],[-171.5456,-13.9431,3.9812],[-171.5506,-13.9414,7.0793],[-171.563,-13.9431,24.279],[-171.5703,-13.9417,4.1369],[-171.5706,-13.9403,4.7465],[-171.5642,-13.9342,6.9145],[-171.5497,-13.9266,0.0],[-171.5375,-13.9131,0.1768],[-171.5535,-13.9237,272.361],[-171.5651,-13.9242,645.7175],[-171.5668,-13.9268,438.3199],[-171.5742,-13.9266,210.208],[-171.5724,-13.9348,293.8768],[-171.5838,-13.9419,140.6888],[-171.5835,-13.944,164.6214],[-171.5771,-13.9501,158.196],[-171.5756,-13.9547,338.7531],[-171.5638,-13.9534,492.5975],[-171.5609,-13.9559,554.869],[-171.5603,-13.9655,315.0],[-171.5371,-13.9804,338.8128],[-171.5142,-13.9804,335.1061],[-171.5122,-13.9714,451.2194],[-171.5133,-13.9711,540.3554],[-171.5083,-13.9539,41.4341]]],
[[[-171.5858,-13.8784,2.3848],[-171.5846,-13.8778,0.0],[-171.5936,-13.8733,0.9444],[-171.6021,-13.8914,57.4337],[-171.606,-13.9103,68.9673],[-171.5983,-13.9153,33.2135],[-171.5965,-13.8936,36.7067],[-171.5936,-13.8901,24.3562],[-171.5927,-13.8806,22.2015],[-171.5858,-13.8784,2.3848]]],
[[[-171.5863,-13.8846,0.0],[-171.5863,-13.8849,0.0],[-171.5862,-13.8841,1.1353],[-171.5863,-13.8844,1.1353],[-171.5863,-13.8846,0.0]]]]}
,"properties": {"GID_1": "WSM.10_1","GID_0": "WSM","country": "Samoa","province": "Va'a-o-Fonoti","VARNAME_1": "Vaa-o-Fonoti","NL_NAME_1": "NA","TYPE_1": "Itumalo","ENGTYPE_1": "District","CC_1": "NA","HASC_1": "WS.VF","ISO_1": "NA","name": "Va'a-o-Fonoti.province","area_km2": 32.14146,"hist_schema_id": "Elevation0-9000","hist_area_km2": {"0": 2.40771,"25": 2.51071,"50": 2.90173,"75": 1.64624,"100": 1.56389,"125": 1.07003,"150": 1.15231,"175": 0.84366,"200": 0.88481,"225": 0.69963,"250": 0.74076,"275": 0.90539,"300": 0.6996,"325": 3.29206,"350": 2.26329,"375": 1.23454,"400": 0.78189,"425": 0.84361,"450": 0.76131,"475": 0.8642,"500": 0.53498,"525": 0.76131,"550": 0.65844,"575": 0.65843,"600": 0.55556,"625": 0.32922,"650": 0.26749,"675": 0.18519,"700": 0.04115,"725": 0.0823}}}