{"type": "Feature","id": "4988","bbox": [-171.59918,-13.99197,-171.46935,-13.88388],"geometry": {"type": "MultiPolygon","coordinates": [[[[-171.57002,-13.93816,48.3787],[-171.56574,-13.93141,106.3947],[-171.55907,-13.92539,166.6769],[-171.58545,-13.92789,31.7503],[-171.59231,-13.96909,241.4841],[-171.55798,-13.98282,386.3042],[-171.51907,-13.97595,454.46],[-171.48474,-13.99197,274.8253],[-171.46935,-13.96941,9.9621],[-171.51948,-13.94476,164.0435],[-171.56428,-13.9494,363.4926],[-171.57002,-13.93816,48.3787]]],
[[[-171.56758,-13.89674,75.1818],[-171.58515,-13.88388,0.0],[-171.59918,-13.90729,36.5765],[-171.58774,-13.90958,29.7984],[-171.56758,-13.89674,75.1818]]]]}
,"properties": {"ISO3166-1-Alpha-3": "WSM","country": "Samoa","fill": "#FF0","name": "Va'a-o-Fonoti","area_km2": 51.52307,"hist_schema_id": "Elevation0-9000","hist_area_km2": {"0": 1.6052,"25": 2.30493,"50": 1.39932,"75": 1.52277,"100": 2.09882,"125": 1.60502,"150": 1.66671,"175": 1.27576,"200": 1.66672,"225": 1.66669,"250": 5.1234,"275": 3.84769,"300": 2.75716,"325": 6.00799,"350": 3.97106,"375": 2.83941,"400": 1.85178,"425": 1.6666,"450": 1.29628,"475": 1.00822,"500": 0.7613,"525": 0.76131,"550": 0.67901,"575": 0.67901,"600": 0.55556,"625": 0.32922,"650": 0.26749,"675": 0.18519,"700": 0.04115,"725": 0.0823}}}