{"type":"Feature","properties":{"GID_2":"WSM.3.2_1","GID_0":"WSM","country":"Samoa","GID_1":"WSM.3_1","province":"Atua","NL_NAME_1":"NA","county":"AleipataItupaiLuga","VARNAME_2":"NA","NL_NAME_2":"NA","TYPE_2":"Unknown","ENGTYPE_2":"Unknown","CC_2":"NA","HASC_2":"NA","name":"Aleipata_Itupai_Luga.county"},
"geometry":{"type": "MultiPolygon","coordinates": [[[[-171.4078,-14.072,0.0],[-171.4106,-14.0697,14.7621],[-171.4144,-14.0731,0.0],[-171.4058,-14.0772,0.0],[-171.4055,-14.0758,0.0],[-171.4079,-14.0746,1.2363],[-171.4078,-14.072,0.0]]],
[[[-171.4196,-14.0583,31.089],[-171.4276,-14.0583,3.7135],[-171.4293,-14.0634,43.8195],[-171.4214,-14.0703,0.0],[-171.4177,-14.0687,4.7487],[-171.4159,-14.0649,27.073],[-171.4193,-14.0633,14.2971],[-171.4197,-14.0614,5.4954],[-171.4175,-14.0597,4.1117],[-171.4196,-14.0583,31.089]]],
[[[-171.4669,-14.0204,415.8857],[-171.4668,-14.0168,399.1402],[-171.4927,-14.0126,376.0612],[-171.4921,-14.0408,0.0],[-171.4726,-14.0436,7.7685],[-171.4675,-14.0469,0.0],[-171.4644,-14.0449,0.0],[-171.4603,-14.0447,2.1588],[-171.4339,-14.0489,1.9644],[-171.4369,-14.0472,0.0],[-171.4375,-14.045,0.0],[-171.4322,-14.0322,2.8088],[-171.455,-14.0244,235.3299],[-171.4634,-14.0279,227.2011],[-171.4671,-14.0252,394.209],[-171.4669,-14.0204,415.8857]]]]}}