{"type": "Feature","bbox": [-172.7119,-13.6961,-172.5468,-13.5701],"geometry": {"type": "MultiPolygon","coordinates": [[[[-172.5468,-13.6277,1519.8251],[-172.5927,-13.6043,1189.9503],[-172.5993,-13.6053,1144.2411],[-172.668,-13.571,620.6155],[-172.6722,-13.5701,614.9691],[-172.6911,-13.5889,388.2408],[-172.7119,-13.6062,2.3106],[-172.7041,-13.614,1.3021],[-172.695,-13.617,7.1064],[-172.6925,-13.6211,0.0],[-172.6887,-13.6183,8.9462],[-172.6841,-13.62,68.5751],[-172.683,-13.6231,0.0],[-172.679,-13.6267,0.0],[-172.6796,-13.6334,0.7234],[-172.6729,-13.6373,44.1052],[-172.6674,-13.6484,0.0116],[-172.6635,-13.6497,8.6955],[-172.6617,-13.6521,7.6656],[-172.6582,-13.6516,6.1367],[-172.6538,-13.6569,20.3909],[-172.6482,-13.6598,0.0],[-172.6461,-13.6679,8.4178],[-172.6338,-13.6821,0.0],[-172.6333,-13.6852,1.7761],[-172.6268,-13.6885,3.3112],[-172.6254,-13.6922,0.0],[-172.6202,-13.6961,15.0635],[-172.5468,-13.6277,1519.8251]]]]}
,"properties": {"GID_2": "WSM.8.1_1","GID_0": "WSM","country": "Samoa","GID_1": "WSM.8_1","province": "Satupa'itea","NL_NAME_1": "NA","county": "Salega","VARNAME_2": "NA","NL_NAME_2": "NA","TYPE_2": "Unknown","ENGTYPE_2": "Unknown","CC_2": "NA","HASC_2": "NA","name": "Salega.county","area_km2": 113.86457,"hist_schema_id": "Elevation0-9000","hist_area_km2": {"0": 0.96839,"25": 2.20454,"50": 2.94615,"75": 2.82258,"100": 2.86387,"125": 2.80209,"150": 2.80213,"175": 2.59609,"200": 1.99859,"225": 1.93678,"250": 1.978,"275": 2.08104,"300": 1.89562,"325": 1.83381,"350": 2.03989,"375": 2.18411,"400": 2.06049,"425": 1.85447,"450": 1.9369,"475": 2.20477,"500": 2.32842,"525": 2.32846,"550": 2.01937,"575": 2.30789,"600": 2.63761,"625": 2.45216,"650": 2.47273,"675": 2.36976,"700": 2.26668,"725": 2.18423,"750": 1.91635,"775": 2.16365,"800": 2.26668,"825": 1.97818,"850": 2.16365,"875": 1.89574,"900": 1.95757,"925": 1.93697,"950": 1.89576,"975": 2.30789,"1000": 2.47275,"1025": 2.08121,"1050": 2.18427,"1075": 2.03997,"1100": 2.0606,"1125": 1.89574,"1150": 1.52482,"1175": 1.38056,"1200": 1.79269,"1225": 1.27754,"1250": 1.13329,"1275": 1.56603,"1300": 1.40118,"1325": 1.17452,"1350": 0.88604,"1375": 0.3709,"1400": 0.16484,"1425": 0.26787,"1450": 0.20605,"1475": 0.12363}}}