{"type": "Feature","bbox": [-170.6096,-14.273,-170.6,-14.2648],"geometry": {"type": "MultiPolygon","coordinates": [[[[-170.6,-14.2684,224.3161],[-170.604,-14.2648,190.985],[-170.6096,-14.2702,0.0],[-170.6058,-14.273,0.0],[-170.6,-14.2684,224.3161]]]]}
,"properties": {"GID_3": "ASM.1.3.5_1","GID_0": "ASM","country": "AmericanSamoa","GID_1": "ASM.1_1","state": "Eastern","NL_NAME_1": "NA","GID_2": "ASM.1.3_1","county": "Sa'Ole","NL_NAME_2": "NA","city": "Pagai","VARNAME_3": "NA","NL_NAME_3": "NA","TYPE_3": "Village","ENGTYPE_3": "Village","CC_3": "NA","HASC_3": "NA","name": "Pagai.city","area_km2": 0.4726061,"hist_schema_id": "Elevation0-9000","hist_area_km2": {"0": 0.1027397,"25": 0.0616442,"50": 0.0205479,"75": 0.0616443,"100": 0.0205479,"125": 0.0616447,"150": 0.0410961,"175": 0.0410967,"200": 0.0205482,"225": 0.0410963}}}