{"type":"Feature","properties":{"GID_1":"COK.10_1","GID_0":"COK","country":"CookIslands","province":"Rakahanga","VARNAME_1":"NA","NL_NAME_1":"NA","TYPE_1":"IslandCouncil","ENGTYPE_1":"IslandCouncil","CC_1":"NA","HASC_1":"NA","ISO_1":"NA","name":"Rakahanga.province"},
"geometry":{"type": "MultiPolygon","coordinates": [[[[-161.0828,-10.0228,1.3764],[-161.0814,-10.0206,11.1711],[-161.0842,-10.0186,0.0],[-161.0856,-10.0222,0.0],[-161.0828,-10.0228,1.3764]]],
[[[-161.0878,-9.9972,4.1129],[-161.0958,-9.9955,0.8039],[-161.0994,-10.0,0.3008],[-161.1031,-10.0225,0.0],[-161.0986,-10.0256,6.4721],[-161.1002,-10.0283,0.0],[-161.0989,-10.0297,8.4407],[-161.1028,-10.0306,1.8554],[-161.1043,-10.0348,0.0],[-161.0917,-10.0375,6.549],[-161.0855,-10.0333,6.5995],[-161.0828,-10.025,0.0],[-161.0852,-10.0233,1.5328],[-161.093,-10.0336,4.8305],[-161.0944,-10.0328,0.4242],[-161.0938,-10.0294,0.0],[-161.0979,-10.0294,5.9796],[-161.0972,-10.0272,0.0],[-161.0953,-10.0267,0.0],[-161.0972,-10.0249,3.2741],[-161.0974,-10.0221,0.0],[-161.0966,-10.0086,0.0],[-161.0939,-9.999,9.0204],[-161.08,-10.0051,7.3811],[-161.0836,-10.0153,0.0],[-161.0826,-10.0167,0.0],[-161.0796,-10.0158,2.1884],[-161.0768,-10.008,0.0],[-161.0803,-10.0,0.0],[-161.0878,-9.9972,4.1129]]]]}}