{"type": "Feature","bbox": [-170.7951,-14.3355,-170.7838,-14.3111],"geometry": {"type": "MultiPolygon","coordinates": [[[[-170.7875,-14.3281,132.6489],[-170.7838,-14.3144,382.9616],[-170.7904,-14.3111,387.4443],[-170.7951,-14.3336,11.4748],[-170.7901,-14.3355,0.0],[-170.7875,-14.3281,132.6489]]]]}
,"properties": {"GID_3": "ASM.4.1.3_1","GID_0": "ASM","country": "AmericanSamoa","GID_1": "ASM.4_1","state": "Western","NL_NAME_1": "NA","GID_2": "ASM.4.1_2","county": "Lealataua","NL_NAME_2": "NA","city": "Amaluia","VARNAME_3": "NA","NL_NAME_3": "NA","TYPE_3": "Village","ENGTYPE_3": "Village","CC_3": "NA","HASC_3": "NA","name": "Amaluia.city","area_km2": 1.766712,"hist_schema_id": "Elevation0-9000","hist_area_km2": {"0": 0.143795,"25": 0.082169,"50": 0.041085,"75": 0.08217,"100": 0.061628,"125": 0.123257,"150": 0.082171,"175": 0.061629,"200": 0.102716,"225": 0.205432,"250": 0.287608,"275": 0.082175,"300": 0.061631,"325": 0.061631,"350": 0.082176,"375": 0.143808,"400": 0.061632}}}