{"type":"Feature","properties":{"GID_2":"WSM.5.4_1","GID_0":"WSM","country":"Samoa","GID_1":"WSM.5_1","province":"Gaga'emauga","NL_NAME_1":"NA","county":"GagaemaugaIII","VARNAME_2":"NA","NL_NAME_2":"NA","TYPE_2":"Unknown","ENGTYPE_2":"Unknown","CC_2":"NA","HASC_2":"NA","name":"Gagaemauga_I_I_I.county"},
"geometry":{"type": "MultiPolygon","coordinates": [[[[-172.3399,-13.4457,0.0],[-172.3466,-13.442,0.5173],[-172.357,-13.4398,2.6778],[-172.3633,-13.449,2.612],[-172.3715,-13.4485,1.2413],[-172.3785,-13.475,145.0659],[-172.3831,-13.4742,146.0448],[-172.3884,-13.4808,187.535],[-172.39,-13.518,410.034],[-172.3896,-13.5816,963.415],[-172.3889,-13.5735,906.9927],[-172.3889,-13.5759,919.6248],[-172.3651,-13.5259,347.806],[-172.3567,-13.5119,206.1722],[-172.3422,-13.4592,34.7724],[-172.3399,-13.4457,0.0]]]]}}