{"type":"Feature","properties":{"GID_2":"ASM.2.4_1","GID_0":"ASM","country":"AmericanSamoa","GID_1":"ASM.2_1","state":"Manu'a","NL_NAME_1":"NA","county":"Olosega","VARNAME_2":"NA","NL_NAME_2":"NA","TYPE_2":"County","ENGTYPE_2":"County","CC_2":"NA","HASC_2":"AS.MA.OL","name":"Olosega.county"},
"geometry":{"type": "MultiPolygon","coordinates": [[[[-169.6083,-14.1745,0.0],[-169.6115,-14.1567,67.7363],[-169.6169,-14.1582,0.0],[-169.6202,-14.1632,13.8801],[-169.6285,-14.1695,71.1453],[-169.6161,-14.1889,8.0598],[-169.6123,-14.1913,0.0],[-169.6065,-14.1797,66.4769],[-169.6083,-14.1745,0.0]]]]}}