{"type":"Feature","properties":{"GID_2":"WSM.9.9_1","GID_0":"WSM","country":"Samoa","GID_1":"WSM.9_1","province":"Tuamasaga","NL_NAME_1":"NA","county":"VaimaugaWest","VARNAME_2":"NA","NL_NAME_2":"NA","TYPE_2":"Unknown","ENGTYPE_2":"Unknown","CC_2":"NA","HASC_2":"NA","name":"Vaimauga_West.county"},
"geometry":{"type": "MultiPolygon","coordinates": [[[[-171.7311,-13.9392,1137.7395],[-171.7242,-13.9373,1087.1379],[-171.7276,-13.9233,867.6912],[-171.7327,-13.9113,536.6143],[-171.7361,-13.9057,462.3563],[-171.7385,-13.9047,457.7607],[-171.7471,-13.8899,340.7568],[-171.7438,-13.8801,236.6514],[-171.746,-13.8718,122.9885],[-171.7402,-13.866,89.2743],[-171.741,-13.8619,69.9199],[-171.7393,-13.8531,37.3329],[-171.7437,-13.8464,25.9895],[-171.7405,-13.8414,3.42],[-171.7428,-13.8389,1.4624],[-171.7436,-13.8331,0.0],[-171.7481,-13.831,0.0],[-171.7489,-13.8286,1.3591],[-171.7542,-13.8286,2.7226],[-171.7579,-13.8247,3.9345],[-171.7624,-13.8239,0.0],[-171.7622,-13.8272,0.4735],[-171.76,-13.8297,2.1705],[-171.7619,-13.8328,1.7102],[-171.7636,-13.8325,1.3106],[-171.7664,-13.8275,0.0],[-171.7694,-13.8283,1.1836],[-171.7719,-13.8264,3.8262],[-171.7772,-13.8169,0.0],[-171.7808,-13.8147,2.1899],[-171.7822,-13.8167,0.0],[-171.7814,-13.8189,2.6201],[-171.7779,-13.8203,3.56],[-171.7779,-13.8226,4.5651],[-171.7748,-13.8241,3.5457],[-171.7748,-13.8276,4.5044],[-171.7762,-13.8278,1.2587],[-171.7738,-13.8316,6.7857],[-171.776,-13.8401,7.1866],[-171.7783,-13.8418,9.5173],[-171.7785,-13.8506,33.4881],[-171.7768,-13.8515,120.3184],[-171.779,-13.8567,180.0987],[-171.7796,-13.8737,341.0201],[-171.7813,-13.8762,318.1403],[-171.7916,-13.8762,209.0729],[-171.7906,-13.8907,412.7495],[-171.793,-13.8973,617.3055],[-171.7987,-13.8969,611.6389],[-171.7994,-13.9038,685.1973],[-171.8181,-13.8981,628.6716],[-171.8229,-13.9104,735.6152],[-171.8205,-13.9122,767.3962],[-171.8294,-13.9411,514.9839],[-171.7839,-13.9474,600.2058],[-171.7829,-13.9432,630.6027],[-171.7859,-13.9266,787.9698],[-171.7311,-13.9392,1137.7395]]],
[[[-171.7463,-13.8304,0.0],[-171.7451,-13.8292,0.0],[-171.7473,-13.8281,0.7284],[-171.7476,-13.8296,0.0],[-171.7463,-13.8304,0.0]]]]}}