{"type": "Feature","bbox": [-170.7999,-14.3336,-170.7904,-14.3111],"geometry": {"type": "MultiPolygon","coordinates": [[[[-170.7999,-14.3332,0.0],[-170.7951,-14.3336,11.4748],[-170.7904,-14.3111,387.4443],[-170.7966,-14.3136,367.4258],[-170.7999,-14.3332,0.0]]]]}
,"properties": {"GID_3": "ASM.4.1.5_1","GID_0": "ASM","country": "AmericanSamoa","GID_1": "ASM.4_1","state": "Western","NL_NAME_1": "NA","GID_2": "ASM.4.1_2","county": "Lealataua","NL_NAME_2": "NA","city": "Asili","VARNAME_3": "NA","NL_NAME_3": "NA","TYPE_3": "Village","ENGTYPE_3": "Village","CC_3": "NA","HASC_3": "NA","name": "Asili.city","area_km2": 1.355851,"hist_schema_id": "Elevation0-9000","hist_area_km2": {"0": 0.082169,"25": 0.16434,"50": 0.184885,"75": 0.041086,"100": 0.123256,"125": 0.082172,"150": 0.082173,"175": 0.06163,"200": 0.020544,"225": 0.102718,"250": 0.102718,"275": 0.061631,"300": 0.020544,"325": 0.041088,"350": 0.082176,"375": 0.10272}}}