{"type":"Feature","properties":{"GID_2":"TON.4.4_1","GID_0":"TON","country":"Tonga","GID_1":"TON.4_1","province":"Tongatapu","NL_NAME_1":"NA","county":"Lapaha","VARNAME_2":"NA","NL_NAME_2":"NA","TYPE_2":"District","ENGTYPE_2":"District","CC_2":"NA","HASC_2":"NA","name":"Lapaha.county"},
"geometry":{"type": "MultiPolygon","coordinates": [[[[-175.1184,-21.1857,12.1103],[-175.1039,-21.1857,16.9535],[-175.0899,-21.1949,0.0],[-175.0844,-21.1872,0.0],[-175.0825,-21.1793,11.6052],[-175.0789,-21.1756,10.0209],[-175.0711,-21.1728,4.6977],[-175.0682,-21.1684,0.0],[-175.055,-21.1678,1.666],[-175.0389,-21.1611,6.442],[-175.0305,-21.1511,0.0],[-175.0312,-21.1475,0.0],[-175.0503,-21.1317,5.5394],[-175.09,-21.1203,2.6154],[-175.0989,-21.1203,0.0],[-175.114,-21.1275,0.0],[-175.1222,-21.1292,0.0],[-175.1225,-21.1428,0.0],[-175.1297,-21.1561,3.5419],[-175.1252,-21.1582,0.0],[-175.1222,-21.1539,2.4975],[-175.1206,-21.155,2.7751],[-175.1206,-21.1603,3.1791],[-175.1158,-21.1644,1.0071],[-175.1142,-21.1717,0.0],[-175.1183,-21.1739,1.4889],[-175.1248,-21.1809,0.9219],[-175.1289,-21.1814,1.8678],[-175.1184,-21.1857,12.1103]]],
[[[-175.0547,-21.0908,0.0],[-175.0586,-21.0903,2.905],[-175.0606,-21.0922,0.0],[-175.0556,-21.0933,0.0],[-175.0536,-21.0922,4.4872],[-175.0547,-21.0908,0.0]]],
[[[-175.0992,-21.0922,0.8585],[-175.0972,-21.0925,2.6968],[-175.0956,-21.0917,0.9676],[-175.0981,-21.0908,0.0],[-175.0992,-21.0922,0.8585]]],
[[[-175.1078,-21.0847,0.8652],[-175.1158,-21.0853,1.4197],[-175.1164,-21.0883,0.7955],[-175.1089,-21.0864,0.0],[-175.1078,-21.0847,0.8652]]],
[[[-174.9743,-21.1127,0.0],[-174.9758,-21.1112,0.0],[-174.9816,-21.1116,0.0],[-174.9859,-21.1147,0.0],[-174.9851,-21.1193,4.7091],[-174.9811,-21.1247,0.0],[-174.9786,-21.1244,1.439],[-174.9756,-21.1212,4.3673],[-174.9736,-21.1157,0.7181],[-174.9743,-21.1127,0.0]]],
[[[-175.0314,-21.0953,2.2311],[-175.0283,-21.0939,0.0],[-175.0294,-21.0903,1.2981],[-175.035,-21.0928,0.0],[-175.0314,-21.0953,2.2311]]],
[[[-175.0233,-21.0892,5.6047],[-175.0208,-21.0886,3.2445],[-175.0219,-21.0864,2.0695],[-175.0242,-21.0875,4.4396],[-175.0233,-21.0892,5.6047]]],
[[[-175.0,-21.0536,4.4753],[-175.0025,-21.0531,2.7623],[-175.0056,-21.0567,2.2742],[-175.0025,-21.0592,1.4661],[-175.0,-21.0583,1.5479],[-174.999,-21.056,0.0],[-175.0,-21.0536,4.4753]]]]}}