{"type": "Feature","bbox": [-170.6904,-14.2717,-170.5627,-14.241],"geometry": {"type": "MultiPolygon","coordinates": [[[[-170.574,-14.2475,0.0],[-170.5787,-14.2478,9.2019],[-170.5833,-14.2508,0.0],[-170.5862,-14.2554,11.5892],[-170.5867,-14.2612,0.0],[-170.5933,-14.2586,42.9045],[-170.5958,-14.2717,191.2401],[-170.5863,-14.2682,103.7211],[-170.5786,-14.2627,299.0455],[-170.5732,-14.268,79.3082],[-170.5675,-14.2693,17.9898],[-170.5627,-14.2627,0.4935],[-170.5642,-14.2501,6.6142],[-170.563,-14.246,8.8955],[-170.5682,-14.2478,0.0],[-170.574,-14.2475,0.0]]],
[[[-170.6779,-14.2631,266.6913],[-170.6699,-14.2652,361.2673],[-170.6588,-14.2624,381.4632],[-170.6521,-14.2556,0.0],[-170.6535,-14.2502,22.5309],[-170.6588,-14.2504,0.0],[-170.6622,-14.2467,9.9735],[-170.6735,-14.2502,0.0],[-170.6724,-14.241,72.2165],[-170.6826,-14.2443,0.0],[-170.6904,-14.252,0.0],[-170.687,-14.2647,429.2059],[-170.6779,-14.2631,266.6913]]]]}
,"properties": {"GID_2": "ASM.1.5_1","GID_0": "ASM","country": "AmericanSamoa","GID_1": "ASM.1_1","state": "Eastern","NL_NAME_1": "NA","county": "Vaifanua","VARNAME_2": "NA","NL_NAME_2": "NA","TYPE_2": "County","ENGTYPE_2": "County","CC_2": "NA","HASC_2": "AS.ET.VA","name": "Vaifanua.county","area_km2": 12.884369,"hist_schema_id": "Elevation0-9000","hist_area_km2": {"0": 2.013851,"25": 1.068566,"50": 1.253513,"75": 1.253506,"100": 1.150761,"125": 1.171302,"150": 0.883617,"175": 0.657575,"200": 0.47263,"225": 0.328789,"250": 0.390432,"275": 0.308237,"300": 0.390431,"325": 0.431527,"350": 0.369878,"375": 0.308231,"400": 0.226036,"425": 0.184938,"450": 0.020549}}}