{"type": "Feature","bbox": [-172.5206,-8.5864,-172.4644,-8.5322],"geometry": {"type": "MultiPolygon","coordinates": [[[[-172.4942,-8.5806,0.0],[-172.4922,-8.5792,1.6657],[-172.4931,-8.5778,0.0],[-172.5014,-8.5806,0.0],[-172.5053,-8.5847,2.9292],[-172.5058,-8.5814,7.9198],[-172.5089,-8.5842,0.0],[-172.5053,-8.5864,0.0],[-172.4942,-8.5806,0.0]]],
[[[-172.5094,-8.5719,3.4865],[-172.5083,-8.5742,1.5404],[-172.5067,-8.5733,0.5813],[-172.5083,-8.5708,0.3195],[-172.5094,-8.5719,3.4865]]],
[[[-172.5103,-8.5683,0.3764],[-172.5094,-8.5694,7.9559],[-172.5083,-8.5689,7.9559],[-172.5092,-8.5672,0.8933],[-172.5103,-8.5683,0.3764]]],
[[[-172.5106,-8.5328,0.0],[-172.5181,-8.5325,0.0],[-172.5206,-8.5342,0.0],[-172.5205,-8.5381,0.0],[-172.5167,-8.5433,0.0],[-172.5147,-8.5417,0.9683],[-172.5169,-8.5356,0.0],[-172.515,-8.5347,0.0],[-172.5081,-8.5367,0.0],[-172.5053,-8.5339,0.0],[-172.5075,-8.5322,0.0],[-172.5106,-8.5328,0.0]]],
[[[-172.4881,-8.5756,0.0],[-172.49,-8.5758,2.7972],[-172.4903,-8.5783,0.6945],[-172.4869,-8.5769,0.5642],[-172.4881,-8.5756,0.0]]],
[[[-172.4767,-8.5758,1.2801],[-172.4767,-8.5719,0.0761],[-172.4803,-8.5746,1.9242],[-172.4867,-8.5756,2.0855],[-172.4859,-8.5772,0.5642],[-172.4767,-8.5758,1.2801]]],
[[[-172.491,-8.536,0.0],[-172.4925,-8.5336,1.6299],[-172.4967,-8.5331,13.5855],[-172.5028,-8.5386,2.3615],[-172.495,-8.5356,4.4912],[-172.4889,-8.5442,1.1683],[-172.4869,-8.5436,7.6506],[-172.4872,-8.5461,7.1101],[-172.4758,-8.5564,0.0],[-172.4711,-8.5592,3.7817],[-172.4689,-8.5586,2.6333],[-172.4697,-8.5681,2.82],[-172.468,-8.5725,1.7529],[-172.4728,-8.5726,3.2035],[-172.4736,-8.5703,0.7195],[-172.4761,-8.5714,0.0761],[-172.4719,-8.5758,7.6199],[-172.4661,-8.5756,6.6908],[-172.4644,-8.5735,0.0],[-172.4664,-8.5642,0.0],[-172.465,-8.5575,3.6355],[-172.4811,-8.5481,5.3458],[-172.491,-8.536,0.0]]]]}
,"properties": {"GID_1": "TKL.1_1","GID_0": "TKL","country": "Tokelau","province": "Anafu","VARNAME_1": "NA","NL_NAME_1": "NA","TYPE_1": "Atoll","ENGTYPE_1": "Atoll","CC_1": "NA","HASC_1": "TK.AT","ISO_1": "NA","name": "Anafu.province","area_km2": 4.381941,"hist_schema_id": "Elevation0-9000","hist_area_km2": {"0": 3.396529,"25": 0.985412}}}