{"type":"Feature","properties":{"GID_2":"WSM.6.3_1","GID_0":"WSM","country":"Samoa","GID_1":"WSM.6_1","province":"Gagaifomauga","NL_NAME_1":"NA","county":"GagaifomaugaIII","VARNAME_2":"NA","NL_NAME_2":"NA","TYPE_2":"Unknown","ENGTYPE_2":"Unknown","CC_2":"NA","HASC_2":"NA","name":"Gagaifomauga_I_I_I.county"},
"geometry":{"type": "MultiPolygon","coordinates": [[[[-172.4383,-13.4683,6.752],[-172.4448,-13.4678,0.0],[-172.4485,-13.4691,1.2048],[-172.4542,-13.4662,0.0],[-172.4641,-13.4682,10.2596],[-172.4749,-13.4617,7.2792],[-172.482,-13.4615,2.1001],[-172.4878,-13.4671,0.0],[-172.4941,-13.4679,0.0],[-172.4991,-13.4721,2.3175],[-172.5065,-13.4729,0.0],[-172.5135,-13.4772,3.7792],[-172.5242,-13.4754,0.0],[-172.529,-13.4729,0.0],[-172.5439,-13.4752,1.6922],[-172.5533,-13.4811,0.0],[-172.5629,-13.4823,0.0],[-172.5783,-13.4885,0.0],[-172.5864,-13.4957,2.2466],[-172.5864,-13.5366,140.4196],[-172.5757,-13.5425,210.7634],[-172.5697,-13.5378,158.4006],[-172.5543,-13.5366,201.5284],[-172.5459,-13.5616,585.4744],[-172.5402,-13.6306,1542.0793],[-172.4871,-13.6315,1676.1079],[-172.4617,-13.6206,1744.1089],[-172.4525,-13.6177,1649.1713],[-172.4421,-13.6166,1649.8564],[-172.4403,-13.4748,45.6313],[-172.4383,-13.4683,6.752]]]]}}