{"type":"Feature","properties":{"GID_2":"WSM.7.1_1","GID_0":"WSM","country":"Samoa","GID_1":"WSM.7_1","province":"Palauli","NL_NAME_1":"NA","county":"PalauliEast","VARNAME_2":"NA","NL_NAME_2":"NA","TYPE_2":"Unknown","ENGTYPE_2":"Unknown","CC_2":"NA","HASC_2":"NA","name":"Palauli_East.county"},
"geometry":{"type": "MultiPolygon","coordinates": [[[[-172.3229,-13.6637,810.9427],[-172.3235,-13.7281,204.8659],[-172.3206,-13.7601,2.4952],[-172.3172,-13.7602,0.0],[-172.3092,-13.7556,0.7509],[-172.3001,-13.7603,0.0],[-172.2893,-13.7592,6.5183],[-172.2896,-13.7628,9.2908],[-172.2859,-13.767,0.9366],[-172.2859,-13.7694,0.0],[-172.2883,-13.7705,0.0],[-172.2877,-13.7724,2.415],[-172.2845,-13.7744,3.6276],[-172.2826,-13.7788,2.358],[-172.2784,-13.7814,1.9069],[-172.2725,-13.7897,0.0],[-172.2719,-13.7945,0.0],[-172.267,-13.7976,8.787],[-172.2645,-13.7439,34.0107],[-172.2656,-13.7438,36.1996],[-172.2652,-13.7198,159.7828],[-172.2842,-13.7008,366.5731],[-172.2783,-13.6913,409.2467],[-172.3121,-13.6733,719.1002],[-172.3153,-13.6681,777.558],[-172.3229,-13.6637,810.9427]]]]}}