{"type": "Feature","bbox": [-170.6452,-14.284,-170.6359,-14.269],"geometry": {"type": "MultiPolygon","coordinates": [[[[-170.6394,-14.2717,309.0547],[-170.6452,-14.269,201.2851],[-170.6447,-14.2739,240.2184],[-170.6396,-14.284,20.8417],[-170.6359,-14.2792,44.374],[-170.6394,-14.2717,309.0547]]]]}
,"properties": {"GID_3": "ASM.1.4.2_1","GID_0": "ASM","country": "AmericanSamoa","GID_1": "ASM.1_1","state": "Eastern","NL_NAME_1": "NA","GID_2": "ASM.1.4_1","county": "Sua","NL_NAME_2": "NA","city": "Alega","VARNAME_3": "NA","NL_NAME_3": "NA","TYPE_3": "Village","ENGTYPE_3": "Village","CC_3": "NA","HASC_3": "NA","name": "Alega.city","area_km2": 0.8013519,"hist_schema_id": "Elevation0-9000","hist_area_km2": {"0": 0.0821882,"25": 0.0410944,"50": 0.0205469,"75": 0.1027359,"100": 0.0205473,"150": 0.0410948,"175": 0.0205473,"200": 0.0205475,"225": 0.041095,"250": 0.2054768,"275": 0.1232867,"300": 0.0616431,"325": 0.0205479}}}