{"type":"Feature","properties":{"GID_2":"ASM.1.3_1","GID_0":"ASM","country":"AmericanSamoa","GID_1":"ASM.1_1","state":"Eastern","NL_NAME_1":"NA","county":"Sa'Ole","VARNAME_2":"NA","NL_NAME_2":"NA","TYPE_2":"County","ENGTYPE_2":"County","CC_2":"NA","HASC_2":"AS.ET.SA","name":"Sa'Ole.county"},
"geometry":{"type": "MultiPolygon","coordinates": [[[[-170.5472,-14.2877,12.0759],[-170.5467,-14.2815,13.9874],[-170.553,-14.2786,2.8845],[-170.5586,-14.2796,4.9979],[-170.5614,-14.2833,0.0],[-170.5601,-14.2874,0.8604],[-170.554,-14.2892,0.0],[-170.5472,-14.2877,12.0759]]],
[[[-170.5775,-14.2743,0.0],[-170.5675,-14.2693,17.9898],[-170.5732,-14.268,79.3082],[-170.5786,-14.2627,299.0455],[-170.5863,-14.2682,103.7211],[-170.5958,-14.2717,191.2401],[-170.604,-14.2648,190.985],[-170.6096,-14.2702,0.0],[-170.6058,-14.273,0.0],[-170.6056,-14.2795,0.0],[-170.602,-14.2841,8.0876],[-170.59,-14.2788,32.0203],[-170.586,-14.2754,0.0],[-170.5775,-14.2743,0.0]]]]}}