{"type":"Feature","properties":{"ISO3166-1-Alpha-3":"KIR","country":"Kiribati","id":"99?","name":null},
"geometry":{"type": "MultiPolygon","coordinates": [[[[-150.23123,-10.00758,1.3581],[-150.23559,-10.00123,0.0],[-150.24177,-10.00034,0.0],[-150.24283,-10.00555,0.0],[-150.23615,-10.00986,0.0],[-150.23123,-10.00758,1.3581]]],
[[[-150.20641,-9.95534,0.0],[-150.20755,-9.93214,4.6089],[-150.20779,-9.93182,4.6089],[-150.20816,-9.96006,0.0],[-150.20641,-9.95534,0.0]]],
[[[-150.21154,-9.9192,0.0],[-150.21601,-9.91497,0.0],[-150.21268,-9.92311,0.0],[-150.20853,-9.92726,0.0],[-150.21154,-9.9192,0.0]]],
[[[-155.90681,-5.61199,0.0],[-155.91499,-5.60906,0.0],[-155.9239,-5.60809,0.0],[-155.93346,-5.60914,0.0],[-155.92247,-5.62998,3.3638],[-155.90644,-5.63535,5.0957],[-155.86799,-5.6303,4.8131],[-155.85981,-5.6251,6.844],[-155.86506,-5.61517,0.0],[-155.87963,-5.60947,0.0],[-155.89932,-5.61679,0.0],[-155.90681,-5.61199,0.0]]],
[[[-174.50068,-4.69427,0.0],[-174.50642,-4.68914,3.3838],[-174.51671,-4.68426,4.1275],[-174.52156,-4.68385,0.0],[-174.51216,-4.69199,0.0],[-174.50154,-4.69736,0.0],[-174.50068,-4.69427,0.0]]],
[[[-174.5279,-4.68353,0.0],[-174.52929,-4.68271,5.1276],[-174.53588,-4.6775,19.8672],[-174.54011,-4.67205,17.3706],[-174.54174,-4.67278,4.7266],[-174.53388,-4.68076,2.9294],[-174.52766,-4.68385,0.0],[-174.5279,-4.68353,0.0]]],
[[[-174.50154,-4.68768,0.0],[-174.5244,-4.66448,1.7044],[-174.5384,-4.65651,9.8369],[-174.54341,-4.66025,0.0],[-174.53808,-4.66522,12.2898],[-174.52827,-4.66741,3.527],[-174.51399,-4.6762,0.0],[-174.50084,-4.69109,1.2076],[-174.50154,-4.68768,0.0]]],
[[[-171.23652,-4.46852,0.0],[-171.23005,-4.46054,2.6403],[-171.23388,-4.44899,0.0],[-171.24498,-4.44134,3.8701],[-171.25992,-4.44411,0.0],[-171.25996,-4.44411,0.0],[-171.26403,-4.45631,0.0],[-171.25963,-4.46526,0.0],[-171.24958,-4.46982,0.0],[-171.23652,-4.46852,0.0]]],
[[[-171.08727,-3.14316,1.2678],[-171.08312,-3.12998,0.1412],[-171.08544,-3.11126,0.5327],[-171.09004,-3.12086,1.6199],[-171.09358,-3.13144,0.0],[-171.09248,-3.14544,0.0],[-171.08727,-3.14316,1.2678]]]]}}