{"type":"Feature","properties":{"ISO3166-1-Alpha-3":"KIR","country":"Kiribati","id":null,"name":"Kiribati"},
"geometry":{"type": "MultiPolygon","coordinates": [[[[-151.78095,-11.45469,0.0],[-151.78449,-11.42938,0.0],[-151.79792,-11.40146,0.0],[-151.80773,-11.38592,0.0],[-151.81892,-11.39967,0.0],[-151.81953,-11.42099,5.7264],[-151.81249,-11.44354,6.8497],[-151.80089,-11.46111,0.0],[-151.78095,-11.45469,0.0]]],
[[[-172.21471,-4.51735,0.0],[-172.22277,-4.50628,0.0],[-172.20686,-4.50107,0.0],[-172.20104,-4.5001,0.0],[-172.20161,-4.49627,0.0],[-172.20047,-4.49342,0.0],[-172.2296,-4.49733,0.0],[-172.22716,-4.51873,0.0],[-172.20344,-4.53216,0.0],[-172.17439,-4.51312,0.0],[-172.18769,-4.51849,0.0],[-172.20202,-4.52068,0.0],[-172.21471,-4.51735,0.0]]],
[[[-154.95336,-4.09482,0.0],[-154.95922,-4.08318,0.0],[-154.95857,-4.07122,0.0],[-154.9536,-4.06072,0.0],[-154.9466,-4.05316,0.0],[-154.9403,-4.032,2.7642],[-154.96227,-4.03216,0.0],[-155.01171,-4.04705,0.0],[-155.01842,-4.0512,0.0],[-155.01081,-4.06064,0.0],[-154.99848,-4.07,0.0],[-154.99092,-4.07431,0.0],[-154.97753,-4.07871,0.0],[-154.96479,-4.09498,0.0],[-154.95336,-4.09482,0.0]]],
[[[-171.71508,-2.75905,0.0],[-171.72277,-2.7658,0.0],[-171.72761,-2.77191,0.0],[-171.72785,-2.77842,0.0],[-171.72191,-2.78631,1.6869],[-171.71459,-2.77288,0.0],[-171.69746,-2.77532,0.0],[-171.6787,-2.78493,0.0],[-171.6667,-2.79315,0.0],[-171.66666,-2.79315,0.0],[-171.65388,-2.80592,0.0],[-171.62731,-2.8519,0.0],[-171.62694,-2.85573,0.0],[-171.62849,-2.85703,0.0],[-171.62975,-2.8576,0.0],[-171.63081,-2.85858,0.0],[-171.63313,-2.86207,1.1261],[-171.63325,-2.86207,1.1261],[-171.6516,-2.84458,1.9704],[-171.65282,-2.84319,0.0],[-171.65807,-2.83856,1.0514],[-171.66401,-2.83538,0.0],[-171.69319,-2.8283,0.0],[-171.71272,-2.8222,1.5927],[-171.71211,-2.82301,0.0],[-171.70788,-2.82513,2.1341],[-171.67781,-2.83318,0.4512],[-171.67414,-2.83416,1.4745],[-171.6601,-2.84051,0.0],[-171.64843,-2.84979,0.0],[-171.63935,-2.86207,0.0],[-171.62572,-2.86891,0.0],[-171.62446,-2.85613,0.0],[-171.62568,-2.84718,0.0],[-171.62963,-2.82724,1.7774],[-171.64985,-2.7973,0.0],[-171.68029,-2.77581,0.0],[-171.71508,-2.75905,0.0]]],
[[[-157.42382,2.02045,5.5122],[-157.4746,2.03335,8.131],[-157.49629,2.03441,2.7766],[-157.50939,2.0246,0.0],[-157.50841,2.01069,0.0],[-157.49889,2.00218,0.0],[-157.4879,2.00056,0.0],[-157.48266,2.00723,2.938],[-157.47753,2.01813,0.0],[-157.4663,2.01333,0.0],[-157.45539,2.003,0.0],[-157.45104,1.9973,2.7174],[-157.4453,1.99437,0.4045],[-157.40888,1.96931,0.0],[-157.37963,1.95572,0.8748],[-157.36168,1.95148,0.0],[-157.35505,1.94766,0.0],[-157.35237,1.93895,0.0],[-157.35412,1.93183,0.6008],[-157.35847,1.9239,1.1022],[-157.36384,1.91739,0.8011],[-157.37397,1.91136,1.1934],[-157.37719,1.90526,1.3854],[-157.38207,1.90217,1.1451],[-157.39208,1.90795,0.3246],[-157.39586,1.91698,0.0],[-157.39399,1.92674,0.0],[-157.39472,1.93574,0.5557],[-157.40632,1.94269,0.0],[-157.40315,1.92422,0.0],[-157.40831,1.92145,0.0],[-157.41999,1.92902,0.2059],[-157.42439,1.92121,0.0],[-157.42638,1.91205,0.0],[-157.42443,1.90184,0.0],[-157.41002,1.87938,0.0],[-157.40795,1.86616,-0.5],[-157.41198,1.85847,-0.5856],[-157.4237,1.86323,0.5796],[-157.43,1.87279,0.0],[-157.43248,1.88373,0.0],[-157.43659,1.89387,0.0],[-157.44734,1.90111,0.0],[-157.44579,1.88373,0.0],[-157.45165,1.87641,0.0],[-157.46235,1.87629,0.0],[-157.47521,1.8806,0.0],[-157.46809,1.86835,3.3873],[-157.45861,1.86213,0.0],[-157.44795,1.85749,0.0],[-157.43737,1.85017,1.0758],[-157.42854,1.83857,0.0],[-157.43468,1.83853,0.0],[-157.45478,1.84707,0.0],[-157.47883,1.84797,1.2223],[-157.49067,1.85017,0.0],[-157.49572,1.85668,1.7701],[-157.50093,1.86587,4.3111],[-157.51305,1.8666,3.4904],[-157.52693,1.86481,6.3717],[-157.5373,1.86636,2.3457],[-157.54951,1.88447,4.3045],[-157.54536,1.90233,0.0],[-157.53283,1.91608,0.0],[-157.51989,1.92158,0.0],[-157.51757,1.92365,0.0],[-157.52123,1.92768,0.0],[-157.53014,1.93057,0.0],[-157.54353,1.92902,0.0],[-157.57234,1.91279,0.0],[-157.57824,1.90795,0.0],[-157.58117,1.88032,0.0],[-157.56603,1.86376,0.0],[-157.54682,1.85643,3.7552],[-157.5373,1.85668,5.703],[-157.52827,1.86249,6.2971],[-157.50862,1.8496,0.0],[-157.48266,1.82538,0.0],[-157.44896,1.80024,2.6347],[-157.41059,1.78193,1.1137],[-157.30927,1.7519,0.0],[-157.28685,1.75023,0.8721],[-157.28156,1.74706,0.5524],[-157.27119,1.73298,1.2159],[-157.26085,1.72687,2.8283],[-157.25463,1.72028,2.2092],[-157.24641,1.71332,2.8954],[-157.23506,1.7093,0.6157],[-157.22411,1.7097,1.8933],[-157.21325,1.7128,0.2978],[-157.20307,1.71747,-1.0],[-157.19408,1.72297,-1.0],[-157.17878,1.71849,1.1193],[-157.17463,1.73379,1.652],[-157.17939,1.75389,1.8898],[-157.19099,1.7639,2.9962],[-157.2069,1.76655,2.7895],[-157.22297,1.77359,3.2976],[-157.23839,1.78364,0.5875],[-157.25243,1.79531,0.0],[-157.28978,1.81875,0.0],[-157.32543,1.83584,0.0],[-157.34773,1.86079,1.9072],[-157.34492,1.90795,1.4288],[-157.34044,1.93024,1.6422],[-157.33617,1.93911,1.7707],[-157.32067,1.9455,1.8166],[-157.31505,1.95279,0.9147],[-157.31139,1.96259,1.3176],[-157.31013,1.97309,1.4659],[-157.32185,1.97211,0.217],[-157.38585,1.99046,1.3467],[-157.42382,2.02045,5.5122]]],
[[[-159.34227,3.92577,0.0],[-159.37682,3.93329,0.0],[-159.40632,3.90257,0.0],[-159.41002,3.86205,0.0],[-159.36714,3.84016,0.0],[-159.39379,3.88858,0.0],[-159.38789,3.89875,4.1082],[-159.37824,3.90717,0.0],[-159.36616,3.91144,0.0],[-159.35285,3.909,0.0],[-159.34785,3.90278,0.0],[-159.34203,3.8815,0.0],[-159.33544,3.87149,0.0],[-159.32514,3.8653,0.0],[-159.29967,3.85464,0.0],[-159.29137,3.8476,0.0],[-159.28718,3.83784,0.0],[-159.28388,3.82392,0.0],[-159.28523,3.81143,0.0209],[-159.29479,3.80598,0.0],[-159.34276,3.81957,2.6862],[-159.36079,3.8194,0.0],[-159.35285,3.79914,0.0],[-159.33344,3.78644,0.0],[-159.30871,3.78465,0.0],[-159.28376,3.79019,0.0],[-159.26342,3.79914,0.0],[-159.25263,3.81004,0.0],[-159.24999,3.81977,0.0],[-159.25329,3.82868,0.0],[-159.26643,3.84536,0.0],[-159.2779,3.86644,0.0],[-159.28454,3.87482,1.5809],[-159.29467,3.87726,1.4632],[-159.30809,3.87645,0.0],[-159.31989,3.8791,0.0],[-159.3249,3.89167,0.0],[-159.32677,3.90119,0.0],[-159.33137,3.91071,0.0],[-159.34227,3.92577,0.0]]],
[[[-160.38276,4.70698,0.0],[-160.3789,4.71328,0.0],[-160.39,4.72101,0.0],[-160.40119,4.72309,0.0],[-160.41181,4.72163,0.0],[-160.41662,4.71711,0.0],[-160.41039,4.70917,0.0],[-160.39538,4.70478,0.0],[-160.38276,4.70698,0.0]]]]}}