{"type": "Feature","bbox": [-172.6202,-13.8038,-172.4938,-13.6258],"geometry": {"type": "MultiPolygon","coordinates": [[[[-172.5402,-13.6306,1542.0793],[-172.5448,-13.6258,1517.8281],[-172.6202,-13.6961,15.0635],[-172.6111,-13.6995,21.0635],[-172.6078,-13.7028,9.0231],[-172.6081,-13.7051,1.1904],[-172.5994,-13.7097,0.9662],[-172.5952,-13.7193,3.5703],[-172.5969,-13.7213,0.0],[-172.5963,-13.7384,0.0],[-172.5903,-13.7441,0.0],[-172.5833,-13.7469,3.9231],[-172.5828,-13.7567,0.0],[-172.579,-13.761,2.1946],[-172.5777,-13.7658,12.937],[-172.5531,-13.7778,0.0],[-172.5511,-13.7821,4.0711],[-172.5519,-13.787,6.5803],[-172.5478,-13.7954,1.1301],[-172.5452,-13.7976,0.0],[-172.5316,-13.8033,0.0],[-172.5278,-13.8038,0.0],[-172.523,-13.802,0.5389],[-172.5171,-13.8028,0.0],[-172.5129,-13.7957,5.1002],[-172.5071,-13.7989,2.532],[-172.4938,-13.798,0.0],[-172.4948,-13.6306,1682.7731],[-172.5402,-13.6306,1542.0793]]]]}
,"properties": {"GID_2": "WSM.7.3_1","GID_0": "WSM","country": "Samoa","GID_1": "WSM.7_1","province": "Palauli","NL_NAME_1": "NA","county": "PalauliWest","VARNAME_2": "NA","NL_NAME_2": "NA","TYPE_2": "Unknown","ENGTYPE_2": "Unknown","CC_2": "NA","HASC_2": "NA","name": "Palauli_West.county","area_km2": 180.8702,"hist_schema_id": "Elevation0-9000","hist_area_km2": {"0": 3.9127,"25": 27.4921,"50": 11.9036,"75": 6.2402,"100": 5.602,"125": 5.2313,"150": 4.8813,"175": 4.4694,"200": 3.8721,"225": 3.6044,"250": 3.3985,"275": 3.2955,"300": 2.9248,"325": 2.5541,"350": 2.7395,"375": 2.3688,"400": 2.5953,"425": 2.41,"450": 2.2658,"475": 2.4924,"500": 2.2246,"525": 2.1628,"550": 2.2247,"575": 2.0187,"600": 1.8333,"625": 2.0187,"650": 1.7509,"675": 1.7716,"700": 1.7098,"725": 1.5656,"750": 1.751,"775": 1.5038,"800": 1.6892,"825": 1.442,"850": 1.5038,"875": 1.545,"900": 1.7098,"925": 1.7922,"950": 1.9364,"975": 1.6893,"1000": 1.6275,"1025": 1.7511,"1050": 1.5039,"1075": 1.4421,"1100": 1.6275,"1125": 1.5039,"1150": 1.7923,"1175": 1.6069,"1200": 1.4627,"1225": 1.3804,"1250": 1.3804,"1275": 1.3186,"1300": 1.298,"1325": 1.4216,"1350": 1.5246,"1375": 1.4422,"1400": 1.4834,"1425": 1.6277,"1450": 1.4834,"1475": 1.4629,"1500": 1.8544,"1525": 1.9574,"1550": 1.9368,"1575": 1.6689,"1600": 1.2363,"1625": 1.0302,"1650": 0.8242,"1675": 0.1236}}}