{"type":"Feature","properties":{"GID_3":"ASM.1.1.4_1","GID_0":"ASM","country":"AmericanSamoa","GID_1":"ASM.1_1","state":"Eastern","NL_NAME_1":"NA","GID_2":"ASM.1.1_1","county":"Ituau","NL_NAME_2":"NA","city":"Nu'uuli","VARNAME_3":"NA","NL_NAME_3":"NA","TYPE_3":"Village","ENGTYPE_3":"Village","CC_3":"NA","HASC_3":"NA","name":"Nu'uuli.city"},
"geometry":{"type": "MultiPolygon","coordinates": [[[[-170.71,-14.2959,339.5859],[-170.7316,-14.2974,326.699],[-170.7276,-14.3049,212.5959],[-170.7321,-14.3207,40.0563],[-170.7257,-14.3194,20.9249],[-170.7213,-14.3216,13.2089],[-170.7048,-14.3134,0.0],[-170.7003,-14.3162,1.3654],[-170.6906,-14.306,0.0],[-170.71,-14.2959,339.5859]]]]}}