{"type": "Feature","bbox": [-170.6452,-14.2717,-170.6117,-14.2487],"geometry": {"type": "MultiPolygon","coordinates": [[[[-170.6452,-14.269,201.2851],[-170.6394,-14.2717,309.0547],[-170.6328,-14.2664,300.6354],[-170.6217,-14.2624,248.4268],[-170.6144,-14.2628,157.6878],[-170.6117,-14.2536,0.0],[-170.6247,-14.2575,0.0],[-170.6294,-14.255,0.0],[-170.6247,-14.2499,0.0],[-170.638,-14.2487,0.0],[-170.6376,-14.254,242.175],[-170.6436,-14.2615,260.7092],[-170.6452,-14.269,201.2851]]]]}
,"properties": {"GID_3": "ASM.1.4.10_1","GID_0": "ASM","country": "AmericanSamoa","GID_1": "ASM.1_1","state": "Eastern","NL_NAME_1": "NA","GID_2": "ASM.1.4_1","county": "Sua","NL_NAME_2": "NA","city": "Masefau","VARNAME_3": "NA","NL_NAME_3": "NA","TYPE_3": "Village","ENGTYPE_3": "Village","CC_3": "NA","HASC_3": "NA","name": "Masefau.city","area_km2": 4.397471,"hist_schema_id": "Elevation0-9000","hist_area_km2": {"0": 0.554831,"25": 0.431533,"50": 0.410984,"75": 0.349336,"100": 0.554827,"125": 0.226039,"150": 0.22604,"175": 0.267134,"200": 0.226036,"225": 0.369877,"250": 0.184936,"275": 0.349321,"300": 0.143837,"325": 0.061644,"350": 0.041096}}}