{"type": "Feature","bbox": [-170.6636,-14.2898,-170.6496,-14.2732],"geometry": {"type": "MultiPolygon","coordinates": [[[[-170.6636,-14.2898,8.2892],[-170.6496,-14.2889,0.0],[-170.6543,-14.2732,394.1378],[-170.6608,-14.2864,87.6354],[-170.6636,-14.2898,8.2892]]]]}
,"properties": {"GID_3": "ASM.1.4.8_1","GID_0": "ASM","country": "AmericanSamoa","GID_1": "ASM.1_1","state": "Eastern","NL_NAME_1": "NA","GID_2": "ASM.1.4_1","county": "Sua","NL_NAME_2": "NA","city": "Lauli'i","VARNAME_3": "NA","NL_NAME_3": "NA","TYPE_3": "Village","ENGTYPE_3": "Village","CC_3": "NA","HASC_3": "NA","name": "Lauli'i.city","area_km2": 1.2328026,"hist_schema_id": "Elevation0-9000","hist_area_km2": {"0": 0.1438244,"25": 0.2465593,"50": 0.1643725,"75": 0.0410937,"100": 0.24656,"125": 0.2054682,"150": 0.1027349,"175": 0.0410945,"225": 0.0205475,"250": 0.0205476}}}