{"type":"Feature","properties":{"GID_2":"ASM.2.5_1","GID_0":"ASM","country":"AmericanSamoa","GID_1":"ASM.2_1","state":"Manu'a","NL_NAME_1":"NA","county":"Ta'u","VARNAME_2":"NA","NL_NAME_2":"NA","TYPE_2":"County","ENGTYPE_2":"County","CC_2":"NA","HASC_2":"AS.MA.TA","name":"Ta'u.county"},
"geometry":{"type": "MultiPolygon","coordinates": [[[[-169.4865,-14.2393,654.6024],[-169.5013,-14.2294,169.7667],[-169.5019,-14.2231,122.4218],[-169.5065,-14.2242,112.7187],[-169.5159,-14.2227,61.8585],[-169.5166,-14.23,6.5155],[-169.5144,-14.2355,2.4448],[-169.5046,-14.2468,0.0],[-169.4987,-14.2577,63.8952],[-169.4973,-14.2641,78.9661],[-169.4915,-14.2717,0.0],[-169.485,-14.2718,10.5775],[-169.4715,-14.2558,0.0],[-169.4565,-14.2472,71.9272],[-169.4606,-14.239,436.6088],[-169.4578,-14.2347,517.4736],[-169.4814,-14.2405,713.6804],[-169.4865,-14.2393,654.6024]]]]}}