{"type":"Feature","properties":{"ISO3166-1-Alpha-3":"PYF","country":"French Polynesia","fill":"#F0F","id":"4966","name":"Austral Islands"},
"geometry":{"type": "MultiPolygon","coordinates": [[[[-144.31273,-27.64007,0.0],[-144.30443,-27.63242,0.0],[-144.29743,-27.62078,0.0],[-144.30028,-27.62005,0.0562],[-144.30354,-27.60052,0.0],[-144.30419,-27.5997,0.0],[-144.30134,-27.59539,0.0],[-144.28824,-27.58424,0.0],[-144.28376,-27.5792,0.0],[-144.28995,-27.57008,0.0],[-144.29817,-27.56292,0.0],[-144.31786,-27.5512,0.0],[-144.33943,-27.55926,0.0],[-144.34797,-27.58554,181.6016],[-144.34659,-27.61533,70.2161],[-144.33837,-27.63372,89.3858],[-144.32364,-27.64121,229.0358],[-144.31273,-27.64007,0.0]]],
[[[-147.66893,-23.87176,64.9383],[-147.66177,-23.8681,186.0519],[-147.65587,-23.86386,83.6283],[-147.65123,-23.85858,322.2621],[-147.64786,-23.85182,5.6364],[-147.68798,-23.85459,0.0],[-147.70588,-23.85858,0.0],[-147.72423,-23.86492,0.0],[-147.72423,-23.87176,0.0],[-147.71264,-23.87721,0.0],[-147.69896,-23.87802,5.9457],[-147.66893,-23.87176,64.9383]]],
[[[-149.46325,-23.39577,0.0],[-149.45092,-23.38112,32.801],[-149.45649,-23.36533,156.1706],[-149.48168,-23.35784,29.0441],[-149.5089,-23.35955,10.428],[-149.52143,-23.36273,2.6081],[-149.52672,-23.3681,7.4627],[-149.52477,-23.38397,0.0],[-149.51875,-23.39495,0.0],[-149.5078,-23.40049,8.4875],[-149.46325,-23.39577,0.0]]],
[[[-151.36872,-22.51312,0.0],[-151.36274,-22.50807,0.0],[-151.35749,-22.4817,0.0],[-151.35591,-22.45664,231.9833],[-151.35924,-22.44752,231.597],[-151.3675,-22.43418,11.4719],[-151.37767,-22.42327,0.0],[-151.38687,-22.42246,0.0],[-151.39704,-22.44215,0.0],[-151.3911,-22.46453,0.0],[-151.38044,-22.4887,0.0],[-151.37633,-22.51434,0.0],[-151.37177,-22.51442,0.0],[-151.36872,-22.51312,0.0]]],
[[[-154.69514,-21.80584,7.9705],[-154.69583,-21.80169,14.2289],[-154.69758,-21.79884,7.4171],[-154.69917,-21.7977,12.3729],[-154.70267,-21.7986,0.0],[-154.70096,-21.80226,3.9516],[-154.69681,-21.80649,0.443],[-154.69514,-21.80584,7.9705]]]]}}