{"type":"Feature","properties":{"GID_1":"PYF.1_1","GID_0":"PYF","country":"FrenchPolynesia","province":"ÎlesAustrales","VARNAME_1":"Tuha'aPae|AustralIslands|Archi","NL_NAME_1":"NA","TYPE_1":"Subdivisionsadministratives","ENGTYPE_1":"Administrativesubdivisions","CC_1":"NA","HASC_1":"PF.TI","ISO_1":"NA","name":"Îles_Australes.province"},
"geometry":{"type": "MultiPolygon","coordinates": [[[[-144.3083,-27.6442,0.0],[-144.3125,-27.6431,48.6798],[-144.3136,-27.6447,36.2713],[-144.31,-27.6475,9.972],[-144.3047,-27.6456,0.0],[-144.3083,-27.6442,0.0]]],
[[[-144.3147,-27.5781,17.0283],[-144.3164,-27.5764,23.6622],[-144.3132,-27.5701,0.0],[-144.3244,-27.5633,0.0],[-144.3287,-27.5709,0.0],[-144.3306,-27.5692,0.2785],[-144.3325,-27.5747,9.2352],[-144.3339,-27.5733,29.7553],[-144.3331,-27.5714,0.0],[-144.3369,-27.5669,0.0],[-144.3397,-27.5678,43.3501],[-144.3414,-27.5661,0.0],[-144.3433,-27.5708,15.0369],[-144.3417,-27.5753,0.0],[-144.3428,-27.5769,2.279],[-144.3453,-27.5758,0.0],[-144.3475,-27.5706,0.0],[-144.3494,-27.5756,68.8857],[-144.3528,-27.5781,14.8852],[-144.3569,-27.5758,0.0],[-144.3556,-27.5728,0.0],[-144.3595,-27.5706,34.8632],[-144.3619,-27.5722,72.1755],[-144.3597,-27.5767,14.3787],[-144.3611,-27.5786,8.7366],[-144.3658,-27.5753,0.0],[-144.3735,-27.5793,3.3339],[-144.3747,-27.5791,11.5199],[-144.3747,-27.5757,0.0],[-144.3887,-27.5758,0.0],[-144.3887,-27.5927,0.0],[-144.3793,-27.5927,0.0],[-144.3787,-27.5962,0.0],[-144.3806,-27.6008,0.0],[-144.3755,-27.6025,55.5159],[-144.3747,-27.6047,13.4845],[-144.3792,-27.6067,49.2714],[-144.3895,-27.6067,0.0],[-144.3895,-27.618,0.0],[-144.3772,-27.618,0.0],[-144.3764,-27.6203,0.0],[-144.3692,-27.6156,9.277],[-144.3636,-27.6175,65.3245],[-144.3631,-27.6203,6.2914],[-144.3702,-27.6251,37.2091],[-144.3734,-27.6296,0.0],[-144.3649,-27.644,0.0],[-144.3462,-27.6521,0.0],[-144.3402,-27.6401,62.9208],[-144.3292,-27.6403,37.9609],[-144.328,-27.6427,47.203],[-144.3292,-27.6454,37.5414],[-144.3245,-27.6446,159.3196],[-144.3231,-27.6469,44.7312],[-144.32,-27.6439,11.141],[-144.3164,-27.6456,0.0],[-144.3186,-27.6383,0.0],[-144.3178,-27.6369,0.0],[-144.3059,-27.6377,0.0],[-144.3089,-27.6353,41.9821],[-144.3111,-27.6297,23.2112],[-144.32,-27.6281,16.0276],[-144.3211,-27.6256,3.4655],[-144.3181,-27.6233,0.0],[-144.3042,-27.6225,6.0925],[-144.3019,-27.6236,0.0],[-144.3025,-27.6211,1.5282],[-144.3122,-27.6203,4.7552],[-144.3142,-27.6183,0.0],[-144.313,-27.6158,2.2699],[-144.3156,-27.6131,42.5589],[-144.3203,-27.6133,12.2496],[-144.33,-27.6192,4.676],[-144.3411,-27.6167,10.1021],[-144.3492,-27.6089,0.0],[-144.3508,-27.605,5.1147],[-144.3464,-27.6003,0.9678],[-144.3424,-27.6001,0.9859],[-144.3405,-27.6017,14.2093],[-144.3408,-27.6061,30.2028],[-144.3358,-27.6106,5.2293],[-144.3183,-27.6044,35.4432],[-144.3108,-27.6058,0.0],[-144.3114,-27.6039,1.2153],[-144.3147,-27.6033,22.4684],[-144.3172,-27.6006,6.9685],[-144.3147,-27.5986,46.4608],[-144.3106,-27.5989,5.4637],[-144.3108,-27.5949,24.8605],[-144.3089,-27.5914,2.0294],[-144.3114,-27.5897,5.1811],[-144.3072,-27.5867,1.2825],[-144.3129,-27.5844,12.1468],[-144.3131,-27.5817,3.4157],[-144.3163,-27.5796,64.1445],[-144.3147,-27.5781,17.0283]]],
[[[-147.5864,-23.8557,1.1443],[-147.5863,-23.8549,1.1443],[-147.5892,-23.8537,0.0],[-147.5891,-23.8557,0.0],[-147.5864,-23.8557,1.1443]]],
[[[-147.5878,-23.8522,0.0],[-147.5862,-23.8536,2.1767],[-147.5853,-23.8514,4.0021],[-147.5855,-23.8512,0.0],[-147.5878,-23.8522,0.0]]],
[[[-147.6831,-23.9025,0.0],[-147.687,-23.8997,0.7489],[-147.6892,-23.9019,1.6963],[-147.6861,-23.9069,0.0],[-147.6808,-23.9047,0.0],[-147.6831,-23.9025,0.0]]],
[[[-147.6694,-23.9028,0.0],[-147.672,-23.9015,0.0],[-147.673,-23.9036,0.0],[-147.6696,-23.9039,1.258],[-147.6694,-23.9028,0.0]]],
[[[-147.6628,-23.905,0.0],[-147.6586,-23.9033,4.4384],[-147.6592,-23.9003,0.0],[-147.6639,-23.9036,4.8905],[-147.6628,-23.905,0.0]]],
[[[-147.6986,-23.8986,1.8875],[-147.6994,-23.8997,0.2028],[-147.6997,-23.8972,0.0],[-147.7017,-23.8994,1.3812],[-147.6978,-23.9008,0.2028],[-147.6969,-23.8983,0.0],[-147.6986,-23.8986,1.8875]]],
[[[-147.627,-23.8887,9.677],[-147.6272,-23.8901,2.6192],[-147.6193,-23.8894,2.4631],[-147.6149,-23.8854,0.0],[-147.6151,-23.8836,0.0],[-147.6198,-23.8803,0.0],[-147.6208,-23.8757,0.0],[-147.6217,-23.8832,0.0],[-147.627,-23.8887,9.677]]],
[[[-147.6041,-23.8781,1.366],[-147.5957,-23.8752,5.8787],[-147.5886,-23.8673,11.4329],[-147.5884,-23.8644,2.8302],[-147.5905,-23.8645,0.0],[-147.597,-23.874,0.0],[-147.6078,-23.8767,2.3204],[-147.6085,-23.8783,3.6552],[-147.6128,-23.8777,0.0],[-147.612,-23.8805,0.0],[-147.6164,-23.8814,0.0],[-147.6133,-23.8826,2.8661],[-147.6041,-23.8781,1.366]]],
[[[-147.6297,-23.8542,3.9864],[-147.6408,-23.8517,2.7575],[-147.6519,-23.8519,0.0],[-147.6592,-23.8536,0.0],[-147.6664,-23.8589,3.5245],[-147.6737,-23.8605,0.0],[-147.6822,-23.8572,0.0],[-147.6842,-23.8593,0.0],[-147.68,-23.8636,6.5715],[-147.6817,-23.8681,0.0],[-147.6836,-23.8692,0.6229],[-147.6867,-23.8672,0.0],[-147.6903,-23.8703,2.5297],[-147.6958,-23.8692,0.0],[-147.7008,-23.8769,0.0],[-147.6976,-23.8785,5.9457],[-147.6883,-23.8772,4.7739],[-147.6806,-23.8828,21.6666],[-147.6692,-23.8869,0.0],[-147.6639,-23.8858,0.7114],[-147.6614,-23.8819,1.2231],[-147.6467,-23.8708,5.6155],[-147.6289,-23.8631,0.0],[-147.6219,-23.8619,1.7491],[-147.6189,-23.8586,0.0],[-147.6214,-23.8544,0.0],[-147.6297,-23.8542,3.9864]]],
[[[-147.59,-23.8617,1.7049],[-147.5891,-23.8627,1.7049],[-147.5869,-23.8629,5.3677],[-147.5872,-23.8618,5.3677],[-147.59,-23.8617,1.7049]]],
[[[-147.5867,-23.8598,1.1002],[-147.5869,-23.8586,4.1577],[-147.59,-23.8578,0.0],[-147.5899,-23.86,0.0],[-147.5867,-23.8598,1.1002]]],
[[[-147.6164,-23.8567,0.0],[-147.6172,-23.8579,0.0],[-147.6146,-23.857,0.0],[-147.6151,-23.8561,0.0],[-147.6164,-23.8567,0.0]]],
[[[-147.5969,-23.8328,0.0],[-147.6036,-23.8322,0.0],[-147.6122,-23.8356,0.0],[-147.5919,-23.8367,3.0193],[-147.5892,-23.8392,3.0293],[-147.5869,-23.845,0.0],[-147.5844,-23.8403,0.0],[-147.5856,-23.8381,5.0673],[-147.5883,-23.8353,0.0],[-147.5969,-23.8328,0.0]]],
[[[-149.4721,-23.3429,0.0],[-149.4761,-23.3418,0.0],[-149.4755,-23.3437,0.8829],[-149.4916,-23.3468,3.2973],[-149.5022,-23.3509,0.8087],[-149.505,-23.354,2.9772],[-149.5061,-23.3529,0.0],[-149.5155,-23.3545,0.0],[-149.5224,-23.3632,5.8621],[-149.5307,-23.3687,2.3862],[-149.5277,-23.3739,2.4339],[-149.5274,-23.3792,0.0],[-149.5211,-23.385,1.5714],[-149.5129,-23.3961,5.2475],[-149.5166,-23.3987,0.0],[-149.515,-23.4011,0.0],[-149.5111,-23.3989,2.1997],[-149.5072,-23.4033,0.0],[-149.5048,-23.4036,0.0],[-149.485,-23.3966,0.665],[-149.4641,-23.3947,0.0],[-149.4616,-23.4054,0.0],[-149.4402,-23.3945,0.0],[-149.4451,-23.3876,4.6326],[-149.4385,-23.3802,5.9596],[-149.4368,-23.3757,4.4848],[-149.4362,-23.3649,0.0],[-149.4401,-23.3558,0.0],[-149.4364,-23.3479,0.0],[-149.441,-23.3439,0.0],[-149.4449,-23.3504,3.3696],[-149.4498,-23.3468,1.0709],[-149.462,-23.3426,0.0],[-149.4721,-23.3429,0.0]]],
[[[-143.4889,-27.8988,0.0],[-143.4911,-27.8984,0.0],[-143.4927,-27.8996,0.0],[-143.4915,-27.9006,0.5578],[-143.4889,-27.8988,0.0]]],
[[[-143.5096,-27.8932,0.9606],[-143.5115,-27.8925,0.0],[-143.5117,-27.8944,8.5306],[-143.5109,-27.8948,0.0],[-143.5096,-27.8932,0.9606]]],
[[[-143.4848,-27.8789,0.0],[-143.4887,-27.877,0.0],[-143.4909,-27.8746,0.0],[-143.4883,-27.8784,0.0],[-143.4848,-27.8789,0.0]]],
[[[-144.3319,-27.6479,10.0887],[-144.3325,-27.6493,53.011],[-144.3313,-27.6497,16.4455],[-144.3306,-27.6466,26.8515],[-144.3319,-27.6479,10.0887]]],
[[[-137.1217,-23.1311,0.0],[-137.1242,-23.1297,0.0],[-137.1278,-23.1308,0.0],[-137.1467,-23.1442,0.0],[-137.1519,-23.1561,0.0],[-137.1536,-23.1678,0.0],[-137.1517,-23.1747,0.0],[-137.1464,-23.1808,0.0],[-137.1378,-23.1847,0.0],[-137.1294,-23.1844,0.0],[-137.1261,-23.1819,0.0],[-137.1228,-23.1694,0.0],[-137.1169,-23.1617,0.0],[-137.1194,-23.1597,0.0],[-137.1231,-23.1628,0.0],[-137.1283,-23.1717,0.0],[-137.1278,-23.1731,0.0],[-137.1303,-23.1728,0.0],[-137.13,-23.1772,4.3698],[-137.1328,-23.1811,0.0],[-137.1328,-23.1778,0.0],[-137.135,-23.1811,0.0],[-137.1386,-23.1808,0.0],[-137.1439,-23.1781,0.0],[-137.1467,-23.1744,0.0],[-137.1458,-23.1703,0.0],[-137.1478,-23.1683,0.0],[-137.1475,-23.1564,0.0],[-137.1403,-23.145,0.0],[-137.1336,-23.1394,1.3667],[-137.1233,-23.1347,0.0],[-137.1144,-23.1444,0.5009],[-137.114,-23.1491,1.9995],[-137.1161,-23.1525,0.0],[-137.1117,-23.1558,0.0],[-137.1097,-23.1508,0.0],[-137.1103,-23.145,0.0],[-137.1156,-23.1367,0.0],[-137.1217,-23.1311,0.0]]],
[[[-137.1185,-23.1566,0.0],[-137.116,-23.1581,0.0],[-137.1172,-23.1562,0.0],[-137.1187,-23.1556,0.0],[-137.1185,-23.1566,0.0]]],
[[[-137.1174,-23.1546,0.0],[-137.1155,-23.1563,0.0],[-137.1144,-23.156,0.0],[-137.1174,-23.1535,0.0],[-137.1174,-23.1546,0.0]]],
[[[-138.7475,-22.195,0.7791],[-138.7508,-22.1939,0.0],[-138.7553,-22.1983,5.7106],[-138.7589,-22.1986,0.0],[-138.7591,-22.2016,0.3684],[-138.7619,-22.2,0.0],[-138.7683,-22.2028,0.0],[-138.7856,-22.2173,0.0],[-138.7919,-22.2203,0.0],[-138.7931,-22.2228,0.0],[-138.7897,-22.2275,0.0],[-138.7747,-22.2336,0.0],[-138.7661,-22.2431,0.0],[-138.7642,-22.2478,0.0],[-138.7633,-22.2572,0.0],[-138.7639,-22.2789,0.0],[-138.7631,-22.2819,0.0],[-138.7606,-22.2839,0.0],[-138.7532,-22.2817,0.0],[-138.7475,-22.2764,0.0],[-138.7369,-22.2703,0.0],[-138.7244,-22.2661,0.0],[-138.7076,-22.2635,0.0],[-138.7053,-22.26,0.0],[-138.7011,-22.24,0.0],[-138.7033,-22.2339,0.8941],[-138.7308,-22.205,0.0],[-138.7475,-22.195,0.7791]],
[[-138.7544,-22.2003,0.0],[-138.7522,-22.1986,0.0],[-138.7481,-22.1986,3.4093],[-138.7353,-22.2058,6.6075],[-138.7111,-22.2301,11.2002],[-138.7053,-22.24,0.0],[-138.7086,-22.2575,13.574],[-138.7119,-22.2612,0.0],[-138.7261,-22.2622,0.0],[-138.7389,-22.2667,0.4054],[-138.7514,-22.2736,0.0],[-138.755,-22.2789,1.9895],[-138.7581,-22.2783,6.8644],[-138.7606,-22.2739,0.0],[-138.7586,-22.2717,0.0],[-138.7589,-22.255,0.0],[-138.7622,-22.2403,0.0],[-138.7683,-22.2328,0.0],[-138.77,-22.2331,0.0],[-138.7761,-22.2275,0.0],[-138.7831,-22.2261,0.0],[-138.7805,-22.2225,0.0],[-138.7817,-22.2206,0.0],[-138.7839,-22.2225,0.2779],[-138.7879,-22.2193,0.0],[-138.7797,-22.2133,0.0],[-138.7781,-22.2147,0.0],[-138.7672,-22.2064,0.0],[-138.7544,-22.2003,0.0]]],
[[[-139.0305,-21.8839,0.0],[-139.0341,-21.8813,0.0],[-139.0323,-21.8798,0.0],[-139.0336,-21.8769,0.1563],[-139.0295,-21.8735,0.0],[-139.0303,-21.8717,0.0],[-139.0434,-21.8807,0.0],[-139.0428,-21.8831,0.0],[-139.0384,-21.8863,0.0],[-139.0181,-21.8925,0.0],[-139.0112,-21.8918,0.0],[-139.0058,-21.8882,0.1606],[-138.9983,-21.8862,0.7515],[-138.9928,-21.8861,0.0],[-139.0103,-21.8914,0.0],[-138.9868,-21.8865,0.0],[-138.9938,-21.8842,0.0],[-138.9931,-21.8823,0.0],[-138.998,-21.8851,0.7515],[-139.0,-21.8839,0.0],[-139.0038,-21.8861,0.6225],[-139.0058,-21.8847,0.0],[-139.0057,-21.8861,0.0],[-139.0074,-21.8855,0.0],[-139.0079,-21.8873,1.0908],[-139.0091,-21.8861,0.0],[-139.0144,-21.8878,0.0],[-139.0305,-21.8839,0.0]]],
[[[-139.0246,-21.8699,0.0],[-139.0226,-21.8668,0.0],[-139.0265,-21.8685,0.0],[-139.0254,-21.8706,0.0],[-139.0246,-21.8699,0.0]]],
[[[-139.0177,-21.862,0.0826],[-139.0196,-21.8628,0.0],[-139.019,-21.8645,0.0],[-139.0163,-21.8637,0.0],[-139.0177,-21.862,0.0826]]],
[[[-138.9869,-21.8626,0.0938],[-138.9848,-21.8631,0.0],[-138.984,-21.8625,0.0945],[-138.9877,-21.8608,0.0],[-138.9869,-21.8626,0.0938]]],
[[[-138.9914,-21.8623,0.1786],[-138.9906,-21.8602,0.0],[-138.9936,-21.8592,0.0],[-138.9933,-21.8612,0.3468],[-138.9914,-21.8623,0.1786]]],
[[[-139.0137,-21.8594,0.0],[-139.0156,-21.8601,0.1822],[-139.0145,-21.8618,0.0],[-139.0127,-21.8598,0.0],[-139.0137,-21.8594,0.0]]],
[[[-138.9978,-21.857,0.0],[-139.0089,-21.8564,0.5253],[-139.0122,-21.859,0.0],[-139.0088,-21.8608,0.1481],[-139.0017,-21.8598,2.0143],[-138.9954,-21.861,0.0],[-138.9954,-21.8582,0.0],[-138.9978,-21.857,0.0]]],
[[[-138.9476,-21.8391,0.0],[-138.9469,-21.8382,0.0],[-138.9497,-21.8386,0.0],[-138.9485,-21.8395,0.0],[-138.9476,-21.8391,0.0]]],
[[[-149.3972,-23.3678,11.1151],[-149.3958,-23.3706,1.4882],[-149.3939,-23.3683,3.8366],[-149.3978,-23.3642,0.0],[-149.3989,-23.3656,7.047],[-149.3972,-23.3678,11.1151]]],
[[[-149.4115,-23.3422,0.0],[-149.413,-23.3405,1.1972],[-149.4156,-23.3419,8.3129],[-149.4098,-23.3461,1.2773],[-149.4081,-23.3493,1.5009],[-149.4072,-23.3464,0.0],[-149.4117,-23.3438,1.8182],[-149.4115,-23.3422,0.0]]],
[[[-152.7937,-22.637,0.0],[-152.8033,-22.635,5.8293],[-152.8157,-22.6374,0.0],[-152.8229,-22.6479,1.825],[-152.8215,-22.6569,0.0],[-152.8138,-22.6599,0.0],[-152.8078,-22.6646,0.0],[-152.8071,-22.6627,5.6101],[-152.8041,-22.6614,0.0],[-152.7989,-22.6631,0.0],[-152.7926,-22.657,2.197],[-152.7901,-22.6511,0.0],[-152.7907,-22.6397,4.6744],[-152.7937,-22.637,0.0]]],
[[[-151.3284,-22.4538,1.8197],[-151.3346,-22.454,0.0],[-151.3398,-22.4521,4.1208],[-151.3429,-22.4489,5.0809],[-151.3454,-22.4413,0.0],[-151.3486,-22.4383,16.5692],[-151.3643,-22.431,0.0],[-151.3711,-22.433,6.3409],[-151.377,-22.4432,0.0],[-151.3774,-22.4526,0.0],[-151.3727,-22.4651,26.1741],[-151.3664,-22.4714,0.0],[-151.3552,-22.4747,2.3276],[-151.3524,-22.4798,0.0],[-151.3525,-22.4883,2.4949],[-151.3575,-22.4992,0.0],[-151.3539,-22.5039,50.0754],[-151.3478,-22.5236,13.9707],[-151.3442,-22.5254,0.0],[-151.3385,-22.5235,3.7317],[-151.3328,-22.5145,58.5648],[-151.3231,-22.5193,0.0],[-151.3189,-22.5088,0.0],[-151.3275,-22.5054,47.3338],[-151.3228,-22.4973,19.8022],[-151.3233,-22.4852,0.0],[-151.3208,-22.478,0.0],[-151.3221,-22.4759,11.7292],[-151.3223,-22.4563,10.5698],[-151.3284,-22.4538,1.8197]]],
[[[-154.6956,-21.8211,0.1967],[-154.7,-21.8158,0.0],[-154.7017,-21.8175,2.0056],[-154.701,-21.8204,2.5223],[-154.7028,-21.8219,0.3269],[-154.6983,-21.8244,3.6865],[-154.6956,-21.8211,0.1967]]],
[[[-154.7175,-21.8147,1.6861],[-154.7208,-21.8111,0.0],[-154.7233,-21.8131,0.0],[-154.7196,-21.8161,1.5744],[-154.7169,-21.8161,1.6861],[-154.7175,-21.8147,1.6861]]],
[[[-154.7072,-21.8097,9.2867],[-154.7106,-21.8093,0.0],[-154.7156,-21.8171,0.6007],[-154.7108,-21.8161,3.6834],[-154.7072,-21.8097,9.2867]]],
[[[-154.6983,-21.7961,1.0565],[-154.7025,-21.7956,1.3027],[-154.701,-21.8,2.9934],[-154.7021,-21.8039,2.3969],[-154.6959,-21.8055,7.9705],[-154.6953,-21.8086,8.3885],[-154.6933,-21.81,0.8804],[-154.6908,-21.8072,1.279],[-154.6917,-21.8031,1.1057],[-154.6983,-21.7961,1.0565]]],
[[[-144.9656,-19.8931,0.0],[-144.9647,-19.8892,0.6266],[-144.9683,-19.8908,0.0],[-144.9664,-19.8939,0.0],[-144.9656,-19.8931,0.0]]],
[[[-144.9367,-19.8647,0.3919],[-144.9375,-19.8622,0.0],[-144.9417,-19.8619,1.7413],[-144.9397,-19.8753,0.7302],[-144.9336,-19.8928,7.6892],[-144.9339,-19.9003,5.2566],[-144.937,-19.9044,0.0],[-144.9422,-19.9067,5.8407],[-144.9467,-19.9067,7.6802],[-144.9511,-19.9033,3.0446],[-144.9556,-19.9067,0.0],[-144.9536,-19.9119,3.1886],[-144.9483,-19.9161,0.0],[-144.9361,-19.9131,0.0],[-144.9328,-19.9097,0.0],[-144.9297,-19.9028,0.0],[-144.9292,-19.8933,0.0],[-144.9347,-19.8761,0.0],[-144.9367,-19.8647,0.3919]]],
[[[-144.9739,-19.8875,0.0],[-144.9719,-19.8883,0.0],[-144.9697,-19.8847,0.0],[-144.9744,-19.8842,0.0],[-144.9753,-19.8856,0.0],[-144.9739,-19.8875,0.0]]],
[[[-144.995,-19.8769,0.0],[-144.9994,-19.875,0.0],[-144.9878,-19.8831,0.0],[-144.9808,-19.8853,0.0],[-144.9781,-19.8825,0.4642],[-144.9792,-19.8803,0.0],[-144.9822,-19.8811,0.2592],[-144.9869,-19.8783,0.0],[-144.9894,-19.8806,0.3254],[-144.995,-19.8769,0.0]]],
[[[-144.9931,-19.8661,0.0],[-144.995,-19.8636,0.0],[-145.0017,-19.8639,0.0],[-145.0053,-19.8697,1.8126],[-145.0028,-19.8719,0.6313],[-144.9958,-19.8722,0.0],[-144.9928,-19.8696,0.0],[-144.9931,-19.8661,0.0]]],
[[[-144.9414,-19.8581,5.9611],[-144.9414,-19.8603,0.0],[-144.9383,-19.8592,2.5966],[-144.9394,-19.8575,0.0],[-144.9414,-19.8581,5.9611]]],
[[[-144.9417,-19.8528,2.5426],[-144.9389,-19.8522,0.789],[-144.9411,-19.8492,0.0],[-144.9425,-19.8503,0.0],[-144.9417,-19.8528,2.5426]]],
[[[-144.9597,-19.8325,0.0],[-144.9639,-19.8319,0.0],[-144.9672,-19.8342,0.0],[-144.97,-19.8339,0.2565],[-144.9733,-19.8383,0.0],[-144.9708,-19.8394,0.0],[-144.9697,-19.8364,0.0],[-144.9683,-19.8383,0.0],[-144.9672,-19.8361,1.4642],[-144.9658,-19.8375,0.0],[-144.9617,-19.8367,0.0],[-144.9478,-19.8414,0.0],[-144.9422,-19.8475,3.2811],[-144.9397,-19.8469,0.0],[-144.9397,-19.8419,0.0],[-144.9433,-19.8386,0.0],[-144.9597,-19.8325,0.0]]],
[[[-134.4794,-23.3164,0.0],[-134.4819,-23.3153,0.0],[-134.4906,-23.3169,0.0],[-134.4939,-23.3153,0.0],[-134.5008,-23.3164,0.0],[-134.5053,-23.3267,0.0],[-134.4919,-23.3569,0.0],[-134.4886,-23.3708,0.0],[-134.4861,-23.3744,0.0],[-134.4808,-23.3772,0.0],[-134.4747,-23.3758,0.0],[-134.4589,-23.3672,0.0],[-134.4556,-23.3639,0.0],[-134.4511,-23.3531,0.0],[-134.4525,-23.3497,0.0],[-134.4619,-23.3458,0.0],[-134.4639,-23.34,0.0],[-134.4778,-23.3239,0.0],[-134.4775,-23.3181,0.0],[-134.4794,-23.3164,0.0]]],
[[[-134.9539,-23.2433,0.0],[-134.9558,-23.2386,0.3895],[-134.9631,-23.2406,0.0661],[-134.9592,-23.2489,0.0],[-134.955,-23.2469,0.0],[-134.9539,-23.2433,0.0]]],
[[[-134.9433,-23.2303,0.0],[-134.9461,-23.2297,0.0],[-134.9475,-23.2333,3.6698],[-134.9464,-23.2344,3.6698],[-134.9444,-23.2339,0.0],[-134.9433,-23.2303,0.0]]],
[[[-134.8575,-23.2131,0.0],[-134.8539,-23.2119,0.0],[-134.8528,-23.209,0.0],[-134.8635,-23.2139,0.0],[-134.8667,-23.2178,0.0],[-134.8611,-23.2136,0.0],[-134.8575,-23.2131,0.0]]],
[[[-134.8629,-23.2109,0.0],[-134.8641,-23.2129,0.0],[-134.8542,-23.2064,0.0],[-134.8603,-23.2089,0.2553],[-134.8629,-23.2109,0.0]]],
[[[-134.9003,-23.1797,0.0],[-134.9025,-23.1786,0.0],[-134.9072,-23.1803,13.9268],[-134.9186,-23.1792,0.0],[-134.9228,-23.1853,0.0],[-134.9172,-23.1903,0.0],[-134.9156,-23.1944,0.0],[-134.9181,-23.1975,1.8441],[-134.9264,-23.2,0.0],[-134.9239,-23.2019,0.0],[-134.9106,-23.1961,0.0],[-134.9083,-23.1886,0.0],[-134.9053,-23.1858,5.6578],[-134.9061,-23.1839,16.479],[-134.9003,-23.1797,0.0]]],
[[[-134.9222,-23.1739,0.0],[-134.9211,-23.1769,0.0],[-134.9189,-23.1731,0.0],[-134.92,-23.1722,0.0],[-134.9222,-23.1739,0.0]]],
[[[-134.8538,-23.1646,0.0],[-134.8519,-23.1672,0.0],[-134.8511,-23.165,0.0],[-134.8528,-23.1625,0.0],[-134.8538,-23.1646,0.0]]],
[[[-134.9686,-23.2203,27.3626],[-134.9739,-23.2142,0.0],[-134.975,-23.2186,0.0],[-134.9706,-23.2206,7.4982],[-134.9664,-23.2256,0.0],[-134.9664,-23.22,21.0267],[-134.9686,-23.2203,27.3626]]],
[[[-134.9747,-23.2103,0.2648],[-134.9786,-23.2092,0.0],[-134.975,-23.2131,0.0],[-134.9736,-23.2119,0.0],[-134.9747,-23.2103,0.2648]]],
[[[-135.0317,-23.1617,3.82],[-135.0347,-23.1597,3.0145],[-135.0419,-23.1689,0.0],[-135.0361,-23.1711,31.1843],[-135.0356,-23.1736,0.0],[-135.0317,-23.1675,0.0],[-135.0317,-23.1617,3.82]]],
[[[-135.0283,-23.1303,27.7002],[-135.0339,-23.1303,41.3153],[-135.0314,-23.1358,56.2832],[-135.0342,-23.1386,133.4326],[-135.0381,-23.1392,0.0],[-135.0417,-23.1358,0.0],[-135.0431,-23.1375,43.711],[-135.0425,-23.1406,30.4282],[-135.0461,-23.14,33.9918],[-135.0414,-23.1442,59.1386],[-135.0439,-23.1475,97.3165],[-135.0478,-23.1478,0.0],[-135.0525,-23.145,0.0],[-135.0556,-23.1469,29.7475],[-135.0564,-23.1481,7.992],[-135.0542,-23.1511,0.0],[-135.0589,-23.1533,124.2954],[-135.062,-23.1597,0.0],[-135.0536,-23.1569,12.0069],[-135.047,-23.1575,28.9419],[-135.0417,-23.1553,22.7979],[-135.0353,-23.1556,49.3604],[-135.0328,-23.1572,5.7366],[-135.0294,-23.1558,0.0],[-135.0258,-23.1517,0.0],[-135.0286,-23.1467,54.1254],[-135.0281,-23.1433,57.3589],[-135.0247,-23.1408,6.3796],[-135.0261,-23.1375,21.5541],[-135.0242,-23.1339,4.6887],[-135.0283,-23.1303,27.7002]]],
[[[-134.8492,-23.1708,0.0],[-134.8477,-23.1729,0.0],[-134.8497,-23.1622,0.0],[-134.8494,-23.1481,0.0],[-134.8513,-23.1615,0.0],[-134.8492,-23.1708,0.0]]],
[[[-134.8517,-23.1457,0.0],[-134.8522,-23.1463,0.0],[-134.8518,-23.1477,0.0],[-134.8504,-23.1463,0.0],[-134.8517,-23.1457,0.0]]],
[[[-134.8478,-23.1428,0.0],[-134.8486,-23.1467,0.0],[-134.8375,-23.1244,0.0],[-134.8361,-23.1183,0.0],[-134.8467,-23.1389,0.0],[-134.8478,-23.1428,0.0]]],
[[[-134.8905,-23.1261,7.276],[-134.8939,-23.1197,0.0],[-134.8986,-23.1281,3.5727],[-134.9042,-23.1303,6.23],[-134.9078,-23.13,7.1496],[-134.9189,-23.1375,0.6201],[-134.9072,-23.1403,0.0],[-134.9047,-23.1358,54.6103],[-134.8983,-23.1306,0.0],[-134.89,-23.1306,0.0],[-134.8905,-23.1261,7.276]]],
[[[-134.8614,-23.1031,0.1595],[-134.8647,-23.1019,0.0],[-134.8678,-23.1042,0.0],[-134.86,-23.1067,-0.0635],[-134.8517,-23.1128,0.1109],[-134.8436,-23.1158,0.0],[-134.8408,-23.1153,1.6703],[-134.8381,-23.1178,-0.0427],[-134.8369,-23.1167,-0.0427],[-134.8379,-23.1139,0.0],[-134.8514,-23.1106,0.205],[-134.8614,-23.1031,0.1595]]],
[[[-134.9548,-23.0021,0.0],[-134.9608,-23.0017,0.0],[-134.9689,-23.0097,0.0],[-134.9721,-23.0246,0.0],[-134.9777,-23.0371,0.0],[-134.9971,-23.0571,0.0],[-134.9815,-23.0434,0.0],[-134.9761,-23.036,0.0],[-134.9695,-23.0172,0.0],[-134.9667,-23.0122,0.0],[-134.9639,-23.0111,0.0],[-134.9643,-23.0088,0.0],[-134.9617,-23.0052,0.3616],[-134.9461,-23.0072,0.7122],[-134.9414,-23.0106,0.0],[-134.9311,-23.0142,0.0],[-134.9239,-23.015,0.0],[-134.9175,-23.0192,-0.0787],[-134.9178,-23.0219,0.0],[-134.9156,-23.0244,0.0],[-134.9147,-23.0294,0.0],[-134.9122,-23.0328,0.0],[-134.9117,-23.0389,0.0],[-134.91,-23.0406,0.0],[-134.9117,-23.0428,0.0],[-134.9094,-23.0444,0.0],[-134.9108,-23.0472,0.0],[-134.9103,-23.0528,0.1307],[-134.9055,-23.0656,0.0],[-134.895,-23.0767,-0.1408],[-134.8931,-23.0811,0.0],[-134.8917,-23.08,-0.2497],[-134.8692,-23.1022,0.0],[-134.8667,-23.1011,0.0],[-134.8905,-23.0772,0.0],[-134.9036,-23.0614,0.0],[-134.9061,-23.0561,0.0],[-134.9078,-23.0372,0.0],[-134.9142,-23.0175,0.0],[-134.9194,-23.0136,0.0],[-134.9339,-23.0106,0.0],[-134.9478,-23.0028,0.0],[-134.9548,-23.0021,0.0]]],
[[[-134.9527,-22.9995,0.0],[-134.9522,-22.9976,0.0],[-134.9541,-22.9976,0.0],[-134.9533,-22.9987,0.0],[-134.9554,-23.0016,0.0],[-134.954,-23.0018,0.0],[-134.9527,-22.9995,0.0]]],
[[[-134.956,-22.994,0.0],[-134.9577,-22.9929,0.0],[-134.9572,-22.997,0.0],[-134.956,-22.9965,0.0],[-134.9569,-22.9943,0.0],[-134.9541,-22.9954,0.0],[-134.9547,-22.9937,0.0],[-134.956,-22.994,0.0]]],
[[[-134.9342,-23.0814,5.4136],[-134.9358,-23.0736,0.6129],[-134.9406,-23.0778,0.0],[-134.9453,-23.0775,0.0],[-134.9478,-23.0833,16.301],[-134.9528,-23.0844,0.0],[-134.953,-23.09,0.0],[-134.9583,-23.0964,1.2543],[-134.9614,-23.0958,0.0],[-134.9697,-23.0889,0.0],[-134.9719,-23.0961,0.0],[-134.9714,-23.1008,0.0],[-134.9744,-23.1031,7.1015],[-134.9781,-23.1022,0.0],[-134.9806,-23.0978,0.0],[-134.9853,-23.0956,0.0],[-134.9856,-23.0978,0.0],[-134.9769,-23.1114,0.0],[-134.9764,-23.115,0.0],[-134.9808,-23.1197,1.0914],[-134.9833,-23.1206,2.2064],[-134.9889,-23.1172,0.0],[-134.9928,-23.1189,-0.1097],[-134.9967,-23.1181,4.1787],[-135.0003,-23.1147,23.0778],[-135.0028,-23.1086,0.0],[-135.0056,-23.1125,0.0],[-135.0111,-23.1097,3.8717],[-135.0139,-23.1133,0.0],[-135.0097,-23.1194,0.0],[-135.0008,-23.1225,0.0],[-134.9961,-23.1303,0.0],[-134.985,-23.1358,0.0],[-134.9733,-23.1356,0.0],[-134.9631,-23.1322,0.0],[-134.9608,-23.1278,0.0],[-134.9661,-23.1239,0.0],[-134.9686,-23.1192,17.6615],[-134.9664,-23.1111,52.7905],[-134.9397,-23.0903,12.4944],[-134.9314,-23.0931,0.0],[-134.9325,-23.0892,10.3289],[-134.9286,-23.0828,0.0],[-134.9342,-23.0814,5.4136]]],
[[[-135.0121,-23.0708,0.0],[-135.0135,-23.0734,0.0],[-135.007,-23.0653,0.0],[-134.998,-23.0582,0.0],[-135.0074,-23.0636,0.0],[-135.0121,-23.0708,0.0]]],
[[[-136.1748,-21.9993,0.0],[-136.1758,-21.992,0.0],[-136.1791,-21.9892,0.0],[-136.1821,-21.9893,0.0],[-136.1864,-21.9909,0.0],[-136.2019,-22.0039,0.0],[-136.2078,-22.0164,0.0],[-136.2083,-22.025,0.0],[-136.2071,-22.0297,0.0],[-136.1997,-22.0372,0.0],[-136.1886,-22.0389,0.0],[-136.1847,-22.0358,1.5177],[-136.173,-22.0113,0.0],[-136.1748,-21.9993,0.0]],
[[-136.187,-22.028199999999998,0.0],[-136.1873,-22.0314,4.1729],[-136.1916,-22.0326,2.0063],[-136.2007,-22.0291,0.0],[-136.2027,-22.0256,0.0],[-136.2016,-22.0163,1.0395],[-136.1994,-22.0106,2.5927],[-136.1911,-22.0,1.6483],[-136.1848,-21.9955,6.6338],[-136.1797,-21.9941,6.8873],[-136.1764,-22.0097,0.0],[-136.187,-22.028199999999998,0.0]]],
[[[-135.5419,-21.5647,0.0],[-135.5459,-21.5606,0.9365],[-135.548,-21.5649,3.4322],[-135.5552,-21.5666,0.9029],[-135.5547,-21.5688,3.973],[-135.5474,-21.5733,0.9131],[-135.5653,-21.5656,0.0],[-135.578,-21.5633,1.631],[-135.5942,-21.5644,0.4709],[-135.6006,-21.5672,0.8992],[-135.5875,-21.565,0.0],[-135.575,-21.5653,0.0],[-135.5642,-21.5675,0.0],[-135.547,-21.5747,0.0],[-135.5419,-21.5683,0.0],[-135.5419,-21.5647,0.0]]],
[[[-135.5572,-21.5642,0.0],[-135.5592,-21.5644,0.0],[-135.5603,-21.5625,0.0],[-135.5636,-21.5636,0.0],[-135.5622,-21.5661,2.1138],[-135.5575,-21.5681,0.3616],[-135.5558,-21.5664,0.9029],[-135.5572,-21.5642,0.0]]],
[[[-135.5908,-21.5619,3.026],[-135.5878,-21.5622,3.518],[-135.5886,-21.5589,0.0],[-135.5908,-21.5606,1.1177],[-135.5963,-21.5603,0.0],[-135.5965,-21.5623,1.4654],[-135.6014,-21.5609,0.0],[-135.6019,-21.5644,4.2038],[-135.5986,-21.5653,1.6048],[-135.5908,-21.5619,3.026]]],
[[[-135.6101,-21.5609,0.0],[-135.6125,-21.5607,2.4649],[-135.6139,-21.5576,0.0],[-135.6172,-21.5594,2.38],[-135.6086,-21.5661,3.2324],[-135.6053,-21.5667,1.5333],[-135.6028,-21.5647,1.8457],[-135.6033,-21.5611,0.0],[-135.6101,-21.5609,0.0]]],
[[[-135.5803,-21.5606,1.2583],[-135.58,-21.5592,0.6949],[-135.5833,-21.5589,0.0],[-135.5847,-21.5619,1.6131],[-135.5669,-21.5644,2.7632],[-135.5647,-21.5625,0.0],[-135.5656,-21.5608,0.0],[-135.575,-21.5606,0.0],[-135.5761,-21.5592,0.0],[-135.5803,-21.5606,1.2583]]],
[[[-135.5425,-21.5569,1.6684],[-135.5411,-21.5578,1.6684],[-135.5403,-21.5556,0.9192],[-135.5414,-21.5553,0.7534],[-135.5425,-21.5569,1.6684]]],
[[[-135.6383,-21.5025,0.752],[-135.6382,-21.4989,0.884],[-135.6422,-21.5006,0.0],[-135.6418,-21.5086,0.0],[-135.631,-21.5302,0.0],[-135.6278,-21.5519,0.0],[-135.6119,-21.5678,0.9997],[-135.6025,-21.5686,0.0],[-135.6019,-21.5667,0.8992],[-135.6058,-21.5678,1.5333],[-135.6122,-21.5658,1.3518],[-135.6259,-21.5525,0.0],[-135.6272,-21.5478,2.0131],[-135.6197,-21.5583,0.8776],[-135.6175,-21.5586,2.38],[-135.6161,-21.5561,0.0],[-135.6225,-21.55,0.0],[-135.625,-21.5425,7.6439],[-135.6255,-21.5306,2.2515],[-135.6281,-21.5264,3.2737],[-135.6272,-21.5225,1.591],[-135.6286,-21.5217,1.591],[-135.6322,-21.5236,1.4805],[-135.6292,-21.5194,0.8556],[-135.6347,-21.5142,0.8332],[-135.6381,-21.5075,1.0181],[-135.6383,-21.5025,0.752]]],
[[[-135.5047,-21.53,1.7838],[-135.5042,-21.5322,0.5934],[-135.5011,-21.5311,0.0],[-135.5025,-21.5289,0.5152],[-135.5047,-21.53,1.7838]]],
[[[-135.4953,-21.5286,1.1325],[-135.4953,-21.5264,0.5293],[-135.4961,-21.5264,0.5293],[-135.4967,-21.5297,0.0],[-135.4953,-21.5286,1.1325]]],
[[[-138.8931,-21.7772,0.0],[-138.9063,-21.7773,0.0],[-138.9141,-21.7843,0.0],[-138.9141,-21.7861,0.0],[-138.9122,-21.7872,0.0],[-138.9048,-21.7819,0.0],[-138.8997,-21.7806,0.4976],[-138.8824,-21.7821,3.718],[-138.8711,-21.7852,0.0],[-138.8649,-21.7879,0.2803],[-138.8531,-21.7986,0.0],[-138.8396,-21.8079,3.2835],[-138.8276,-21.811,1.2358],[-138.8013,-21.8121,2.2371],[-138.7861,-21.8253,2.3775],[-138.7849,-21.8281,5.2516],[-138.7858,-21.8345,0.0],[-138.8171,-21.8533,0.0],[-138.8264,-21.8638,0.0],[-138.8344,-21.8681,0.0],[-138.8351,-21.8702,0.0],[-138.8366,-21.8693,0.0],[-138.8579,-21.8745,0.0],[-138.8658,-21.8725,0.0],[-138.8681,-21.8738,0.4633],[-138.87,-21.8708,0.0],[-138.8728,-21.8718,0.0],[-138.8739,-21.87,0.0],[-138.8754,-21.8718,1.2396],[-138.8767,-21.8689,0.0],[-138.8779,-21.8698,0.0],[-138.8905,-21.8666,0.0],[-138.8932,-21.8642,0.0],[-138.8954,-21.8652,4.0787],[-138.8954,-21.8631,0.0],[-138.9016,-21.8646,2.4725],[-138.9019,-21.8678,0.4441],[-138.9046,-21.868,0.0],[-138.9062,-21.8653,0.0],[-138.909,-21.865,0.5114],[-138.9258,-21.8693,0.0],[-138.9325,-21.8728,0.0],[-138.9335,-21.8753,0.4285],[-138.9361,-21.8747,1.0557],[-138.9386,-21.8777,0.0],[-138.9381,-21.8794,0.0],[-138.9406,-21.8809,0.0],[-138.9447,-21.88,0.0],[-138.9451,-21.8819,0.0],[-138.9466,-21.8809,0.0],[-138.948,-21.8827,-0.0623],[-138.9517,-21.8827,0.0329],[-138.9528,-21.8817,0.0],[-138.9561,-21.8837,0.0],[-138.9597,-21.8817,0.7526],[-138.9607,-21.8842,0.8761],[-138.9614,-21.8824,0.0],[-138.963,-21.8838,0.0],[-138.9644,-21.8824,0.0],[-138.9646,-21.8852,0.0],[-138.9666,-21.8815,0.0],[-138.9689,-21.887,0.0],[-138.9662,-21.8884,0.0],[-138.952,-21.8868,0.0],[-138.941,-21.8839,0.0],[-138.9348,-21.8814,0.0],[-138.9311,-21.8773,0.0],[-138.9242,-21.8738,0.0],[-138.9063,-21.8692,0.0],[-138.8952,-21.8691,0.0],[-138.8849,-21.8734,0.0],[-138.8595,-21.8793,0.0],[-138.8443,-21.8772,0.0],[-138.8323,-21.8723,0.0],[-138.8212,-21.8643,0.0],[-138.8105,-21.8539,0.0],[-138.7906,-21.8432,0.0],[-138.7783,-21.8338,0.0],[-138.7784,-21.8304,0.0],[-138.7818,-21.825,1.7918],[-138.7963,-21.811,0.0],[-138.8016,-21.8079,0.0],[-138.8076,-21.8067,0.0],[-138.8268,-21.8069,0.0],[-138.8406,-21.8046,1.0665],[-138.8447,-21.8021,0.0],[-138.8458,-21.8029,0.0],[-138.852,-21.7956,0.0],[-138.8678,-21.7826,0.0],[-138.8809,-21.7785,0.0],[-138.8931,-21.7772,0.0]]],
[[[-138.9163,-21.7864,0.0],[-138.9161,-21.7874,0.0],[-138.9142,-21.7886,0.0],[-138.9144,-21.7868,0.1084],[-138.9163,-21.7864,0.0]]],
[[[-140.6207,-21.6235,0.0],[-140.6281,-21.6234,0.1854],[-140.6291,-21.6244,0.1854],[-140.6279,-21.6285,0.0],[-140.6187,-21.6284,0.0],[-140.6142,-21.6305,0.0],[-140.6102,-21.6499,0.7504],[-140.5969,-21.6787,0.0],[-140.5835,-21.6989,1.213],[-140.5753,-21.7064,1.7522],[-140.5764,-21.7107,1.5638],[-140.585,-21.7164,0.6235],[-140.5981,-21.7178,0.0],[-140.6017,-21.72,0.9138],[-140.6031,-21.7189,0.0],[-140.6186,-21.7228,0.0],[-140.6233,-21.7208,0.6891],[-140.6306,-21.7142,0.0],[-140.6492,-21.7022,0.0],[-140.657,-21.7008,0.0],[-140.6658,-21.7031,8.7674],[-140.6725,-21.6981,2.6126],[-140.6747,-21.6981,12.0508],[-140.68,-21.6925,0.0],[-140.6797,-21.6878,1.3301],[-140.6742,-21.6839,0.0],[-140.6732,-21.6795,0.7263],[-140.6708,-21.6797,0.0],[-140.67,-21.6753,0.1854],[-140.6725,-21.6748,0.2445],[-140.678,-21.6805,0.3942],[-140.6852,-21.6832,0.0],[-140.6875,-21.6861,0.0],[-140.6819,-21.6986,0.0],[-140.6704,-21.7081,0.0],[-140.6664,-21.7089,0.0],[-140.6605,-21.7063,0.0],[-140.653,-21.7058,0.0],[-140.6356,-21.7161,0.0],[-140.6225,-21.7272,0.0],[-140.6178,-21.7289,0.0],[-140.6025,-21.7228,0.0],[-140.5911,-21.7222,0.0],[-140.5811,-21.7194,0.0],[-140.57,-21.712,0.0],[-140.5686,-21.7085,0.0],[-140.5793,-21.6983,0.263],[-140.5933,-21.6777,0.0],[-140.6058,-21.6506,0.0],[-140.6121,-21.6268,0.0],[-140.6207,-21.6235,0.0]]],
[[[-140.6688,-21.673,0.0],[-140.6662,-21.6734,0.0],[-140.662,-21.6686,0.0],[-140.6616,-21.6659,0.0],[-140.6577,-21.6633,0.0],[-140.6561,-21.658,0.5024],[-140.6582,-21.6579,0.0],[-140.6616,-21.6629,0.1333],[-140.6683,-21.6676,0.2687],[-140.6699,-21.672,0.5275],[-140.6688,-21.673,0.0]]],
[[[-135.5206,-21.4739,0.0],[-135.5231,-21.4725,0.0],[-135.5328,-21.4736,0.0],[-135.5508,-21.4825,0.0],[-135.5678,-21.4861,0.0],[-135.5889,-21.4814,0.0],[-135.5952,-21.4815,0.0],[-135.6024,-21.4849,0.0],[-135.6167,-21.4836,0.0],[-135.6239,-21.4817,1.7336],[-135.6303,-21.475,0.0],[-135.6331,-21.4742,0.0],[-135.6431,-21.4764,0.8066],[-135.6469,-21.4814,0.4686],[-135.6408,-21.4903,2.4909],[-135.6411,-21.4922,0.6569],[-135.6381,-21.4936,0.0],[-135.6364,-21.4903,0.0],[-135.6372,-21.4833,2.7503],[-135.6322,-21.48,0.0],[-135.6233,-21.4856,0.0],[-135.622,-21.4836,0.0],[-135.6205,-21.4865,0.0],[-135.6202,-21.4845,0.0],[-135.6186,-21.4869,0.5968],[-135.6158,-21.485,0.0],[-135.615,-21.4878,0.0],[-135.6128,-21.4853,0.0],[-135.6108,-21.4883,0.0],[-135.6089,-21.4872,0.0],[-135.6044,-21.4886,0.0],[-135.5956,-21.4836,1.9813],[-135.5933,-21.4861,4.618],[-135.5869,-21.4858,3.3889],[-135.5769,-21.4889,0.7609],[-135.5669,-21.4897,0.0],[-135.5658,-21.4874,2.521],[-135.565,-21.4894,1.7659],[-135.5622,-21.4892,0.0],[-135.56,-21.4861,0.0],[-135.5442,-21.4817,0.0],[-135.5372,-21.4778,0.0],[-135.5322,-21.4789,0.0],[-135.5303,-21.4761,0.5379],[-135.5283,-21.4781,0.0],[-135.5231,-21.4775,3.9816],[-135.5117,-21.4858,0.0],[-135.5036,-21.4864,0.0],[-135.4972,-21.4892,6.9664],[-135.4767,-21.5025,0.6949],[-135.4672,-21.5097,0.0],[-135.4578,-21.5233,1.1329],[-135.4608,-21.5278,0.0],[-135.4597,-21.5328,0.0],[-135.4619,-21.5292,0.0],[-135.4669,-21.5267,1.6836],[-135.47,-21.5289,0.7322],[-135.47,-21.5306,0.7447],[-135.4767,-21.5267,0.0],[-135.4772,-21.5217,0.0],[-135.4803,-21.5236,0.0],[-135.4842,-21.5236,1.6161],[-135.4847,-21.5264,0.0],[-135.4864,-21.5239,0.0],[-135.4883,-21.5242,0.0],[-135.495,-21.5308,0.0],[-135.5,-21.5325,0.0],[-135.5086,-21.5342,0.0],[-135.5108,-21.5317,1.0139],[-135.5386,-21.5525,0.0],[-135.5403,-21.5544,1.3734],[-135.5383,-21.5558,0.7836],[-135.5419,-21.5611,0.0],[-135.5278,-21.5489,0.0],[-135.5086,-21.5358,0.0],[-135.4793,-21.5276,0.0],[-135.4722,-21.53,0.0],[-135.4686,-21.5339,0.0],[-135.4644,-21.5356,0.0],[-135.4542,-21.5325,0.0],[-135.4525,-21.5289,0.6858],[-135.4536,-21.5242,0.0],[-135.4594,-21.5144,0.0],[-135.4675,-21.5056,0.0],[-135.4764,-21.4981,0.0],[-135.4845,-21.4944,0.0],[-135.4997,-21.4836,0.0],[-135.5056,-21.4817,0.0],[-135.5106,-21.4825,0.0],[-135.5142,-21.4806,0.0],[-135.5206,-21.4739,0.0]]],
[[[-136.3758,-21.4607,0.0],[-136.3826,-21.4494,0.2052],[-136.3903,-21.4455,0.0],[-136.3961,-21.4454,0.0],[-136.4076,-21.4475,0.0],[-136.4197,-21.4524,0.0],[-136.4235,-21.4565,0.0],[-136.4254,-21.4622,0.0],[-136.4205,-21.4746,0.0],[-136.4085,-21.4908,0.5365],[-136.3971,-21.498,0.0],[-136.3837,-21.5007,0.3076],[-136.3779,-21.4995,0.0],[-136.3716,-21.4956,0.0],[-136.3679,-21.4877,0.235],[-136.3692,-21.476,0.0],[-136.3758,-21.4607,0.0]],
[[-136.4041,-21.4514,0.0],[-136.3951,-21.4494,4.4133],[-136.3875,-21.4502,0.8514],[-136.3802,-21.4588,0.0],[-136.3725,-21.4775,0.8157],[-136.3716,-21.4839,0.9013],[-136.372,-21.4883,0.3382],[-136.3795,-21.4945,0.6203],[-136.3864,-21.4953,0.2457],[-136.3996,-21.4913,0.9734],[-136.4051,-21.4874,1.5889],[-136.4179,-21.4698,0.5991],[-136.4202,-21.4631,0.0],[-136.4168,-21.4565,0.0],[-136.415,-21.4547,4.5174],[-136.4041,-21.4514,0.0]]],
[[[-136.5239,-21.3406,0.0],[-136.5219,-21.3306,0.0],[-136.5266,-21.3262,0.0],[-136.5517,-21.3311,0.0],[-136.5571,-21.3343,0.0],[-136.5594,-21.3388,0.0],[-136.5609,-21.3443,0.0],[-136.5597,-21.3541,0.0],[-136.5565,-21.3599,0.0],[-136.5522,-21.3622,0.0],[-136.5475,-21.3634,0.0],[-136.5386,-21.3623,0.0],[-136.5323,-21.3569,0.0],[-136.5239,-21.3406,0.0]],
[[-136.5492,-21.3355,2.709],[-136.5278,-21.3308,3.6184],[-136.5252,-21.333,4.391],[-136.527,-21.3401,0.0],[-136.5311,-21.3449,0.0],[-136.5327,-21.3509,0.8036],[-136.5411,-21.3572,1.387],[-136.5497,-21.3566,0.4189],[-136.5537,-21.352,4.5613],[-136.5551,-21.3398,9.0217],[-136.5492,-21.3355,2.709]]],
[[[-136.6339,-21.3308,2.0345],[-136.6353,-21.3236,1.593],[-136.6389,-21.3191,0.0],[-136.6495,-21.3149,0.0],[-136.6567,-21.3161,0.0],[-136.6633,-21.3205,0.0],[-136.6708,-21.3271,0.0],[-136.6718,-21.3317,0.0],[-136.6684,-21.3404,0.0],[-136.6644,-21.345,0.0],[-136.659,-21.3473,0.0],[-136.6491,-21.3483,0.0],[-136.6428,-21.3467,0.0],[-136.6343,-21.339,0.0],[-136.6339,-21.3308,2.0345]],
[[-136.6474,-21.3414,0.5136],[-136.6536,-21.3437,1.3702],[-136.6581,-21.3425,4.9845],[-136.6657,-21.3325,0.0],[-136.6647,-21.3285,0.0],[-136.6613,-21.3244,3.4222],[-136.653,-21.32,0.0],[-136.6431,-21.3207,4.4917],[-136.6397,-21.3241,1.4235],[-136.6373,-21.3309,0.0],[-136.6391,-21.3378,2.3351],[-136.6474,-21.3414,0.5136]]],
[[[-140.6326,-21.6283,0.2456],[-140.6376,-21.6285,1.208],[-140.644,-21.6246,1.6681],[-140.6462,-21.6249,0.2113],[-140.6503,-21.6376,0.0],[-140.657,-21.6503,0.6976],[-140.6562,-21.6569,0.2017],[-140.6537,-21.6535,0.0],[-140.6511,-21.6425,0.2329],[-140.6471,-21.6386,0.0],[-140.6441,-21.632,2.0652],[-140.6411,-21.6307,1.7612],[-140.6325,-21.6316,0.0],[-140.6303,-21.6285,0.0],[-140.6326,-21.6283,0.2456]]],
[[[-136.7333,-21.3051,0.0],[-136.7369,-21.2974,0.0],[-136.7452,-21.2925,0.0],[-136.7529,-21.2936,0.0],[-136.7581,-21.2963,0.0],[-136.7607,-21.3,0.0],[-136.7606,-21.3041,0.0],[-136.7568,-21.3098,0.0],[-136.7499,-21.3164,0.0],[-136.7456,-21.3183,0.0],[-136.7403,-21.318,0.0],[-136.7343,-21.3138,0.0],[-136.7327,-21.3102,0.0],[-136.7333,-21.3051,0.0]],
[[-136.7472,-21.3106,0.5031],[-136.7522,-21.3061,0.0],[-136.7539,-21.3022,0.0],[-136.7505,-21.2991,4.5024],[-136.743,-21.2972,3.1197],[-136.739,-21.3014,0.0],[-136.7375,-21.3072,8.5148],[-136.7408,-21.3117,1.6223],[-136.7472,-21.3106,0.5031]]],
[[[-138.5597,-20.7689,0.3133],[-138.5667,-20.7678,0.0],[-138.5692,-20.7697,4.7834],[-138.5719,-20.7956,0.0],[-138.5817,-20.8186,0.0],[-138.5797,-20.8206,2.3341],[-138.5808,-20.8236,0.0],[-138.578,-20.8261,0.0],[-138.5786,-20.8306,0.0],[-138.5767,-20.8347,0.0],[-138.5775,-20.8478,2.5079],[-138.5753,-20.8508,0.0],[-138.5667,-20.8556,0.0],[-138.5553,-20.8689,0.0],[-138.5447,-20.8719,0.0],[-138.5375,-20.8761,0.0],[-138.5305,-20.8856,0.0],[-138.5211,-20.8897,0.0],[-138.515,-20.8878,0.0],[-138.5103,-20.8839,0.7567],[-138.5069,-20.8739,0.0],[-138.5072,-20.85,0.0],[-138.5005,-20.8228,0.0],[-138.5031,-20.8083,0.0],[-138.5083,-20.8,0.0],[-138.5597,-20.7689,0.3133]],
[[-138.5742,-20.8242,1.5866],[-138.575,-20.8186,0.0],[-138.5669,-20.7975,0.0],[-138.5653,-20.7772,0.0],[-138.5625,-20.7736,1.0094],[-138.5553,-20.7747,0.0],[-138.5394,-20.7864,0.0],[-138.5114,-20.8017,2.4791],[-138.5078,-20.8075,1.8031],[-138.5044,-20.8233,0.7096],[-138.5114,-20.8506,1.7047],[-138.5117,-20.8739,2.4397],[-138.5139,-20.8811,0.0],[-138.5211,-20.8842,0.0],[-138.5253,-20.8833,3.0759],[-138.5289,-20.8806,4.2673],[-138.53,-20.8767,0.0],[-138.5353,-20.8711,0.0],[-138.5453,-20.8664,2.7498],[-138.5497,-20.8664,5.0203],[-138.5603,-20.8547,0.5861],[-138.5694,-20.8483,0.9859],[-138.5722,-20.8425,2.387],[-138.5719,-20.8303,3.0436],[-138.5742,-20.8242,1.5866]]],
[[[-139.135,-20.7675,0.0],[-139.1458,-20.7669,0.0],[-139.1525,-20.7733,0.0],[-139.1541,-20.7785,0.0],[-139.1539,-20.7858,0.0],[-139.1503,-20.7942,0.0],[-139.1461,-20.7972,0.0],[-139.1414,-20.7975,0.6554],[-139.1375,-20.7958,0.5697],[-139.1331,-20.7919,0.0],[-139.1292,-20.7844,0.0],[-139.1281,-20.7733,0.0],[-139.135,-20.7675,0.0]]],
[[[-143.0517,-20.6889,1.6248],[-143.0578,-20.6883,0.0],[-143.0589,-20.6922,3.0825],[-143.0506,-20.6944,8.3516],[-143.0475,-20.6992,1.1367],[-143.0464,-20.7067,5.865],[-143.0489,-20.7092,2.0161],[-143.0536,-20.7064,0.0],[-143.0497,-20.71,1.7646],[-143.0506,-20.7111,1.7646],[-143.0597,-20.7046,0.0],[-143.0584,-20.7035,0.0],[-143.0605,-20.7009,0.0],[-143.0635,-20.7001,2.0543],[-143.062,-20.6965,6.6098],[-143.0586,-20.6953,0.0],[-143.0608,-20.69,1.9511],[-143.0686,-20.6922,0.0],[-143.0706,-20.695,0.0],[-143.0703,-20.6975,0.0],[-143.0678,-20.7014,0.0],[-143.0533,-20.7117,0.0],[-143.0478,-20.7147,0.0],[-143.0423,-20.7154,0.0],[-143.0394,-20.7117,0.0],[-143.0431,-20.6969,4.7688],[-143.0517,-20.6889,1.6248]]],
[[[-143.2772,-20.6017,0.0],[-143.2872,-20.601,0.0],[-143.2886,-20.6027,0.0],[-143.2958,-20.6039,1.9158],[-143.2986,-20.6064,0.0],[-143.3,-20.6106,0.0],[-143.2994,-20.6194,0.0],[-143.2932,-20.6288,0.0],[-143.2878,-20.6308,0.0],[-143.2825,-20.6297,0.0],[-143.2758,-20.6231,0.0],[-143.2737,-20.6075,3.723],[-143.2772,-20.6017,0.0]],
[[-143.2933,-20.6103,0.0],[-143.2883,-20.6075,1.9175],[-143.2869,-20.6047,0.6838],[-143.285,-20.6072,0.0],[-143.2786,-20.6061,4.5203],[-143.2769,-20.6083,9.2869],[-143.2781,-20.6114,0.0],[-143.2761,-20.6139,0.0],[-143.28,-20.6161,0.0],[-143.2792,-20.62,11.5094],[-143.2869,-20.6269,1.325],[-143.2869,-20.6244,0.0],[-143.2928,-20.6244,0.0],[-143.2978,-20.6156,0.0],[-143.2933,-20.6103,0.0]]],
[[[-143.5275,-20.4209,0.8115],[-143.5365,-20.4086,0.0],[-143.5425,-20.4169,0.5432],[-143.5342,-20.4192,1.9354],[-143.519,-20.4325,0.992],[-143.5261,-20.4414,0.8148],[-143.5311,-20.4536,2.274],[-143.5364,-20.4556,0.9053],[-143.5558,-20.4417,1.2538],[-143.5494,-20.4381,0.0],[-143.5497,-20.4356,0.9848],[-143.5533,-20.4367,3.3485],[-143.5547,-20.4333,0.0],[-143.5508,-20.4336,0.0],[-143.5478,-20.4308,1.1074],[-143.5444,-20.4261,0.0],[-143.5461,-20.4228,0.0],[-143.5516,-20.4306,0.0],[-143.5633,-20.4369,0.4348],[-143.5645,-20.4412,0.0],[-143.5547,-20.4458,0.0],[-143.54,-20.4575,0.0],[-143.5322,-20.4608,0.0],[-143.5297,-20.4603,0.0],[-143.5261,-20.4556,0.0],[-143.5222,-20.4436,0.0],[-143.5159,-20.4327,0.0],[-143.5166,-20.4291,3.6265],[-143.52,-20.4253,0.0],[-143.5275,-20.4209,0.8115]]],
[[[-144.9533,-19.9014,0.0],[-144.9581,-19.9008,0.0],[-144.9592,-19.9025,0.0],[-144.9561,-19.9053,0.0],[-144.9528,-19.9028,0.0],[-144.9533,-19.9014,0.0]]]]}}