{"type": "Feature","id": "4967","bbox": [-140.72777,-10.55047,-138.62023,-7.95013],"geometry": {"type": "MultiPolygon","coordinates": [[[[-138.63695,-10.54217,0.0],[-138.62023,-10.51084,107.8755],[-138.62043,-10.47186,325.6425],[-138.63671,-10.44061,71.1567],[-138.65046,-10.43141,75.8586],[-138.66519,-10.42734,70.6581],[-138.6988,-10.42645,0.0],[-138.68163,-10.45827,0.0],[-138.6796,-10.47357,0.0],[-138.69445,-10.50791,0.0],[-138.69343,-10.52614,0.0],[-138.68562,-10.54209,0.0],[-138.6715,-10.55047,0.0],[-138.63695,-10.54217,0.0]]],
[[[-139.11848,-10.00018,412.0905],[-139.09586,-9.96168,386.0931],[-139.08239,-9.9472,548.8659],[-139.07665,-9.94459,328.4907],[-139.06664,-9.94329,382.703],[-139.06188,-9.94036,612.2964],[-139.05972,-9.93711,387.8296],[-139.05761,-9.93239,478.2912],[-139.055,-9.9284,300.6262],[-139.05134,-9.92669,286.2809],[-139.04776,-9.92254,141.3676],[-139.05565,-9.91318,34.6186],[-139.06916,-9.9039,32.1304],[-139.08239,-9.89951,48.06],[-139.10383,-9.88828,0.0],[-139.12068,-9.90439,0.0],[-139.13386,-9.92832,0.0],[-139.14444,-9.94036,0.0],[-139.13899,-9.95941,0.0],[-139.14269,-9.97894,0.0],[-139.14387,-9.99782,0.0],[-139.13077,-10.01491,0.0],[-139.11848,-10.00018,412.0905]]],
[[[-138.87694,-9.75433,0.0],[-138.90079,-9.74863,137.4287],[-138.92121,-9.74717,188.1266],[-138.94274,-9.74236,155.396],[-138.96129,-9.73382,0.0],[-138.97252,-9.72064,289.3332],[-138.98453,-9.69948,75.1892],[-139.01537,-9.69443,0.0],[-139.05138,-9.70143,0.0],[-139.13842,-9.75091,0.0],[-139.16942,-9.761,0.0],[-139.17325,-9.77418,0.0],[-139.17032,-9.79013,0.0],[-139.16491,-9.80332,0.0],[-139.15689,-9.8152,0.0],[-139.14346,-9.82887,0.0],[-139.12629,-9.8401,0.0],[-139.08552,-9.84881,21.788],[-139.07136,-9.85475,0.0],[-139.06192,-9.85394,79.5022],[-139.05504,-9.83733,0.0],[-139.05504,-9.80633,378.8923],[-139.04971,-9.80348,132.5043],[-139.03799,-9.80242,49.2659],[-139.02623,-9.8034,161.5162],[-139.0209,-9.80633,97.7097],[-139.00943,-9.80901,101.0185],[-138.95568,-9.80999,0.0],[-138.91662,-9.80657,0.0],[-138.89208,-9.80071,27.7558],[-138.86925,-9.7916,0.0],[-138.81847,-9.74871,0.0],[-138.81404,-9.73952,0.0],[-138.83658,-9.74114,0.0],[-138.84236,-9.74424,0.0],[-138.84801,-9.74896,0.0],[-138.85546,-9.75351,0.0],[-138.86669,-9.75547,0.0],[-138.87694,-9.75433,0.0]]],
[[[-140.05386,-9.34629,6.988],[-140.07673,-9.32342,0.0],[-140.10163,-9.32627,0.0],[-140.12145,-9.34026,0.0],[-140.13948,-9.35784,0.0],[-140.1586,-9.37184,0.0],[-140.1114,-9.43776,0.0],[-140.09284,-9.44752,0.0],[-140.0629,-9.43597,496.3438],[-140.04894,-9.40814,169.5284],[-140.04064,-9.37412,198.1626],[-140.0277,-9.34393,0.0],[-140.04141,-9.35101,0.0],[-140.05386,-9.34629,6.988]]],
[[[-139.58235,-8.86891,0.0],[-139.58947,-8.85801,0.0],[-139.59691,-8.85801,0.0],[-139.63044,-8.89544,0.0],[-139.62621,-8.91082,0.0],[-139.61803,-8.92498,0.0],[-139.6127,-8.93922,0.0],[-139.61677,-8.9542,0.0],[-139.6031,-8.93694,20.6366],[-139.5856,-8.92946,109.9511],[-139.54166,-8.9262,139.9938],[-139.52343,-8.92156,112.4709],[-139.50841,-8.91204,320.6275],[-139.50316,-8.89902,0.0],[-139.51439,-8.88397,28.6725],[-139.54699,-8.86712,0.0],[-139.55842,-8.86468,0.0],[-139.57445,-8.87021,0.0],[-139.58235,-8.86891,0.0]]],
[[[-140.2167,-8.78102,0.0],[-140.24779,-8.78688,0.0],[-140.26106,-8.82317,0.0],[-140.25894,-8.8305,0.0],[-140.24958,-8.83864,49.5461],[-140.24743,-8.84734,29.9066],[-140.24519,-8.86688,0.0],[-140.23477,-8.91286,0.0],[-140.22769,-8.92702,0.0],[-140.20702,-8.93939,122.8639],[-140.19433,-8.95037,142.9205],[-140.18322,-8.95371,248.5223],[-140.17854,-8.93678,650.1526],[-140.16991,-8.92946,30.0105],[-140.12999,-8.91644,512.8503],[-140.11767,-8.90569,199.1723],[-140.11022,-8.90569,129.1192],[-140.09602,-8.91904,0.0],[-140.07665,-8.91522,244.5787],[-140.06054,-8.9,201.389],[-140.05557,-8.87851,121.5951],[-140.03132,-8.89446,134.4022],[-140.01915,-8.89642,87.7207],[-140.01403,-8.88112,128.6761],[-140.01598,-8.85931,37.4534],[-140.02229,-8.84677,17.9525],[-140.04943,-8.82317,204.2838],[-140.03942,-8.80706,0.0],[-140.03222,-8.79876,0.0],[-140.02953,-8.79648,0.0],[-140.02774,-8.79372,0.0],[-140.0277,-8.789,0.0],[-140.03742,-8.79225,0.0],[-140.05142,-8.80047,25.0208],[-140.05899,-8.80202,0.0],[-140.08971,-8.80202,0.0],[-140.2167,-8.78102,0.0]]],
[[[-140.70783,-8.03973,274.3125],[-140.69888,-8.02899,187.9706],[-140.69245,-8.01507,2.587],[-140.68391,-7.98528,461.7837],[-140.67565,-7.97674,332.0726],[-140.65831,-7.9734,399.4721],[-140.65307,-7.9708,228.5923],[-140.63842,-7.95973,0.5743],[-140.67317,-7.95013,0.0],[-140.70637,-7.96307,0.0],[-140.72777,-7.99147,0.0],[-140.72716,-8.02809,0.0],[-140.71776,-8.04127,0.0],[-140.70783,-8.03973,274.3125]]]]}
,"properties": {"ISO3166-1-Alpha-3": "PYF","country": "French Polynesia","fill": "#F0F","name": "Marquesas Islands","area_km2": 1078.7923,"hist_schema_id": "Elevation0-9000","hist_area_km2": {"0": 217.7663,"25": 23.8506,"50": 27.428,"75": 31.7193,"100": 32.4485,"125": 35.9599,"150": 35.3723,"175": 37.34,"200": 37.1727,"225": 36.3745,"250": 36.9577,"275": 34.5673,"300": 32.7312,"325": 32.8187,"350": 29.9524,"375": 28.5511,"400": 27.5877,"425": 27.3139,"450": 27.5443,"475": 25.1134,"500": 22.8782,"525": 23.6052,"550": 21.9518,"575": 20.9078,"600": 16.4137,"625": 14.0926,"650": 15.7264,"675": 14.2454,"700": 12.6784,"725": 11.4448,"750": 9.2692,"775": 9.1464,"800": 12.4149,"825": 15.0969,"850": 7.5359,"875": 4.7501,"900": 4.5828,"925": 3.6203,"950": 3.9548,"975": 2.7841,"1000": 2.8888,"1025": 2.5957,"1050": 2.009,"1075": 1.5903,"1100": 1.4651,"1125": 0.9629,"1150": 0.9836,"1175": 0.3976,"1200": 0.1463,"1225": 0.0836}}}