{"type":"Feature","properties":{"GID_1":"PYF.3_1","GID_0":"PYF","country":"FrenchPolynesia","province":"ÎlesMarquises","VARNAME_1":"Marquises|MarquesasIslands","NL_NAME_1":"NA","TYPE_1":"Subdivisionsadministratives","ENGTYPE_1":"Administrativesubdivisions","CC_1":"NA","HASC_1":"PF.MI","ISO_1":"NA","name":"Îles_Marquises.province"},
"geometry":{"type": "MultiPolygon","coordinates": [[[[-139.0669,-9.8908,0.4318],[-139.0703,-9.8881,2.7142],[-139.0746,-9.8914,16.8158],[-139.0758,-9.8956,8.9878],[-139.078,-9.8914,15.0972],[-139.08,-9.8917,2.0596],[-139.0831,-9.8955,4.2236],[-139.0864,-9.8917,4.5863],[-139.0897,-9.8925,1.7248],[-139.0927,-9.8958,13.9662],[-139.0975,-9.8933,2.2376],[-139.1006,-9.8969,0.0],[-139.0996,-9.8996,4.7085],[-139.1027,-9.9005,3.6577],[-139.1032,-9.9038,15.9994],[-139.1057,-9.9052,0.0],[-139.1027,-9.9085,2.324],[-139.1078,-9.9094,0.0],[-139.1065,-9.9141,5.4691],[-139.1095,-9.916,3.2286],[-139.1134,-9.9161,4.2762],[-139.1133,-9.9231,40.6572],[-139.1186,-9.9292,15.1225],[-139.1173,-9.9322,0.0],[-139.1119,-9.9336,30.5414],[-139.1102,-9.9364,4.9794],[-139.1131,-9.9408,1.4777],[-139.1164,-9.9389,0.0],[-139.1203,-9.9428,0.0],[-139.1206,-9.9475,48.218],[-139.1178,-9.9523,3.1646],[-139.1224,-9.957,50.5286],[-139.1214,-9.96,0.0],[-139.1191,-9.9598,0.0],[-139.1179,-9.9613,8.1996],[-139.1194,-9.9667,26.4379],[-139.1241,-9.9696,11.7776],[-139.1296,-9.9683,23.5096],[-139.1328,-9.9783,0.0],[-139.1286,-9.9797,14.7864],[-139.1286,-9.9824,11.8452],[-139.1311,-9.9831,81.3515],[-139.1306,-9.9882,158.9442],[-139.1322,-9.99,0.0],[-139.1293,-9.9933,42.676],[-139.1308,-10.0008,72.6451],[-139.13,-10.0028,2.2238],[-139.1253,-10.0028,0.0],[-139.1278,-10.0044,0.0],[-139.1255,-10.0064,0.0],[-139.1245,-10.01,11.4417],[-139.1255,-10.0114,0.0],[-139.1156,-10.027,0.0],[-139.1142,-10.0253,0.0],[-139.1159,-10.0225,7.1732],[-139.1142,-10.0175,53.4474],[-139.1113,-10.0173,56.4432],[-139.1111,-10.0189,4.7547],[-139.1095,-10.0175,6.4504],[-139.1114,-10.0094,174.438],[-139.1095,-10.0089,16.1483],[-139.1097,-10.0069,66.3865],[-139.1061,-10.0056,0.0583],[-139.1075,-10.0028,38.167],[-139.1067,-9.9867,65.4165],[-139.1025,-9.9836,0.0],[-139.0983,-9.9858,2.4305],[-139.0964,-9.9889,0.0],[-139.0945,-9.9889,0.0],[-139.0943,-9.9836,8.5918],[-139.0956,-9.9817,0.0],[-139.0933,-9.9727,15.0069],[-139.0835,-9.9699,0.0],[-139.078,-9.9667,0.0],[-139.0764,-9.9683,0.0],[-139.0769,-9.9653,8.5521],[-139.0719,-9.9639,16.9259],[-139.078,-9.9586,3.0889],[-139.0756,-9.9564,0.0],[-139.0721,-9.956,35.0062],[-139.0703,-9.9519,29.5422],[-139.0665,-9.9545,17.7128],[-139.0628,-9.9511,38.2458],[-139.0606,-9.9544,0.8027],[-139.0589,-9.9529,3.4905],[-139.0572,-9.9544,0.0],[-139.0561,-9.9536,0.0],[-139.0572,-9.9508,26.2228],[-139.0548,-9.9496,0.0],[-139.0431,-9.9606,2.993],[-139.0446,-9.9522,57.1362],[-139.0393,-9.9486,1.3131],[-139.0376,-9.944,128.8185],[-139.035,-9.9428,53.8482],[-139.0413,-9.9353,3.0151],[-139.0354,-9.9348,0.0],[-139.035,-9.9292,0.0],[-139.0396,-9.9295,8.6518],[-139.0378,-9.9258,4.2129],[-139.04,-9.9214,2.2803],[-139.0447,-9.9169,3.4777],[-139.0486,-9.9169,3.885],[-139.0467,-9.9133,1.3654],[-139.05,-9.9131,9.4144],[-139.0497,-9.9111,0.0],[-139.0528,-9.9139,15.6462],[-139.0549,-9.9122,2.9254],[-139.0506,-9.9056,0.0],[-139.0511,-9.9042,0.0],[-139.056,-9.9053,27.7234],[-139.0564,-9.9028,0.0],[-139.0583,-9.9024,2.7385],[-139.0665,-9.9051,5.5299],[-139.0662,-9.9018,6.6137],[-139.0684,-9.9001,0.9178],[-139.0666,-9.8974,0.0],[-139.0675,-9.896,75.8039],[-139.0628,-9.8919,0.9116],[-139.0647,-9.8906,0.0],[-139.0658,-9.8922,8.9638],[-139.0669,-9.8908,0.4318]]],
[[[-139.0397,-9.8167,0.0],[-139.0383,-9.8158,0.0],[-139.0408,-9.8133,0.7612],[-139.0424,-9.8156,6.8048],[-139.0397,-9.8167,0.0]]],
[[[-138.9827,-9.7006,0.0],[-138.9853,-9.6969,0.0],[-138.989,-9.6998,71.1492],[-138.9925,-9.6972,0.0],[-138.9942,-9.6989,0.0],[-138.9911,-9.7028,103.2052],[-138.9931,-9.7033,4.3459],[-138.997,-9.7024,10.2008],[-138.9981,-9.7,10.4371],[-139.0061,-9.6985,6.7056],[-139.0108,-9.7067,6.5933],[-139.0148,-9.7086,0.0],[-139.0133,-9.7156,20.2221],[-139.0144,-9.7175,0.0],[-139.0189,-9.7156,15.0849],[-139.0208,-9.7111,0.0],[-139.0272,-9.7114,138.8639],[-139.0289,-9.7094,0.0],[-139.0369,-9.7067,59.6664],[-139.0399,-9.7037,3.6786],[-139.0403,-9.7064,40.8137],[-139.0456,-9.7103,0.0],[-139.045,-9.714,23.5489],[-139.0511,-9.7127,0.0],[-139.0498,-9.7154,38.1741],[-139.0514,-9.7189,0.0],[-139.0544,-9.7161,0.0],[-139.0571,-9.7165,31.0584],[-139.0622,-9.7217,0.0],[-139.062,-9.7247,0.0],[-139.0636,-9.7269,7.6098],[-139.0661,-9.725,4.1457],[-139.0685,-9.7258,7.825],[-139.0715,-9.7286,15.075],[-139.0714,-9.7322,4.8311],[-139.0752,-9.7322,15.9633],[-139.0747,-9.7344,9.1517],[-139.0803,-9.7325,0.0],[-139.0828,-9.7333,4.8853],[-139.0854,-9.7365,29.7432],[-139.085,-9.7389,9.2506],[-139.0884,-9.742,26.8995],[-139.0919,-9.7389,2.0429],[-139.0933,-9.74,0.0],[-139.093,-9.7431,4.5152],[-139.0985,-9.7442,0.0],[-139.0981,-9.7481,27.9717],[-139.0997,-9.7494,0.0],[-139.1017,-9.7456,0.0],[-139.1056,-9.7439,0.0],[-139.1108,-9.7462,0.0],[-139.1156,-9.7453,3.5967],[-139.1277,-9.748,10.2806],[-139.1285,-9.7533,17.4395],[-139.1324,-9.7495,0.0],[-139.1335,-9.7531,22.8872],[-139.1362,-9.7544,6.3965],[-139.1403,-9.7678,1.1956],[-139.1422,-9.7631,17.8816],[-139.1458,-9.7621,34.2196],[-139.1467,-9.7575,2.9337],[-139.15,-9.7581,0.0],[-139.1631,-9.7728,0.0],[-139.1642,-9.7758,0.0],[-139.1597,-9.7825,10.4861],[-139.1566,-9.7842,182.6007],[-139.1522,-9.8019,0.0],[-139.1478,-9.8036,15.7514],[-139.1463,-9.8073,6.8136],[-139.1431,-9.8083,64.8183],[-139.1405,-9.812,13.0035],[-139.1405,-9.8183,2.5423],[-139.1356,-9.8231,0.8265],[-139.1356,-9.8264,0.0],[-139.1328,-9.8289,9.8809],[-139.1281,-9.83,0.0],[-139.1261,-9.8339,0.0],[-139.1217,-9.8328,0.0],[-139.1189,-9.8372,0.0],[-139.1158,-9.8386,5.7453],[-139.1147,-9.8436,0.0],[-139.1099,-9.8397,18.4001],[-139.1087,-9.8429,0.0],[-139.1063,-9.8417,2.395],[-139.1024,-9.8467,11.6087],[-139.0977,-9.8489,3.4686],[-139.0933,-9.8468,2.1019],[-139.0901,-9.8495,10.9001],[-139.085,-9.8484,21.788],[-139.084,-9.8515,0.0],[-139.0759,-9.8507,25.8164],[-139.0757,-9.8528,-0.0891],[-139.0689,-9.8508,32.9473],[-139.065,-9.8552,5.7637],[-139.0613,-9.8559,4.1983],[-139.056,-9.8603,0.0],[-139.0498,-9.8612,12.3456],[-139.0456,-9.8578,72.9405],[-139.0448,-9.8601,0.0],[-139.0386,-9.8542,0.0],[-139.0389,-9.8513,79.0642],[-139.0361,-9.8509,0.0],[-139.0358,-9.8486,10.761],[-139.0414,-9.8461,0.0],[-139.048,-9.8461,0.0],[-139.0556,-9.8419,38.3793],[-139.0608,-9.8353,0.0],[-139.0597,-9.8275,2.0563],[-139.0514,-9.8153,2.9367],[-139.0423,-9.8116,0.0],[-139.0403,-9.8064,0.0],[-139.0382,-9.8054,4.0025],[-139.0356,-9.8075,0.4527],[-139.0314,-9.8019,5.1865],[-139.0303,-9.8031,23.8105],[-139.0322,-9.8056,3.4078],[-139.0322,-9.8094,23.4393],[-139.0303,-9.8111,0.9357],[-139.0247,-9.8089,8.985],[-139.0189,-9.8117,0.0],[-139.0164,-9.8078,6.8274],[-139.0136,-9.8111,30.9079],[-139.0089,-9.8122,4.1557],[-139.0042,-9.8064,0.0],[-139.0036,-9.8114,0.0],[-138.9953,-9.8125,38.2341],[-138.9914,-9.8114,26.4465],[-138.9894,-9.8136,0.0],[-138.9886,-9.8081,0.0],[-138.9875,-9.8069,5.3154],[-138.9845,-9.8081,0.0],[-138.9845,-9.8019,21.435],[-138.9825,-9.8006,45.7715],[-138.9797,-9.8078,8.7005],[-138.9779,-9.8073,8.4983],[-138.9774,-9.82,0.0],[-138.9659,-9.8193,0.0],[-138.9661,-9.8066,0.0],[-138.9647,-9.8083,0.0],[-138.9594,-9.8083,0.0],[-138.9511,-9.805,0.0],[-138.9492,-9.8033,0.0],[-138.9492,-9.7972,3.9633],[-138.9439,-9.8028,19.4696],[-138.9403,-9.8028,16.1878],[-138.9408,-9.8056,0.0],[-138.9394,-9.8072,1.8059],[-138.9356,-9.8056,51.6816],[-138.9339,-9.8078,7.1816],[-138.925,-9.8083,0.0],[-138.9233,-9.8014,14.7614],[-138.922,-9.8042,0.0],[-138.9161,-9.8067,0.0],[-138.9133,-9.8097,0.0],[-138.9108,-9.8069,0.0],[-138.9111,-9.8014,8.7192],[-138.9092,-9.7992,4.8069],[-138.9078,-9.8044,21.8863],[-138.9053,-9.8053,11.9895],[-138.9039,-9.8022,108.9582],[-138.9008,-9.8083,0.0],[-138.8978,-9.8033,11.4269],[-138.8953,-9.8025,12.5719],[-138.891,-9.8151,0.0],[-138.8851,-9.8126,0.0],[-138.889,-9.8016,0.0],[-138.888,-9.7998,0.0],[-138.8831,-9.8003,0.0],[-138.8795,-9.7968,0.0],[-138.8764,-9.8074,0.0],[-138.8696,-9.8046,0.0],[-138.8717,-9.7933,0.0],[-138.8631,-9.7883,0.0],[-138.8639,-9.7867,10.8617],[-138.8619,-9.785,0.3212],[-138.8525,-9.7839,0.5648],[-138.8542,-9.7804,80.6249],[-138.8447,-9.7744,99.0569],[-138.8371,-9.7733,0.0],[-138.8334,-9.769,183.2671],[-138.8311,-9.7693,2.4224],[-138.8303,-9.7671,161.4505],[-138.827,-9.7708,2.8024],[-138.8228,-9.7719,0.0],[-138.8192,-9.7697,0.0],[-138.8178,-9.7714,0.0],[-138.815,-9.7703,0.0],[-138.8153,-9.7665,11.4984],[-138.8067,-9.7658,7.5093],[-138.8064,-9.7635,71.9499],[-138.8089,-9.7617,110.7536],[-138.8067,-9.7565,192.7766],[-138.8011,-9.7527,3.0573],[-138.8012,-9.7495,52.1345],[-138.797,-9.745,0.0],[-138.8038,-9.7411,0.0],[-138.8089,-9.7406,3.7867],[-138.8092,-9.7431,35.8026],[-138.8117,-9.745,12.4362],[-138.8106,-9.7461,12.4362],[-138.8113,-9.7498,74.854],[-138.8164,-9.7525,0.0],[-138.8206,-9.7578,0.0],[-138.8306,-9.7639,34.4801],[-138.8361,-9.7639,0.0],[-138.8389,-9.7681,48.452],[-138.845,-9.7706,9.6517],[-138.8472,-9.7706,2.3584],[-138.8483,-9.7672,0.0],[-138.8439,-9.7614,0.0],[-138.8475,-9.7586,2.3705],[-138.8511,-9.7622,73.1909],[-138.8522,-9.7581,0.0],[-138.8544,-9.7608,0.0],[-138.8578,-9.7611,0.0],[-138.8631,-9.7575,0.0],[-138.8675,-9.7639,9.3935],[-138.8683,-9.7597,16.5485],[-138.8719,-9.7583,0.0],[-138.8739,-9.7622,13.7253],[-138.8811,-9.7644,0.0],[-138.885,-9.7606,0.0],[-138.8828,-9.7553,2.544],[-138.8797,-9.7528,0.0],[-138.8811,-9.7514,0.0],[-138.8806,-9.7481,0.0],[-138.8814,-9.7467,0.0],[-138.8842,-9.7492,7.973],[-138.887,-9.7478,60.7893],[-138.8876,-9.7445,0.0],[-138.8903,-9.7441,0.0],[-138.8942,-9.7376,0.0],[-138.8983,-9.7392,0.0],[-138.8986,-9.7372,0.0],[-138.9008,-9.7375,0.0],[-138.9042,-9.7443,0.0],[-138.9053,-9.7431,49.08],[-138.9044,-9.7358,0.0],[-138.9061,-9.7353,4.6137],[-138.9078,-9.7381,5.6188],[-138.9094,-9.7364,2.7973],[-138.9122,-9.7378,4.4229],[-138.9186,-9.7336,0.1202],[-138.9183,-9.7358,12.6268],[-138.9208,-9.7347,0.0],[-138.9214,-9.7383,0.0],[-138.9231,-9.7392,0.0],[-138.9253,-9.7322,0.0],[-138.9281,-9.7386,5.7171],[-138.9303,-9.7333,3.6761],[-138.9342,-9.7376,0.0],[-138.937,-9.7358,0.0],[-138.9373,-9.7401,17.0069],[-138.9403,-9.7392,55.1178],[-138.9404,-9.7358,0.0],[-138.9468,-9.7389,18.6881],[-138.96,-9.7394,0.0],[-138.9622,-9.7372,0.0],[-138.9614,-9.7342,0.0],[-138.9633,-9.7319,0.0],[-138.9647,-9.7217,53.3098],[-138.9636,-9.7161,0.0],[-138.9677,-9.7161,19.1257],[-138.9693,-9.7137,131.694],[-138.9688,-9.7087,7.1416],[-138.9739,-9.7034,61.4915],[-138.9808,-9.7037,41.4819],[-138.9827,-9.7006,0.0]]],
[[[-138.9305,-9.4382,0.6426],[-138.9297,-9.4374,1.5065],[-138.9336,-9.4369,21.0187],[-138.9367,-9.4394,12.838],[-138.9349,-9.44,0.0],[-138.9305,-9.4382,0.6426]]],
[[[-138.9245,-9.4331,82.1073],[-138.9279,-9.4349,66.8391],[-138.9299,-9.4336,0.0],[-138.9283,-9.4363,33.0575],[-138.9292,-9.4385,4.3258],[-138.9259,-9.4374,186.9043],[-138.9219,-9.4399,0.0],[-138.9195,-9.4393,-0.949],[-138.9203,-9.4365,0.6291],[-138.9245,-9.4331,82.1073]]],
[[[-139.5516,-8.9436,2.4163],[-139.5497,-8.9439,0.0],[-139.5501,-8.9411,0.0],[-139.5526,-8.9424,4.0362],[-139.5516,-8.9436,2.4163]]],
[[[-139.5287,-8.9381,0.348],[-139.5279,-8.9359,1.5013],[-139.529,-8.9343,0.0],[-139.5303,-8.9361,6.9878],[-139.5287,-8.9381,0.348]]],
[[[-139.5475,-8.8686,4.7933],[-139.55,-8.8672,13.8023],[-139.5514,-8.8619,0.0],[-139.5527,-8.8653,15.9739],[-139.5583,-8.8675,0.0],[-139.5611,-8.8711,35.3937],[-139.5622,-8.8686,3.9565],[-139.5653,-8.8689,2.7026],[-139.5694,-8.875,78.7192],[-139.5739,-8.8736,4.7249],[-139.5761,-8.8758,4.7498],[-139.5778,-8.8742,86.6888],[-139.5775,-8.8708,0.0],[-139.5867,-8.8691,0.0],[-139.5876,-8.8724,182.7959],[-139.586,-8.8762,39.2203],[-139.5888,-8.8768,0.0],[-139.5887,-8.8805,5.3455],[-139.593,-8.8842,56.8392],[-139.596,-8.8826,0.0],[-139.5935,-8.8862,41.7935],[-139.5961,-8.8869,11.1308],[-139.5936,-8.8883,81.3222],[-139.6003,-8.8911,15.9265],[-139.5997,-8.895,16.5095],[-139.6056,-8.8942,0.0],[-139.6088,-8.9002,0.0],[-139.6098,-8.9059,15.6958],[-139.6136,-8.9103,0.0],[-139.6144,-8.9224,0.0],[-139.6106,-8.9271,41.4769],[-139.6133,-8.9292,0.0],[-139.6131,-8.9308,0.0],[-139.6096,-8.9325,6.0264],[-139.6075,-8.9306,12.9447],[-139.6021,-8.9373,125.5929],[-139.6054,-8.9462,0.0],[-139.6034,-8.9474,0.0],[-139.5994,-8.9389,36.3516],[-139.5981,-8.9394,100.6341],[-139.598,-8.9431,1.9065],[-139.5958,-8.9426,9.0353],[-139.5936,-8.9442,68.2731],[-139.5906,-8.9514,0.0],[-139.5856,-8.9514,4.881],[-139.5842,-8.9528,4.881],[-139.5825,-8.9517,4.5596],[-139.5806,-8.9547,0.0],[-139.5722,-8.9475,17.047],[-139.5716,-8.9439,56.3896],[-139.5743,-8.94,61.6394],[-139.5744,-8.9371,8.0963],[-139.5728,-8.9372,28.8999],[-139.5728,-8.9393,24.1535],[-139.5685,-8.9443,15.1692],[-139.5628,-8.9389,10.9085],[-139.5603,-8.9408,5.37],[-139.5583,-8.94,2.5576],[-139.5536,-8.9417,0.0],[-139.5464,-8.9367,0.0],[-139.5483,-8.9342,3.6549],[-139.5447,-8.9341,0.0],[-139.544,-8.9313,8.537],[-139.5397,-8.9358,3.3995],[-139.5375,-8.9347,1.5755],[-139.5354,-8.9328,30.0526],[-139.5338,-8.9258,45.3372],[-139.531,-8.9293,18.205],[-139.5311,-8.9325,0.0],[-139.5261,-8.9314,0.5719],[-139.5257,-8.9337,0.4858],[-139.5206,-8.9281,1.0127],[-139.5175,-8.9289,55.9215],[-139.5152,-8.9338,0.0],[-139.5133,-8.9338,0.0],[-139.5148,-8.9468,0.0],[-139.5028,-8.9502,0.0],[-139.5005,-8.9402,0.0],[-139.4961,-8.937,104.5024],[-139.494,-8.9375,108.7785],[-139.4934,-8.9411,0.0],[-139.49,-8.9419,0.1403],[-139.49,-8.94,0.0962],[-139.4925,-8.9394,28.2151],[-139.4925,-8.9381,28.2151],[-139.4906,-8.9397,0.0962],[-139.4875,-8.9372,4.2053],[-139.4859,-8.9297,4.1497],[-139.4868,-8.9282,1.9217],[-139.4889,-8.9285,0.9232],[-139.4904,-8.9302,1.408],[-139.4887,-8.9304,1.6742],[-139.4894,-8.9333,12.7836],[-139.4911,-8.9314,0.0],[-139.4925,-8.9325,11.614],[-139.4933,-8.9306,8.4384],[-139.4911,-8.9294,0.0],[-139.4894,-8.9256,33.1792],[-139.4842,-8.9261,6.2703],[-139.4867,-8.9211,0.0],[-139.4911,-8.9208,0.0],[-139.4886,-8.9164,0.0],[-139.485,-8.9142,0.0],[-139.4911,-8.9067,0.0],[-139.4983,-8.9064,3.0939],[-139.4933,-8.9022,2.5723],[-139.4933,-8.8997,0.0],[-139.4972,-8.8975,0.0],[-139.498,-8.8919,6.6502],[-139.5019,-8.8878,63.0929],[-139.5012,-8.8856,1.6647],[-139.5044,-8.8861,18.6866],[-139.5044,-8.8833,12.6248],[-139.5082,-8.8816,10.0542],[-139.5128,-8.8858,4.5051],[-139.5144,-8.8814,2.755],[-139.5183,-8.8856,30.8108],[-139.5189,-8.8817,39.8726],[-139.5175,-8.8797,0.0],[-139.5193,-8.8792,19.9483],[-139.5203,-8.8733,0.0],[-139.5231,-8.8781,41.8227],[-139.5264,-8.8707,1.6804],[-139.5292,-8.8717,39.5684],[-139.5325,-8.8703,8.1014],[-139.5356,-8.8714,8.9726],[-139.5367,-8.8742,35.8681],[-139.538,-8.8679,0.0],[-139.5397,-8.8678,0.0],[-139.5417,-8.8719,18.7934],[-139.5438,-8.8684,31.0741],[-139.5475,-8.8686,4.7933]]],
[[[-140.0453,-9.4844,3.8798],[-140.0432,-9.4826,34.1401],[-140.0444,-9.4792,0.0],[-140.0474,-9.475,2.6062],[-140.0492,-9.475,0.0],[-140.0508,-9.4793,59.1491],[-140.0453,-9.4844,3.8798]]],
[[[-140.1288,-9.4018,69.7796],[-140.128,-9.4024,69.7796],[-140.1274,-9.4049,0.0537],[-140.1233,-9.4052,0.0],[-140.1235,-9.4068,0.0],[-140.1219,-9.4076,120.7639],[-140.123,-9.4102,0.0],[-140.1203,-9.4085,43.7766],[-140.1197,-9.4131,0.0],[-140.1142,-9.4167,0.0],[-140.1139,-9.4228,0.0],[-140.109,-9.4233,1.7611],[-140.1086,-9.4297,0.0],[-140.1053,-9.4307,15.5797],[-140.1049,-9.4325,0.0],[-140.1011,-9.4318,16.7672],[-140.0961,-9.4344,11.5155],[-140.0978,-9.4389,0.0],[-140.0961,-9.4403,71.9125],[-140.0958,-9.4437,5.1872],[-140.089,-9.4435,0.0],[-140.0914,-9.4478,0.0],[-140.0875,-9.4492,23.5243],[-140.0867,-9.4542,2.3979],[-140.0786,-9.4558,0.0],[-140.0772,-9.454,42.7736],[-140.0762,-9.4549,0.0],[-140.078,-9.4588,0.0],[-140.0764,-9.4619,0.0],[-140.0749,-9.4612,39.6883],[-140.0738,-9.4631,0.0],[-140.0717,-9.461,76.0184],[-140.0714,-9.4624,1.764],[-140.0686,-9.4618,7.8517],[-140.0657,-9.464,0.0752],[-140.0642,-9.461,65.8157],[-140.0567,-9.4643,112.2535],[-140.0558,-9.4674,0.0],[-140.0533,-9.4652,9.1308],[-140.0514,-9.4683,0.0],[-140.0525,-9.4653,0.0],[-140.0499,-9.4611,0.0],[-140.0489,-9.4539,0.0],[-140.0464,-9.4509,9.8303],[-140.0415,-9.453,0.0],[-140.0413,-9.4514,0.0],[-140.0361,-9.4481,0.0],[-140.0386,-9.4408,0.0],[-140.0383,-9.4361,0.0],[-140.0435,-9.4363,22.9544],[-140.0453,-9.4344,14.1924],[-140.0419,-9.4317,0.0],[-140.0353,-9.4306,8.0337],[-140.0361,-9.4261,0.0],[-140.0389,-9.4244,24.4932],[-140.0334,-9.4236,0.0],[-140.0372,-9.4214,17.0611],[-140.0321,-9.418,0.0],[-140.0306,-9.4125,32.3755],[-140.0322,-9.4097,0.0],[-140.0369,-9.4078,18.0633],[-140.0294,-9.4056,0.0],[-140.0283,-9.4016,0.0],[-140.0303,-9.3983,7.0461],[-140.0291,-9.3955,17.0428],[-140.0311,-9.3931,24.2364],[-140.0283,-9.3925,8.5658],[-140.0272,-9.3897,25.4278],[-140.0242,-9.3878,0.0],[-140.0269,-9.3853,9.0655],[-140.0363,-9.3848,11.1822],[-140.0369,-9.3825,10.1463],[-140.0308,-9.3769,2.9857],[-140.0236,-9.3753,0.0],[-140.0239,-9.3678,0.0],[-140.0194,-9.3633,1.195],[-140.012,-9.3637,0.0],[-140.0104,-9.3616,15.5395],[-140.0186,-9.3594,0.0],[-140.0217,-9.3639,4.5023],[-140.0243,-9.3626,0.0],[-140.0269,-9.3647,25.0828],[-140.0333,-9.3575,0.0],[-140.0374,-9.3614,18.716],[-140.0399,-9.3617,17.03],[-140.0403,-9.3592,5.4688],[-140.0378,-9.3567,0.0],[-140.0397,-9.3544,0.0],[-140.0464,-9.3561,0.0],[-140.0483,-9.3594,0.0],[-140.0511,-9.3533,13.833],[-140.0503,-9.3508,0.0],[-140.0547,-9.3461,0.0],[-140.0589,-9.3467,48.9526],[-140.0636,-9.3394,0.0],[-140.0655,-9.3422,11.5484],[-140.0703,-9.3392,5.6737],[-140.0697,-9.3347,4.8692],[-140.0797,-9.3373,11.8113],[-140.0817,-9.3339,0.0],[-140.0825,-9.3424,0.0],[-140.0842,-9.3442,0.0],[-140.0869,-9.3428,0.0],[-140.0914,-9.3453,1.8804],[-140.0919,-9.3411,0.0],[-140.0964,-9.3428,0.0],[-140.0964,-9.3462,0.0],[-140.1003,-9.3478,0.0],[-140.1014,-9.3531,3.6488],[-140.1044,-9.3528,0.0],[-140.1031,-9.3558,9.4542],[-140.1041,-9.3585,21.6015],[-140.1067,-9.3589,28.9547],[-140.1078,-9.3556,0.0],[-140.1125,-9.3581,49.3413],[-140.1134,-9.3601,0.0],[-140.1113,-9.3617,17.6577],[-140.1122,-9.3671,5.2257999999999996],[-140.1149,-9.3708,0.0],[-140.1197,-9.3719,0.0],[-140.1233,-9.3781,26.7741],[-140.1255,-9.3786,15.6895],[-140.1278,-9.3769,0.0],[-140.1282,-9.3824,5.9532],[-140.1361,-9.3805,0.0],[-140.1319,-9.386,0.0],[-140.1272,-9.3856,0.0],[-140.1272,-9.3897,0.0],[-140.1303,-9.3958,0.0],[-140.1272,-9.3978,0.0],[-140.1314,-9.3997,0.0],[-140.1305,-9.4019,2.0327],[-140.1288,-9.4018,69.7796]]],
[[[-139.5958,-8.9558,3.5981],[-139.5975,-8.9544,0.0],[-139.6003,-8.9561,6.0241],[-139.5969,-8.9578,5.8901],[-139.5958,-8.9558,3.5981]]],
[[[-139.5933,-8.9553,3.916],[-139.5914,-8.9542,1.1678],[-139.5947,-8.9533,7.6324],[-139.5953,-8.9547,3.5981],[-139.5933,-8.9553,3.916]]],
[[[-140.1283,-9.4027,69.7796],[-140.1283,-9.4024,69.7796],[-140.1286,-9.4024,69.7796],[-140.1286,-9.4027,69.7796],[-140.1283,-9.4027,69.7796]]],
[[[-140.108,-8.9386,0.0],[-140.1084,-8.9363,0.0],[-140.1107,-8.9365,13.2691],[-140.1093,-8.9388,0.8731],[-140.108,-8.9386,0.0]]],
[[[-140.1727,-8.784,14.3629],[-140.1755,-8.7809,0.0],[-140.1808,-8.7825,0.0],[-140.1778,-8.7861,6.4668],[-140.1778,-8.79,1.1277],[-140.1878,-8.7842,0.0],[-140.188,-8.7892,3.7571],[-140.1931,-8.7886,0.0],[-140.195,-8.7922,0.0],[-140.1964,-8.7906,3.1232],[-140.1961,-8.7839,8.3805],[-140.2011,-8.7814,4.6523],[-140.2028,-8.7844,0.0],[-140.2053,-8.7825,0.0],[-140.2094,-8.7836,7.9263],[-140.2131,-8.7875,0.0],[-140.2186,-8.7867,10.3083],[-140.2247,-8.7897,12.2646],[-140.2271,-8.7891,0.0],[-140.2347,-8.7939,6.005],[-140.2378,-8.7933,1.3036],[-140.2406,-8.7975,4.5774],[-140.245,-8.7964,0.0],[-140.2481,-8.8003,2.0146],[-140.2508,-8.8167,0.0],[-140.2478,-8.8256,0.0],[-140.2525,-8.8244,0.0],[-140.2527,-8.8322,0.0],[-140.2503,-8.8453,7.8151],[-140.2453,-8.8517,0.0],[-140.2394,-8.8547,0.0],[-140.2428,-8.8581,0.0],[-140.2355,-8.8608,42.8874],[-140.2345,-8.8633,0.0],[-140.2381,-8.8664,7.378],[-140.2325,-8.8692,4.8203],[-140.2353,-8.8736,24.1082],[-140.2297,-8.8828,15.3758],[-140.2297,-8.8894,8.0624],[-140.2325,-8.8917,0.0],[-140.2308,-8.8944,7.6841],[-140.2278,-8.8947,75.8421],[-140.2283,-8.8986,0.0],[-140.2264,-8.9006,36.1003],[-140.2267,-8.9042,22.6219],[-140.2225,-8.9147,0.0],[-140.2261,-8.9161,0.9052],[-140.225,-8.9181,51.9676],[-140.2264,-8.9211,11.1914],[-140.2242,-8.9244,23.8331],[-140.2275,-8.9317,20.462],[-140.22559999999999,-8.9336,0.0],[-140.2217,-8.9297,0.0],[-140.2172,-8.9328,0.0],[-140.215,-8.9314,0.0],[-140.2137,-8.9342,0.0],[-140.2073,-8.9384,122.8639],[-140.2037,-8.9461,0.0],[-140.1984,-8.9464,34.3415],[-140.1993,-8.9491,14.0559],[-140.197,-8.9491,175.9125],[-140.1969,-8.9507,42.3158],[-140.1951,-8.9499,42.3158],[-140.1931,-8.9553,0.0],[-140.1913,-8.9555,46.0671],[-140.1904,-8.9597,12.9723],[-140.1877,-8.9603,154.0213],[-140.1881,-8.9657,0.0],[-140.186,-8.9651,0.0],[-140.1848,-8.9611,181.9186],[-140.1808,-8.9594,106.9084],[-140.1795,-8.9608,42.6526],[-140.1702,-8.9598,1.9129],[-140.1705,-8.9558,144.6452],[-140.1642,-8.958,0.0],[-140.1694,-8.9505,52.9582],[-140.1689,-8.9431,0.0],[-140.1667,-8.9444,0.0],[-140.1628,-8.9422,3.426],[-140.1619,-8.9433,30.7123],[-140.165,-8.9489,2.6688],[-140.1609,-8.9497,0.1625],[-140.1592,-8.9436,23.8133],[-140.157,-8.9414,0.0],[-140.1553,-8.9458,51.1558],[-140.1505,-8.9491,22.2009],[-140.1464,-8.9437,0.0],[-140.1424,-8.9438,0.0],[-140.1414,-8.9418,44.4063],[-140.129,-8.9438,0.2323],[-140.1299,-8.9394,17.8325],[-140.1279,-8.9343,71.5536],[-140.1237,-8.9339,20.4445],[-140.1219,-8.9369,0.0],[-140.1201,-8.9371,0.0],[-140.1217,-8.9314,0.0],[-140.1192,-8.9306,8.5027],[-140.1161,-8.9261,10.9707],[-140.1136,-8.9283,0.0],[-140.1147,-8.9347,0.0],[-140.1133,-8.9356,0.0],[-140.1113,-8.9338,4.9467],[-140.1096,-8.9357,5.0414],[-140.1061,-8.9286,0.0],[-140.1056,-8.9219,14.3596],[-140.1086,-8.9162,0.0],[-140.1064,-8.9133,0.0],[-140.0972,-8.9123,5.5217],[-140.0939,-8.9174,7.9038],[-140.0961,-8.9236,56.4147],[-140.0953,-8.9269,27.2456],[-140.0981,-8.9297,0.0],[-140.0972,-8.9311,0.0],[-140.0947,-8.9306,16.7082],[-140.0933,-8.9331,9.1819],[-140.0959,-8.9398,0.0],[-140.0934,-8.9389,0.0],[-140.0924,-8.9351,8.7387],[-140.088,-8.9356,0.0],[-140.0857,-8.9325,4.6615],[-140.0831,-8.9336,0.0],[-140.0844,-8.9299,0.0],[-140.0814,-8.9276,0.0],[-140.0822,-8.9251,32.4999],[-140.0754,-8.9279,11.7404],[-140.074,-8.9264,11.7404],[-140.0723,-8.9274,0.0],[-140.0712,-8.9247,0.0],[-140.0728,-8.9205,17.6553],[-140.0647,-8.9188,24.9318],[-140.0604,-8.9211,0.0],[-140.0587,-8.9191,10.1665],[-140.0562,-8.9194,0.1313],[-140.0552,-8.9138,68.5118],[-140.0436,-8.9136,0.0],[-140.0418,-8.9106,0.0],[-140.0431,-8.9033,56.5425],[-140.0529,-8.894,0.0],[-140.0511,-8.8886,0.0],[-140.0439,-8.8939,2.2315],[-140.0438,-8.8898,76.4562],[-140.0483,-8.8817,0.0],[-140.0531,-8.8778,19.0586],[-140.0522,-8.8761,14.6647],[-140.0439,-8.8792,13.855],[-140.0364,-8.8864,0.0],[-140.0333,-8.8944,31.6602],[-140.0267,-8.9028,0.0],[-140.0254,-8.9004,0.0],[-140.0278,-8.8908,0.0],[-140.0267,-8.89,0.0],[-140.0233,-8.8939,14.5058],[-140.0214,-8.8975,9.6628],[-140.0217,-8.9002,4.1385],[-140.0144,-8.9103,0.0],[-140.0161,-8.9158,2.2884],[-140.0192,-8.9186,0.0],[-140.018,-8.9228,197.5389],[-140.0199,-8.9247,0.0],[-140.018,-8.9285,0.0],[-140.0115,-8.9241,5.3059],[-140.0105,-8.9189,90.7401],[-140.003,-8.9189,0.0],[-140.003,-8.9009,0.0],[-140.011,-8.9009,13.3343],[-140.0092,-8.892,0.0],[-140.0116,-8.8872,0.0],[-140.0143,-8.8867,61.8649],[-140.0116,-8.8847,0.0],[-140.0112,-8.8824,0.0],[-140.0147,-8.8736,6.7343],[-140.0087,-8.8693,0.0],[-140.0155,-8.8672,0.0],[-140.0136,-8.8654,0.0],[-140.0153,-8.8633,0.0],[-140.0125,-8.8608,11.6799],[-140.0136,-8.8589,3.2298],[-140.0059,-8.8546,0.0],[-140.0056,-8.8528,0.0],[-140.0075,-8.8512,0.0],[-140.0103,-8.8523,6.7859],[-140.0135,-8.851,0.0],[-140.0124,-8.8474,2.3868],[-140.0186,-8.8478,1.757],[-140.0278,-8.8447,17.8589],[-140.0325,-8.8461,1.1509],[-140.0359,-8.8433,12.5095],[-140.0385,-8.8433,18.2986],[-140.0397,-8.8377,0.0],[-140.0425,-8.8387,28.7192],[-140.0476,-8.8347,11.4533],[-140.0479,-8.8327,2.9536],[-140.0464,-8.8281,0.0],[-140.0368,-8.8274,0.0],[-140.0389,-8.8263,8.2794],[-140.039,-8.8218,21.8157],[-140.0344,-8.8167,0.0],[-140.0235,-8.8153,0.0],[-140.0183,-8.8123,33.6286],[-140.0146,-8.807,2.8782],[-140.0094,-8.8045,26.6302],[-140.0084,-8.8016,106.9781],[-140.0107,-8.7984,73.3117],[-140.01,-8.796,1.6295],[-140.0156,-8.7929,0.0],[-140.0167,-8.7992,19.2354],[-140.0266,-8.8048,30.7953],[-140.0263,-8.8029,0.0],[-140.0286,-8.8016,87.7294],[-140.0275,-8.7994,0.0],[-140.0324,-8.8004,13.3789],[-140.0313,-8.7933,12.9478],[-140.0333,-8.79,-0.0811],[-140.0406,-8.8102,40.2428],[-140.046,-8.8167,10.2602],[-140.0492,-8.8154,10.011],[-140.0505,-8.8116,0.0],[-140.047,-8.8024,16.2662],[-140.0492,-8.7945,0.0],[-140.0528,-8.8022,13.4001],[-140.0528,-8.8067,68.0402],[-140.0553,-8.8103,0.0],[-140.0528,-8.8158,57.029],[-140.0535,-8.8237,0.0],[-140.0547,-8.8275,1.7295],[-140.0571,-8.8282,22.9755],[-140.0636,-8.8261,0.0],[-140.0656,-8.8239,0.0],[-140.0653,-8.8208,0.0],[-140.0625,-8.8203,0.0],[-140.0621,-8.8173,42.0219],[-140.0671,-8.8118,0.0],[-140.0661,-8.8031,6.3298],[-140.0703,-8.8033,31.7299],[-140.0722,-8.8017,4.5928],[-140.0753,-8.8067,0.0],[-140.0778,-8.8042,0.0],[-140.0808,-8.8053,3.0554],[-140.0842,-8.8031,0.0],[-140.0839,-8.8053,2.5922],[-140.0794,-8.81,14.2388],[-140.0819,-8.8117,0.0],[-140.0811,-8.8252,2.8493],[-140.0828,-8.8272,0.0],[-140.0864,-8.8278,0.0],[-140.09,-8.8233,14.1932],[-140.0922,-8.8128,0.0],[-140.0936,-8.8164,28.2793],[-140.0958,-8.8142,0.0],[-140.1011,-8.8139,0.0],[-140.1025,-8.8122,17.9917],[-140.1003,-8.81,0.0],[-140.1007,-8.8085,38.1835],[-140.1047,-8.8073,0.0],[-140.1128,-8.8078,0.0],[-140.1117,-8.8111,31.6999],[-140.1128,-8.8133,5.5804],[-140.1161,-8.8139,17.2696],[-140.1189,-8.8114,17.5692],[-140.1222,-8.815,27.8711],[-140.1275,-8.8156,1.6747],[-140.1297,-8.8136,0.0],[-140.1272,-8.8086,19.877],[-140.1281,-8.8028,0.0],[-140.1339,-8.8064,16.6536],[-140.1366,-8.8028,0.0],[-140.1389,-8.8037,1.9452],[-140.1405,-8.8016,1.5738],[-140.142,-8.8049,47.4033],[-140.1472,-8.7986,0.0],[-140.1483,-8.8036,8.3409],[-140.1525,-8.8008,0.0],[-140.1508,-8.8094,0.0],[-140.1567,-8.8033,6.44],[-140.1606,-8.8072,2.5173],[-140.1614,-8.8039,2.3231],[-140.1572,-8.7912,0.0],[-140.1623,-8.792,139.9874],[-140.1683,-8.7811,0.0],[-140.1727,-8.784,14.3629]]],
[[[-140.6049,-8.6766,1.3428],[-140.6078,-8.6764,1.9541],[-140.6095,-8.6775,0.0],[-140.6036,-8.6777,0.0],[-140.6049,-8.6766,1.3428]]],
[[[-140.6167,-8.6756,8.2034],[-140.6187,-8.6746,99.4947],[-140.6203,-8.6765,39.6645],[-140.6192,-8.6781,1.9725],[-140.6158,-8.6777,3.2271],[-140.6167,-8.6756,8.2034]]],
[[[-140.6497,-7.9544,0.0],[-140.6528,-7.9533,0.8937],[-140.655,-7.955,12.6787],[-140.6567,-7.9611,0.0],[-140.6603,-7.9564,8.5552],[-140.6589,-7.9547,0.684],[-140.6608,-7.9536,0.0],[-140.6625,-7.9556,0.0],[-140.6627,-7.9643,107.0477],[-140.6655,-7.9663,118.3384],[-140.6686,-7.9661,0.0],[-140.6722,-7.9614,0.744],[-140.6764,-7.9661,0.0],[-140.6806,-7.9661,0.0],[-140.6861,-7.9697,9.7495],[-140.6883,-7.9683,1.7],[-140.6911,-7.9728,0.0],[-140.6975,-7.9689,0.0],[-140.7008,-7.9742,39.249],[-140.703,-7.9703,0.4833],[-140.7041,-7.9782,206.3402],[-140.71,-7.9792,0.0],[-140.7072,-7.9849,33.372],[-140.7117,-7.9839,0.0],[-140.7131,-7.9858,9.3981],[-140.7086,-7.9944,19.4191],[-140.7133,-7.9944,0.0],[-140.7164,-7.9915,3.6376],[-140.7175,-7.9922,3.6376],[-140.716,-8.0005,228.9633],[-140.7198,-8.008,0.0],[-140.7201,-8.0141,33.3998],[-140.7218,-8.0155,109.3989],[-140.7201,-8.0192,0.0],[-140.7218,-8.0308,91.6519],[-140.7168,-8.0424,108.9688],[-140.7125,-8.0464,0.0],[-140.7056,-8.0477,37.8208],[-140.7031,-8.0431,0.0],[-140.6972,-8.0506,0.0],[-140.6961,-8.0478,1.6166],[-140.6938,-8.0473,0.0],[-140.6942,-8.038,23.7405],[-140.6928,-8.0344,0.0],[-140.6944,-8.0267,7.2516],[-140.6921,-8.0246,0.0],[-140.6926,-8.0209,0.0],[-140.6896,-8.0123,1.3924],[-140.6864,-8.006,1.7255],[-140.6841,-8.0061,2.3613],[-140.6828,-8.0,40.0246],[-140.6625,-7.9889,24.8289],[-140.6558,-7.9883,28.6086],[-140.6494,-7.9897,0.0],[-140.6472,-7.9883,0.0],[-140.6522,-7.9831,121.3663],[-140.6467,-7.9792,0.0],[-140.6444,-7.9794,0.0716],[-140.6394,-7.9739,0.0],[-140.6386,-7.9706,8.038],[-140.6347,-7.9675,0.0],[-140.6364,-7.9658,5.1184],[-140.6358,-7.9625,4.864],[-140.6381,-7.9603,0.5743],[-140.6411,-7.9653,4.8428],[-140.6431,-7.9614,10.8684],[-140.6469,-7.9625,3.3911],[-140.6478,-7.9614,57.7414],[-140.6456,-7.9567,0.0],[-140.6497,-7.9544,0.0]]],
[[[-140.5575,-7.8997,73.9315],[-140.56,-7.8986,53.4652],[-140.5592,-7.8958,0.0],[-140.5608,-7.895,0.0],[-140.5621,-7.8969,0.0],[-140.5614,-7.9003,10.5599],[-140.5658,-7.9041,0.0],[-140.5666,-7.9085,181.6038],[-140.5712,-7.9087,9.0337],[-140.5747,-7.9142,24.5236],[-140.5803,-7.9164,0.0],[-140.5836,-7.9217,114.8424],[-140.5867,-7.9211,0.0],[-140.5886,-7.9236,42.5867],[-140.5975,-7.9275,0.0],[-140.6,-7.9311,1.3853],[-140.5958,-7.9308,49.5464],[-140.5942,-7.9331,0.0],[-140.5917,-7.9306,20.4149],[-140.5894,-7.9342,0.0],[-140.5872,-7.9319,6.8256],[-140.5833,-7.9336,0.0],[-140.5678,-7.9236,13.2942],[-140.5617,-7.9172,248.3036],[-140.5545,-7.9266,0.0],[-140.5479,-7.9203,0.0],[-140.5557,-7.9108,112.9777],[-140.5548,-7.9095,124.5695],[-140.5514,-7.9097,0.0],[-140.5492,-7.9059,0.0],[-140.5504,-7.9035,0.0],[-140.5551,-7.9032,95.8015],[-140.5575,-7.8997,73.9315]]]]}}