{"type": "Feature","id": "4945","bbox": [-176.21931,-22.3388,-175.05089,-21.0626],"geometry": {"type": "MultiPolygon","coordinates": [[[[-176.20702,-22.3388,151.3389],[-176.20185,-22.33611,21.9293],[-176.19811,-22.33196,0.0],[-176.20421,-22.32692,0.0],[-176.21349,-22.32391,0.0],[-176.21825,-22.32488,0.0],[-176.21931,-22.32985,0.0],[-176.21589,-22.33514,0.0],[-176.21019,-22.3388,143.808],[-176.20702,-22.3388,151.3389]]],
[[[-175.31542,-21.12135,5.2546],[-175.32624,-21.11712,0.0],[-175.34081,-21.10263,7.324],[-175.33406,-21.08961,0.0],[-175.31823,-21.07684,0.0],[-175.30578,-21.0626,0.0],[-175.33214,-21.07122,16.3717],[-175.3553,-21.08961,3.8751],[-175.36482,-21.11395,0.0],[-175.35045,-21.14105,0.0],[-175.32575,-21.1736,0.0],[-175.31627,-21.17864,0.0],[-175.30378,-21.18076,0.0],[-175.28962,-21.18597,15.8533],[-175.26484,-21.19964,0.0],[-175.25731,-21.19215,26.2158],[-175.20967,-21.21445,0.0],[-175.19652,-21.22633,0.0],[-175.18049,-21.25506,0.0],[-175.17036,-21.26336,0.0],[-175.14875,-21.268,0.0],[-175.13781,-21.26621,65.1638],[-175.12654,-21.26279,65.3777],[-175.11762,-21.25595,61.5343],[-175.11396,-21.24407,42.8969],[-175.11592,-21.23358,33.7409],[-175.11933,-21.22234,28.0786],[-175.12096,-21.21168,23.1486],[-175.11738,-21.20306,21.3971],[-175.0605,-21.16375,24.627],[-175.05187,-21.15496,25.7496],[-175.05089,-21.13934,23.3365],[-175.05464,-21.13152,9.2594],[-175.06554,-21.12396,0.0],[-175.07738,-21.12151,0.0],[-175.09081,-21.12274,5.3672],[-175.10371,-21.12623,4.8559],[-175.11396,-21.13079,10.1023],[-175.12841,-21.14414,0.0],[-175.13423,-21.15789,0.0],[-175.14013,-21.16839,3.6369],[-175.15498,-21.17181,11.5501],[-175.16308,-21.16937,10.6766],[-175.18078,-21.16009,0.0],[-175.1931,-21.15814,7.1926],[-175.20356,-21.16155,0.0],[-175.21357,-21.16839,0.7935],[-175.22358,-21.17254,0.0],[-175.23408,-21.16863,4.8897],[-175.23823,-21.15838,11.3596],[-175.23131,-21.15008,12.0812],[-175.21638,-21.14105,7.24],[-175.21886,-21.13006,6.3641],[-175.22521,-21.12379,4.3466],[-175.2331,-21.11932,1.9502],[-175.24059,-21.1137,1.8666],[-175.24983,-21.11126,2.6478],[-175.30651,-21.12168,5.6467],[-175.31542,-21.12135,5.2546]]]]}
,"properties": {"ISO3166-1-Alpha-3": "TON","country": "Tonga","fill": "#F0F","name": "Tongatapu","area_km2": 260.4058,"hist_schema_id": "Elevation0-9000","hist_area_km2": {"0": 126.6564,"25": 119.0708,"50": 13.0023,"75": 1.284,"100": 0.0392,"125": 0.0588,"150": 0.0392,"175": 0.1177,"200": 0.0392,"225": 0.0981}}}