{"type": "Feature","bbox": [-175.3567,-21.2731,-174.9739,-21.0425],"geometry": {"type": "MultiPolygon","coordinates": [[[[-175.0906,-21.1958,1.8445],[-175.0844,-21.1872,0.0],[-175.0825,-21.1793,11.6052],[-175.0789,-21.1756,10.0209],[-175.0711,-21.1728,4.6977],[-175.0682,-21.1684,0.0],[-175.055,-21.1678,1.666],[-175.0389,-21.1611,6.442],[-175.0305,-21.1511,0.0],[-175.0312,-21.1475,0.0],[-175.0503,-21.1317,5.5394],[-175.09,-21.1203,2.6154],[-175.0989,-21.1203,0.0],[-175.114,-21.1275,0.0],[-175.1231,-21.13,0.6843],[-175.1214,-21.1353,0.0],[-175.1225,-21.1428,0.0],[-175.1297,-21.1561,3.5419],[-175.1252,-21.1582,0.0],[-175.1222,-21.1539,2.4975],[-175.1206,-21.155,2.7751],[-175.1206,-21.1603,3.1791],[-175.1158,-21.1644,1.0071],[-175.1142,-21.1717,0.0],[-175.1183,-21.1739,1.4889],[-175.1243,-21.1805,0.9219],[-175.1294,-21.1819,0.0],[-175.1258,-21.1856,0.0],[-175.1272,-21.1892,3.8051],[-175.1297,-21.1908,0.0],[-175.1328,-21.1889,1.3851],[-175.14,-21.1906,5.9508],[-175.1444,-21.1869,5.0205],[-175.1481,-21.1867,0.0],[-175.1497,-21.1894,2.4333],[-175.1492,-21.1928,0.0],[-175.1519,-21.1964,4.3995],[-175.1554,-21.1924,0.0],[-175.1581,-21.1922,0.0],[-175.1611,-21.1975,0.0],[-175.1689,-21.1967,4.005],[-175.1717,-21.1939,0.0],[-175.1711,-21.1839,0.7206],[-175.1658,-21.1808,4.8957],[-175.1586,-21.1803,2.3262],[-175.1539,-21.1833,0.0],[-175.1447,-21.18,0.0],[-175.1378,-21.1725,1.6116],[-175.1381,-21.1706,0.0],[-175.1417,-21.1672,0.0],[-175.1556,-21.1674,1.1516],[-175.1578,-21.1639,1.2831],[-175.1685,-21.162,2.3435],[-175.172,-21.1594,0.0],[-175.1811,-21.1653,1.697],[-175.1861,-21.1658,0.0],[-175.1906,-21.1631,1.2614],[-175.1919,-21.1586,7.1926],[-175.1947,-21.1564,3.8465],[-175.1989,-21.1592,3.5246],[-175.2006,-21.1675,2.1644],[-175.2047,-21.1703,2.3143],[-175.2036,-21.1733,0.0],[-175.1972,-21.1783,2.5123],[-175.1997,-21.1819,2.4529],[-175.2067,-21.1828,0.0],[-175.2253,-21.1775,0.0],[-175.2311,-21.1733,1.8443],[-175.2322,-21.1703,0.0],[-175.2272,-21.1628,5.8761],[-175.2139,-21.1539,1.1623],[-175.2061,-21.1464,0.0],[-175.2028,-21.1467,0.0],[-175.1967,-21.1522,2.6563],[-175.1847,-21.1553,0.0],[-175.1817,-21.1597,0.0],[-175.1717,-21.1542,2.07],[-175.1583,-21.1569,0.0],[-175.1517,-21.1472,1.1542],[-175.1525,-21.1511,0.0],[-175.15,-21.1544,0.5611],[-175.1458,-21.1522,0.0],[-175.1433,-21.1492,0.0],[-175.1444,-21.1475,1.9233],[-175.1411,-21.145,0.0],[-175.1425,-21.1358,0.0],[-175.1444,-21.1333,1.8312],[-175.1508,-21.1364,0.2512],[-175.1519,-21.1431,0.2905],[-175.1539,-21.1383,0.5487],[-175.1653,-21.1411,0.0],[-175.1752,-21.1402,1.7062],[-175.1794,-21.1353,0.0],[-175.1829,-21.1381,1.7355],[-175.1865,-21.138,3.5292],[-175.1963,-21.1333,3.0264],[-175.1969,-21.1311,0.4801],[-175.2242,-21.1231,4.3466],[-175.2383,-21.1122,0.0],[-175.2462,-21.1096,2.5445],[-175.2529,-21.1111,0.0],[-175.2617,-21.1161,0.0],[-175.2664,-21.1164,1.5808],[-175.2731,-21.12,0.9411],[-175.2803,-21.1214,0.5892],[-175.2839,-21.1239,0.8538],[-175.3097,-21.1192,0.0],[-175.3163,-21.1193,0.0],[-175.3219,-21.1172,0.0],[-175.3271,-21.1176,1.7461],[-175.3308,-21.1139,0.0],[-175.3306,-21.11,0.0],[-175.3358,-21.1076,3.6547],[-175.3361,-21.0981,1.1261],[-175.3382,-21.0925,1.3269],[-175.3331,-21.0797,4.2796],[-175.3233,-21.0675,13.0758],[-175.3228,-21.065,0.0],[-175.325,-21.0622,0.0],[-175.328,-21.0625,0.0],[-175.3328,-21.0664,17.0582],[-175.3436,-21.0797,1.7412],[-175.3567,-21.0925,4.3293],[-175.3483,-21.1192,6.5586],[-175.3488,-21.1275,5.6586],[-175.347,-21.1313,13.8271],[-175.3483,-21.1331,0.0],[-175.3427,-21.1496,0.0],[-175.3347,-21.1592,0.0],[-175.315,-21.1683,0.0],[-175.3056,-21.1781,0.0],[-175.2908,-21.1861,6.0519],[-175.2736,-21.1994,0.0],[-175.2576,-21.1988,0.0],[-175.2381,-21.2031,0.0],[-175.2233,-21.2072,3.3425],[-175.2008,-21.2183,11.6109],[-175.1947,-21.2228,4.4106],[-175.195,-21.2264,0.0],[-175.192,-21.2285,0.0],[-175.1911,-21.2333,28.9892],[-175.18,-21.2517,0.0],[-175.1736,-21.2567,0.0],[-175.1475,-21.2692,13.6162],[-175.1378,-21.2725,7.3297],[-175.1242,-21.2731,0.0],[-175.1142,-21.2675,6.3438],[-175.1053,-21.2586,8.834],[-175.0994,-21.2472,4.2512],[-175.0986,-21.2364,20.3245],[-175.1058,-21.2153,12.9969],[-175.1027,-21.2086,5.2926],[-175.0906,-21.1958,1.8445]]],
[[[-175.1422,-21.1817,0.0],[-175.1397,-21.1819,0.0],[-175.1394,-21.1794,0.0],[-175.1428,-21.1797,0.7525],[-175.1422,-21.1817,0.0]]],
[[[-175.1525,-21.1602,1.2329],[-175.1537,-21.1562,0.0],[-175.1547,-21.1588,1.6345],[-175.158,-21.1595,0.879],[-175.1552,-21.1629,1.2736],[-175.1525,-21.1602,1.2329]]],
[[[-175.1447,-21.1281,0.0],[-175.1467,-21.1275,0.8889],[-175.1467,-21.1308,3.569],[-175.145,-21.1303,0.0],[-175.1447,-21.1281,0.0]]],
[[[-174.9739,-21.1139,0.0],[-174.9754,-21.1114,1.1768],[-174.9786,-21.1112,0.0],[-174.9822,-21.1118,0.0],[-174.9859,-21.1147,0.0],[-174.9851,-21.1193,4.7091],[-174.9811,-21.1247,0.0],[-174.9786,-21.1244,1.439],[-174.9756,-21.1212,4.3673],[-174.9739,-21.1139,0.0]]],
[[[-175.032,-21.0953,2.2311],[-175.0283,-21.0939,0.0],[-175.0294,-21.0903,1.2981],[-175.0347,-21.0922,8.1224],[-175.032,-21.0953,2.2311]]],
[[[-175.0536,-21.0917,4.4872],[-175.0586,-21.0903,2.905],[-175.0606,-21.0922,0.0],[-175.0586,-21.0936,0.0],[-175.0536,-21.0917,4.4872]]],
[[[-175.0994,-21.0922,0.8585],[-175.0972,-21.0925,2.6968],[-175.0956,-21.0917,0.9676],[-175.0981,-21.0908,0.0],[-175.0994,-21.0922,0.8585]]],
[[[-175.0242,-21.0886,5.6047],[-175.0219,-21.0894,3.2445],[-175.0208,-21.0875,2.0695],[-175.0233,-21.0864,4.4396],[-175.0242,-21.0886,5.6047]]],
[[[-174.999,-21.056,0.0],[-175.0003,-21.0533,4.4753],[-175.0025,-21.0531,2.7623],[-175.0056,-21.0567,2.2742],[-175.0019,-21.0592,1.4661],[-174.999,-21.056,0.0]]],
[[[-175.1469,-21.1247,0.0],[-175.1489,-21.1233,0.5166],[-175.15,-21.1239,0.0],[-175.1481,-21.1261,0.0],[-175.1469,-21.1247,0.0]]],
[[[-175.1544,-21.1131,4.1342],[-175.1553,-21.1153,2.4974],[-175.1544,-21.1161,2.4974],[-175.1533,-21.1136,0.0],[-175.1544,-21.1131,4.1342]]],
[[[-175.1564,-21.0878,9.5434],[-175.1581,-21.0858,0.0],[-175.1606,-21.0867,0.0],[-175.1594,-21.0892,3.4525],[-175.1564,-21.0878,9.5434]]],
[[[-175.1072,-21.085,0.8652],[-175.1158,-21.0853,1.4197],[-175.1164,-21.0883,0.7955],[-175.1156,-21.0889,0.7955],[-175.1072,-21.085,0.8652]]],
[[[-175.1561,-21.1231,0.0],[-175.1583,-21.1214,4.8263],[-175.1611,-21.1228,0.0],[-175.1594,-21.1275,0.8698],[-175.1567,-21.125,2.5935],[-175.1561,-21.1231,0.0]]],
[[[-175.245,-21.0897,0.0],[-175.2447,-21.0914,0.0],[-175.2431,-21.09,0.0],[-175.2439,-21.0883,0.0],[-175.245,-21.0897,0.0]]],
[[[-175.2528,-21.0433,0.0],[-175.255,-21.0425,0.0],[-175.2578,-21.0453,0.0],[-175.255,-21.0506,0.0],[-175.2586,-21.0564,1.4027],[-175.2578,-21.0575,1.4027],[-175.2503,-21.0483,0.0],[-175.2505,-21.0453,0.0],[-175.2528,-21.0433,0.0]]]]}
,"properties": {"GID_1": "TON.4_1","GID_0": "TON","country": "Tonga","province": "Tongatapu","VARNAME_1": "NA","NL_NAME_1": "NA","TYPE_1": "IslandGroup","ENGTYPE_1": "IslandGroup","CC_1": "NA","HASC_1": "TO.TT","ISO_1": "TO-04","name": "Tongatapu.province","area_km2": 279.6991,"hist_schema_id": "Elevation0-9000","hist_area_km2": {"0": 121.5528,"25": 138.1286,"50": 17.7058,"75": 2.3118}}}