{"type":"Feature","properties":{"GID_3":"ASM.1.4.1_1","GID_0":"ASM","country":"AmericanSamoa","GID_1":"ASM.1_1","state":"Eastern","NL_NAME_1":"NA","GID_2":"ASM.1.4_1","county":"Sua","NL_NAME_2":"NA","city":"Afono","VARNAME_3":"NA","NL_NAME_3":"NA","TYPE_3":"Village","ENGTYPE_3":"Village","CC_3":"NA","HASC_3":"NA","name":"Afono.city"},
"geometry":{"type": "MultiPolygon","coordinates": [[[[-170.6543,-14.2732,394.1378],[-170.6452,-14.269,201.2851],[-170.6436,-14.2615,260.7092],[-170.6376,-14.254,242.175],[-170.638,-14.2487,0.0],[-170.6521,-14.2556,0.0],[-170.6588,-14.2624,381.4632],[-170.6553,-14.266,206.0638],[-170.6543,-14.2732,394.1378]]]]}}