{"type": "Feature","bbox": [-170.6904,-14.2652,-170.6521,-14.241],"geometry": {"type": "MultiPolygon","coordinates": [[[[-170.6588,-14.2624,381.4632],[-170.6521,-14.2556,0.0],[-170.6535,-14.2502,22.5309],[-170.6588,-14.2504,0.0],[-170.6622,-14.2467,9.9735],[-170.6735,-14.2502,0.0],[-170.6724,-14.241,72.2165],[-170.6826,-14.2443,0.0],[-170.6904,-14.252,0.0],[-170.687,-14.2647,429.2059],[-170.6779,-14.2631,266.6913],[-170.6699,-14.2652,361.2673],[-170.6588,-14.2624,381.4632]]]]}
,"properties": {"GID_3": "ASM.1.5.5_1","GID_0": "ASM","country": "AmericanSamoa","GID_1": "ASM.1_1","state": "Eastern","NL_NAME_1": "NA","GID_2": "ASM.1.5_1","county": "Vaifanua","NL_NAME_2": "NA","city": "Vatia","VARNAME_3": "NA","NL_NAME_3": "NA","TYPE_3": "Village","ENGTYPE_3": "Village","CC_3": "NA","HASC_3": "NA","name": "Vatia.city","area_km2": 7.027893,"hist_schema_id": "Elevation0-9000","hist_area_km2": {"0": 0.904194,"25": 0.390445,"50": 0.534292,"75": 0.493193,"100": 0.472642,"125": 0.369893,"150": 0.431543,"175": 0.328792,"200": 0.349339,"225": 0.267142,"250": 0.308237,"275": 0.287688,"300": 0.369882,"325": 0.410978,"350": 0.369878,"375": 0.308231,"400": 0.226036,"425": 0.184938,"450": 0.020549}}}