{"type": "Feature","bbox": [-170.7529,-14.3655,-170.7248,-14.3454],"geometry": {"type": "MultiPolygon","coordinates": [[[[-170.7507,-14.36,0.0],[-170.7428,-14.3655,5.8347],[-170.7389,-14.3635,6.1981],[-170.7367,-14.3593,18.4552],[-170.7248,-14.3477,4.9338],[-170.7309,-14.3454,26.2718],[-170.7432,-14.3506,49.3148],[-170.7529,-14.3512,85.3144],[-170.7507,-14.36,0.0]]]]}
,"properties": {"GID_3": "ASM.4.4.8_1","GID_0": "ASM","country": "AmericanSamoa","GID_1": "ASM.4_1","state": "Western","NL_NAME_1": "NA","GID_2": "ASM.4.4_1","county": "Tualauta","NL_NAME_2": "NA","city": "Vaitogi","VARNAME_3": "NA","NL_NAME_3": "NA","TYPE_3": "Village","ENGTYPE_3": "Village","CC_3": "NA","HASC_3": "NA","name": "Vaitogi.city","area_km2": 3.306981,"hist_schema_id": "Elevation0-9000","hist_area_km2": {"0": 0.513503,"25": 1.561066,"50": 0.739445,"75": 0.328644,"100": 0.143783,"125": 0.02054}}}