{"type":"Feature","properties":{"GID_2":"WSM.1.2_1","GID_0":"WSM","country":"Samoa","GID_1":"WSM.1_1","province":"A'ana","NL_NAME_1":"NA","county":"AanaAlofiII","VARNAME_2":"NA","NL_NAME_2":"NA","TYPE_2":"Unknown","ENGTYPE_2":"Unknown","CC_2":"NA","HASC_2":"NA","name":"Aana_Alofi_I_I.county"},
"geometry":{"type": "MultiPolygon","coordinates": [[[[-171.9506,-13.8153,3.2591],[-171.9528,-13.8153,0.9313],[-171.9657,-13.8263,4.0545],[-171.9576,-13.8625,138.8869],[-171.9537,-13.8733,268.7418],[-171.9491,-13.8775,294.2355],[-171.9486,-13.8879,350.6915],[-171.9358,-13.8864,369.9251],[-171.9358,-13.8837,342.1943],[-171.9301,-13.8832,346.0568],[-171.932,-13.8772,316.505],[-171.9382,-13.8755,303.0164],[-171.9384,-13.8655,250.9174],[-171.9346,-13.8596,236.3211],[-171.936,-13.8512,180.3815],[-171.9413,-13.8362,91.4145],[-171.9445,-13.8327,63.246],[-171.9499,-13.8208,16.8801],[-171.9506,-13.8153,3.2591]]]]}}