{"type":"Feature","properties":{"ISO3166-1-Alpha-3":"COK","country":"Cook Islands","fill":"#F0F","id":"4953","name":"Rarotonga"},
"geometry":{"type": "Polygon","coordinates": [[[-159.79784,-21.18613,0.0],[-159.82344,-21.18906,0.0],[-159.83141,-21.19557,0.0],[-159.83283,-21.20761,0.0],[-159.83882,-21.22633,0.0],[-159.84626,-21.23382,0.0],[-159.83308,-21.24456,0.0],[-159.79328,-21.24163,173.4721],[-159.77428,-21.25091,172.361],[-159.77086,-21.25018,175.3872],[-159.74323,-21.25433,169.454],[-159.73786,-21.24627,28.3278],[-159.73603,-21.23699,71.3877],[-159.7364,-21.21673,8.6727],[-159.74275,-21.20159,0.0],[-159.75841,-21.19183,0.0],[-159.77843,-21.18694,0.0],[-159.79784,-21.18613,0.0]]]}}