{"type":"Feature","properties":{"GID_1":"COK.11_1","GID_0":"COK","country":"CookIslands","province":"Rarotonga","VARNAME_1":"NA","NL_NAME_1":"NA","TYPE_1":"IslandCouncil","ENGTYPE_1":"IslandCouncil","CC_1":"NA","HASC_1":"NA","ISO_1":"NA","name":"Rarotonga.province"},
"geometry":{"type": "MultiPolygon","coordinates": [[[[-159.731,-21.2643,0.0],[-159.7295,-21.264,0.0],[-159.7315,-21.2621,3.2579],[-159.7318,-21.2633,0.0],[-159.731,-21.2643,0.0]]],
[[[-159.7275,-21.2582,0.0],[-159.7258,-21.2574,4.6071],[-159.7262,-21.256,0.8056],[-159.7271,-21.2558,0.8056],[-159.7275,-21.2582,0.0]]],
[[[-159.7252,-21.2544,6.4418],[-159.7239,-21.2539,4.4603],[-159.7239,-21.2508,1.9292],[-159.7257,-21.2496,4.991],[-159.7231,-21.2477,9.7966],[-159.7242,-21.245,1.2563],[-159.7278,-21.2489,1.8703],[-159.7269,-21.2539,6.4418],[-159.7252,-21.2544,6.4418]]],
[[[-159.7917,-21.1991,0.0],[-159.8011,-21.1986,1.8285],[-159.8031,-21.2003,2.7195],[-159.8106,-21.1991,0.0],[-159.8161,-21.2008,0.2325],[-159.8242,-21.2078,0.0],[-159.8316,-21.2178,1.3356],[-159.8275,-21.2425,10.9098],[-159.8197,-21.2556,6.1505],[-159.8158,-21.2578,4.3276],[-159.8044,-21.2592,5.1171],[-159.7906,-21.2653,3.959],[-159.7692,-21.2678,4.9446],[-159.7589,-21.2728,3.8326],[-159.7458,-21.2722,2.7594],[-159.7375,-21.2692,2.3425],[-159.7281,-21.2547,0.0],[-159.7294,-21.2494,1.9636],[-159.7275,-21.2456,2.0969],[-159.7236,-21.2432,0.9794],[-159.7311,-21.225,0.0],[-159.7319,-21.2167,0.4831],[-159.7536,-21.2031,3.9727],[-159.7619,-21.2028,0.0],[-159.776,-21.2055,1.771],[-159.7917,-21.1991,0.0]]]]}}