{"type": "Feature","bbox": [-170.8224,-14.3321,-170.814,-14.3165],"geometry": {"type": "MultiPolygon","coordinates": [[[[-170.8181,-14.3321,8.0279],[-170.814,-14.3292,0.0],[-170.8174,-14.3165,280.8221],[-170.8224,-14.3187,269.6714],[-170.8181,-14.3321,8.0279]]]]}
,"properties": {"GID_3": "ASM.4.1.14_1","GID_0": "ASM","country": "AmericanSamoa","GID_1": "ASM.4_1","state": "Western","NL_NAME_1": "NA","GID_2": "ASM.4.1_2","county": "Lealataua","NL_NAME_2": "NA","city": "UtumeaWest","VARNAME_3": "NA","NL_NAME_3": "NA","TYPE_3": "Village","ENGTYPE_3": "Village","CC_3": "NA","HASC_3": "NA","name": "UtumeaWest.city","area_km2": 0.8628108,"hist_schema_id": "Elevation0-9000","hist_area_km2": {"0": 0.0616278,"25": 0.0205428,"75": 0.0616278,"100": 0.1232565,"125": 0.0410857,"150": 0.1027149,"175": 0.0410862,"200": 0.0821729,"225": 0.0821735,"250": 0.1027173,"275": 0.1232617,"300": 0.0205437}}}