{"type": "Feature","id": "4955","bbox": [-157.34935,-20.17913,-157.31281,-20.13738],"geometry": {"type": "Polygon","coordinates": [[[-157.31281,-20.15521,0.0],[-157.32441,-20.1417,0.0],[-157.33857,-20.13738,0.8321],[-157.34899,-20.14332,21.4103],[-157.34935,-20.16074,28.391],[-157.34032,-20.17571,25.9496],[-157.32856,-20.17913,12.0041],[-157.31798,-20.17181,0.0],[-157.31281,-20.15521,0.0]]]}
,"properties": {"ISO3166-1-Alpha-3": "COK","country": "Cook Islands","fill": "#F0F","name": "Mauke","area_km2": 12.47949,"hist_schema_id": "Elevation0-9000","hist_area_km2": {"0": 3.284057,"25": 9.17553,"50": 0.019903}}}