{"type": "Feature","bbox": [-157.3612,-20.1897,-157.3206,-20.1317],"geometry": {"type": "MultiPolygon","coordinates": [[[[-157.3239,-20.1797,0.0],[-157.3208,-20.1678,0.0],[-157.3206,-20.1558,0.0],[-157.3236,-20.1464,0.0],[-157.3287,-20.1415,4.9399],[-157.3543,-20.1317,0.3225],[-157.3569,-20.1347,0.0],[-157.3568,-20.1399,0.0],[-157.3612,-20.1565,0.0],[-157.3602,-20.1705,2.4618],[-157.3565,-20.1785,0.0],[-157.3513,-20.1846,0.0],[-157.3414,-20.1897,0.0],[-157.3354,-20.1878,1.6715],[-157.3239,-20.1797,0.0]]]]}
,"properties": {"GID_1": "COK.5_1","GID_0": "COK","country": "CookIslands","province": "Mauke","VARNAME_1": "NA","NL_NAME_1": "NA","TYPE_1": "IslandCouncil","ENGTYPE_1": "IslandCouncil","CC_1": "NA","HASC_1": "NA","ISO_1": "NA","name": "Mauke.province","area_km2": 20.28122,"hist_schema_id": "Elevation0-9000","hist_area_km2": {"0": 3.86101,"25": 16.40031,"50": 0.0199}}}