{"type": "Feature","id": "5002","bbox": [-170.83125,-14.37469,-170.69263,-14.28924],"geometry": {"type": "Polygon","coordinates": [[[-170.71385,-14.31442,3.674],[-170.71483,-14.30084,366.987],[-170.72151,-14.28924,46.7485],[-170.73786,-14.29209,80.4938],[-170.77257,-14.29144,11.5595],[-170.78864,-14.29453,99.3736],[-170.83125,-14.31943,112.3168],[-170.82282,-14.32676,133.1065],[-170.79646,-14.33994,0.0],[-170.75548,-14.36712,52.2024],[-170.74865,-14.37469,0.0],[-170.72179,-14.35345,0.0],[-170.69263,-14.31482,0.0],[-170.70124,-14.31248,6.9908],[-170.71385,-14.31442,3.674]]]}
,"properties": {"ISO3166-1-Alpha-3": "ASM","country": "American Samoa","fill": "#FF0","name": "Western","area_km2": 77.3443,"hist_schema_id": "Elevation0-9000","hist_area_km2": {"0": 14.66694,"25": 10.16827,"50": 8.60716,"75": 5.46423,"100": 4.35506,"125": 3.71833,"150": 3.80059,"175": 2.8967,"200": 2.97889,"225": 3.14325,"250": 3.51306,"275": 2.85566,"300": 2.36261,"325": 1.91063,"350": 2.15716,"375": 2.5475,"400": 1.29429,"425": 0.39034,"450": 0.36981,"475": 0.14381}}}