{"type": "Feature","bbox": [-170.844,-14.3732,-170.7021,-14.2882],"geometry": {"type": "MultiPolygon","coordinates": [[[[-170.7592,-14.3732,2.3945],[-170.7551,-14.3692,27.3202],[-170.7537,-14.3635,3.8688],[-170.7507,-14.36,0.0],[-170.7428,-14.3655,5.8347],[-170.7389,-14.3635,6.1981],[-170.7367,-14.3593,18.4552],[-170.7211,-14.3441,2.8351],[-170.7193,-14.3382,0.0],[-170.7134,-14.3361,1.7439],[-170.7021,-14.3268,1.7436],[-170.7125,-14.3235,0.4573],[-170.7147,-14.3188,0.0],[-170.7213,-14.3216,13.2089],[-170.7257,-14.3194,20.9249],[-170.7321,-14.3207,40.0563],[-170.7276,-14.3049,212.5959],[-170.7316,-14.2974,326.699],[-170.7403,-14.2902,0.0],[-170.7531,-14.2937,0.0],[-170.7644,-14.2883,7.3044],[-170.7799,-14.2932,0.0],[-170.7845,-14.2882,47.3062],[-170.7898,-14.2904,8.9265],[-170.7921,-14.294,138.6147],[-170.7986,-14.2896,16.956],[-170.8087,-14.2937,0.0],[-170.8119,-14.299,12.3831],[-170.8163,-14.3015,68.6752],[-170.8207,-14.3001,6.3012],[-170.8332,-14.3111,0.0],[-170.834,-14.3158,0.0],[-170.8382,-14.3202,73.07],[-170.844,-14.3227,8.2694],[-170.8377,-14.3257,0.0],[-170.8324,-14.3257,0.5576],[-170.8292,-14.3292,0.0],[-170.8181,-14.3321,8.0279],[-170.808,-14.3273,3.2214],[-170.8046,-14.3319,6.9662],[-170.7901,-14.3355,0.0],[-170.7874,-14.3393,2.518],[-170.7856,-14.356,0.0],[-170.7704,-14.3639,22.1706],[-170.7628,-14.3637,0.0],[-170.7618,-14.3697,20.1079],[-170.7592,-14.3732,2.3945]]]]}
,"properties": {"GID_1": "ASM.4_1","GID_0": "ASM","country": "AmericanSamoa","state": "Western","VARNAME_1": "NA","NL_NAME_1": "NA","TYPE_1": "District","ENGTYPE_1": "District","CC_1": "NA","HASC_1": "AS.WT","ISO_1": "NA","name": "Western.state","area_km2": 73.4415,"hist_schema_id": "Elevation0-9000","hist_area_km2": {"0": 7.39529,"25": 11.46233,"50": 9.46997,"75": 6.51195,"100": 5.13572,"125": 4.3141,"150": 4.02658,"175": 3.1227,"200": 3.1227,"225": 3.10216,"250": 3.28707,"275": 2.52694,"300": 2.11607,"325": 1.82845,"350": 1.97225,"375": 2.42423,"400": 1.15048,"425": 0.30816,"450": 0.12326,"475": 0.04109}}}