{"type": "Feature","bbox": [-170.8124,-14.3203,-170.8065,-14.3141],"geometry": {"type": "MultiPolygon","coordinates": [[[[-170.8065,-14.3141,306.9924],[-170.8124,-14.3143,326.3144],[-170.8088,-14.3203,161.3836],[-170.8065,-14.3141,306.9924]]]]}
,"properties": {"GID_3": "ASM.4.1.11_1","GID_0": "ASM","country": "AmericanSamoa","GID_1": "ASM.4_1","state": "Western","NL_NAME_1": "NA","GID_2": "ASM.4.1_2","county": "Lealataua","NL_NAME_2": "NA","city": "Nua","VARNAME_3": "NA","NL_NAME_3": "NA","TYPE_3": "Village","ENGTYPE_3": "Village","CC_3": "NA","HASC_3": "NA","name": "Nua.city","area_km2": 0.2054379,"hist_schema_id": "Elevation0-9000","hist_area_km2": {"225": 0.0205435,"250": 0.0205436,"300": 0.0205437,"325": 0.0821754,"350": 0.0616316}}}