{"type": "Feature","bbox": [-170.762,-14.3319,-170.7448,-14.3126],"geometry": {"type": "MultiPolygon","coordinates": [[[[-170.762,-14.3185,288.85],[-170.7619,-14.3273,229.721],[-170.7592,-14.3319,165.0011],[-170.7507,-14.3262,140.2897],[-170.7485,-14.321,190.6656],[-170.7448,-14.3188,193.9691],[-170.748,-14.3126,283.7646],[-170.762,-14.3185,288.85]]]]}
,"properties": {"GID_3": "ASM.4.4.4_1","GID_0": "ASM","country": "AmericanSamoa","GID_1": "ASM.4_1","state": "Western","NL_NAME_1": "NA","GID_2": "ASM.4.4_1","county": "Tualauta","NL_NAME_2": "NA","city": "Mapusagafou","VARNAME_3": "NA","NL_NAME_3": "NA","TYPE_3": "Village","ENGTYPE_3": "Village","CC_3": "NA","HASC_3": "NA","name": "Mapusagafou.city","area_km2": 2.321391,"hist_schema_id": "Elevation0-9000","hist_area_km2": {"125": 0.164341,"150": 0.431404,"175": 0.410866,"200": 0.30815,"225": 0.328695,"250": 0.308153,"275": 0.225979,"300": 0.123261,"325": 0.020543}}}