{"type": "Feature","bbox": [-172.8041,-13.6306,-172.5402,-13.4901],"geometry": {"type": "MultiPolygon","coordinates": [[[[-172.5757,-13.5425,210.7634],[-172.5864,-13.5366,140.4196],[-172.5864,-13.4957,2.2466],[-172.5991,-13.4921,1.1557],[-172.6061,-13.4936,4.5153],[-172.6137,-13.4922,0.0],[-172.6208,-13.4954,7.4596],[-172.6274,-13.5018,5.8924],[-172.6341,-13.5024,0.0],[-172.6366,-13.5062,3.2122],[-172.6357,-13.5096,0.0],[-172.6322,-13.5109,1.7792],[-172.638,-13.5181,1.9144],[-172.648,-13.5175,3.0303],[-172.6546,-13.5122,0.9659],[-172.6562,-13.5084,1.3634],[-172.662,-13.5053,0.0],[-172.6717,-13.5094,0.0],[-172.6773,-13.515,5.7337],[-172.6788,-13.5134,8.1635],[-172.6783,-13.5108,0.0],[-172.6839,-13.5093,0.0],[-172.6886,-13.5154,3.5446],[-172.6898,-13.5139,0.0],[-172.6924,-13.5154,5.0268],[-172.6944,-13.5139,0.0],[-172.6955,-13.517,1.1669],[-172.7007,-13.5195,5.3294],[-172.7109,-13.5153,2.9989],[-172.7195,-13.5149,3.5262],[-172.732,-13.5069,3.7775],[-172.7341,-13.5031,0.0],[-172.7401,-13.4982,1.875],[-172.7497,-13.4969,3.2028],[-172.7559,-13.4901,3.262],[-172.7591,-13.4907,1.192],[-172.762,-13.4964,16.3126],[-172.7645,-13.4976,0.0],[-172.771,-13.4931,0.0],[-172.7838,-13.4925,0.1368],[-172.7906,-13.5026,0.365],[-172.7906,-13.5009,0.0281],[-172.7927,-13.5015,0.153],[-172.7963,-13.5093,1.7642],[-172.8041,-13.5163,0.0],[-172.7917,-13.5294,9.7842],[-172.7916,-13.5358,8.465],[-172.788,-13.5378,22.997],[-172.7863,-13.5452,3.9711],[-172.7806,-13.5475,2.9593],[-172.7607,-13.5666,0.9113],[-172.7509,-13.5683,2.5184],[-172.7469,-13.5733,0.0],[-172.7354,-13.5773,43.3098],[-172.7285,-13.5864,0.0],[-172.727,-13.5922,2.3546],[-172.7209,-13.6009,0.0],[-172.7133,-13.6059,2.3106],[-172.7119,-13.6062,2.3106],[-172.6911,-13.5889,388.2408],[-172.6722,-13.5701,614.9691],[-172.668,-13.571,620.6155],[-172.5993,-13.6053,1144.2411],[-172.5927,-13.6043,1189.9503],[-172.5468,-13.6277,1519.8251],[-172.5448,-13.6258,1517.8281],[-172.5402,-13.6306,1542.0793],[-172.5459,-13.5616,585.4744],[-172.5543,-13.5366,201.5284],[-172.5697,-13.5378,158.4006],[-172.5757,-13.5425,210.7634]]]]}
,"properties": {"GID_1": "WSM.11_1","GID_0": "WSM","country": "Samoa","province": "Vaisigano","VARNAME_1": "NA","NL_NAME_1": "NA","TYPE_1": "Itumalo","ENGTYPE_1": "District","CC_1": "NA","HASC_1": "WS.VS","ISO_1": "NA","name": "Vaisigano.province","area_km2": 234.8122,"hist_schema_id": "Elevation0-9000","hist_area_km2": {"0": 9.0911,"25": 29.6237,"50": 14.1619,"75": 11.688,"100": 10.286,"125": 10.5333,"150": 13.3159,"175": 9.1107,"200": 6.2249,"225": 6.4104,"250": 6.905,"275": 6.6164,"300": 5.4827,"325": 4.885,"350": 3.7925,"375": 4.2254,"400": 3.5658,"425": 3.9368,"450": 4.0192,"475": 3.4421,"500": 3.1123,"525": 2.7825,"550": 2.597,"575": 2.3909,"600": 2.4527,"625": 2.7206,"650": 2.4733,"675": 2.1847,"700": 1.8961,"725": 1.958,"750": 1.587,"775": 1.69,"800": 1.6488,"825": 1.5251,"850": 1.5869,"875": 1.5251,"900": 1.7106,"925": 1.8342,"950": 1.8754,"975": 2.0815,"1000": 2.2051,"1025": 1.9784,"1050": 1.4014,"1075": 1.4632,"1100": 1.5456,"1125": 1.5662,"1150": 1.1953,"1175": 1.2365,"1200": 1.4632,"1225": 1.1746,"1250": 1.5868,"1275": 1.2777,"1300": 1.0304,"1325": 1.1334,"1350": 1.2776,"1375": 0.9685,"1400": 0.783,"1425": 0.4533,"1450": 0.4739,"1475": 0.4121,"1500": 0.4739,"1525": 0.5151,"1550": 0.1648,"1575": 0.0824}}}