{"type":"Feature","properties":{"ISO3166-1-Alpha-3":"WSM","country":"Samoa","fill":"#FF0","id":"4992","name":"Vaisigano"},
"geometry":{"type": "Polygon","coordinates": [[[-172.63899,-13.52207,26.4027],[-172.6612,-13.52516,64.4045],[-172.69514,-13.52418,83.6403],[-172.73237,-13.51051,46.9358],[-172.76655,-13.51051,49.8476],[-172.78258,-13.52028,44.2576],[-172.77648,-13.54209,81.8668],[-172.76118,-13.56504,10.0579],[-172.74975,-13.5783,0.0],[-172.7445,-13.58001,0.0],[-172.73127,-13.57887,78.0087],[-172.72558,-13.58196,118.6635],[-172.72301,-13.58733,70.5696],[-172.72187,-13.59783,0.3584],[-172.71874,-13.6028,4.5385],[-172.70348,-13.61663,0.0],[-172.65656,-13.58458,761.8828],[-172.63181,-13.59987,997.1169],[-172.63899,-13.52207,26.4027]]]}}