{"type": "Feature","bbox": [-170.8257,-14.3321,-170.8181,-14.3187],"geometry": {"type": "MultiPolygon","coordinates": [[[[-170.8181,-14.3321,8.0279],[-170.8224,-14.3187,269.6714],[-170.8257,-14.3218,112.0756],[-170.8241,-14.3302,7.0043],[-170.8181,-14.3321,8.0279]]]]}
,"properties": {"GID_3": "ASM.4.1.2_1","GID_0": "ASM","country": "AmericanSamoa","GID_1": "ASM.4_1","state": "Western","NL_NAME_1": "NA","GID_2": "ASM.4.1_2","county": "Lealataua","NL_NAME_2": "NA","city": "Agugulu","VARNAME_3": "NA","NL_NAME_3": "NA","TYPE_3": "Village","ENGTYPE_3": "Village","CC_3": "NA","HASC_3": "NA","name": "Agugulu.city","area_km2": 0.6162859,"hist_schema_id": "Elevation0-9000","hist_area_km2": {"0": 0.0821698,"50": 0.0410851,"75": 0.0616278,"100": 0.061628,"125": 0.1232569,"150": 0.041086,"175": 0.0410861,"200": 0.0410863,"225": 0.1232597}}}