{"type":"Feature","properties":{"GID_2":"WSM.9.1_1","GID_0":"WSM","country":"Samoa","GID_1":"WSM.9_1","province":"Tuamasaga","NL_NAME_1":"NA","county":"FaleataEast","VARNAME_2":"NA","NL_NAME_2":"NA","TYPE_2":"Unknown","ENGTYPE_2":"Unknown","CC_2":"NA","HASC_2":"NA","name":"Faleata_East.county"},
"geometry":{"type": "MultiPolygon","coordinates": [[[[-171.8172,-13.8931,553.3038],[-171.8181,-13.8981,628.6716],[-171.7994,-13.9038,685.1973],[-171.7987,-13.8969,611.6389],[-171.793,-13.8973,617.3055],[-171.7902,-13.8869,356.8428],[-171.7916,-13.8762,209.0729],[-171.7813,-13.8762,318.1403],[-171.7796,-13.8737,341.0201],[-171.779,-13.8567,180.0987],[-171.7768,-13.8515,120.3184],[-171.7785,-13.8506,33.4881],[-171.7783,-13.8418,9.5173],[-171.776,-13.8401,7.1866],[-171.7738,-13.8316,6.7857],[-171.7762,-13.8278,1.2587],[-171.7748,-13.8276,4.5044],[-171.7756,-13.8231,3.6605],[-171.7779,-13.8226,4.5651],[-171.7761,-13.8261,1.2921],[-171.7789,-13.8292,3.259],[-171.7914,-13.8269,1.5491],[-171.7886,-13.8324,7.9818],[-171.7887,-13.8362,10.8777],[-171.7915,-13.8428,22.8164],[-171.7977,-13.8493,41.3457],[-171.7997,-13.8537,54.8983],[-171.8034,-13.8547,78.2964],[-171.8145,-13.8688,182.8832],[-171.8183,-13.8711,174.99],[-171.82,-13.8774,261.6049],[-171.8178,-13.8805,344.7414],[-171.8172,-13.8931,553.3038]]],
[[[-171.7792,-13.8214,4.5651],[-171.7779,-13.8226,4.5651],[-171.7774,-13.8213,4.5651],[-171.7793,-13.8194,2.903],[-171.7804,-13.8201,1.6528],[-171.7792,-13.8214,4.5651]]]]}}