{"type":"Feature","properties":{"GID_3":"ASM.1.5.1_1","GID_0":"ASM","country":"AmericanSamoa","GID_1":"ASM.1_1","state":"Eastern","NL_NAME_1":"NA","GID_2":"ASM.1.5_1","county":"Vaifanua","NL_NAME_2":"NA","city":"Alao","VARNAME_3":"NA","NL_NAME_3":"NA","TYPE_3":"Village","ENGTYPE_3":"Village","CC_3":"NA","HASC_3":"NA","name":"Alao.city"},
"geometry":{"type": "MultiPolygon","coordinates": [[[[-170.5732,-14.268,79.3082],[-170.5675,-14.2693,17.9898],[-170.5627,-14.2627,0.4935],[-170.5632,-14.2562,0.0],[-170.5749,-14.2592,199.205],[-170.5786,-14.2627,299.0455],[-170.5732,-14.268,79.3082]]]]}}