{"type":"Feature","properties":{"GID_2":"WSM.8.2_1","GID_0":"WSM","country":"Samoa","GID_1":"WSM.8_1","province":"Satupa'itea","NL_NAME_1":"NA","county":"Satupaitea","VARNAME_2":"NA","NL_NAME_2":"NA","TYPE_2":"Unknown","ENGTYPE_2":"Unknown","CC_2":"NA","HASC_2":"NA","name":"Satupaitea.county"},
"geometry":{"type": "MultiPolygon","coordinates": [[[[-172.3602,-13.6419,948.58],[-172.3592,-13.6865,664.854],[-172.3618,-13.7043,412.6111],[-172.3615,-13.7292,196.9535],[-172.3566,-13.7304,188.1011],[-172.3573,-13.7546,25.558],[-172.356,-13.7574,22.0586],[-172.3527,-13.7571,22.5225],[-172.3504,-13.7773,8.0837],[-172.3318,-13.7789,0.0],[-172.3262,-13.7731,0.4995],[-172.3259,-13.767,1.2796],[-172.3206,-13.7601,2.4952],[-172.3235,-13.7281,204.8659],[-172.3229,-13.6637,810.9427],[-172.3602,-13.6419,948.58]]]]}}