{"type": "Feature","bbox": [-170.5732,-14.2723,-170.5675,-14.268],"geometry": {"type": "MultiPolygon","coordinates": [[[[-170.5725,-14.2723,0.0],[-170.5675,-14.2693,17.9898],[-170.5732,-14.268,79.3082],[-170.5725,-14.2723,0.0]]]]}
,"properties": {"GID_3": "ASM.1.3.6_1","GID_0": "ASM","country": "AmericanSamoa","GID_1": "ASM.1_1","state": "Eastern","NL_NAME_1": "NA","GID_2": "ASM.1.3_1","county": "Sa'Ole","NL_NAME_2": "NA","city": "UtumeaEast","VARNAME_3": "NA","NL_NAME_3": "NA","TYPE_3": "Village","ENGTYPE_3": "Village","CC_3": "NA","HASC_3": "NA","name": "UtumeaEast.city","area_km2": 0.1849322,"hist_schema_id": "Elevation0-9000","hist_area_km2": {"0": 0.0410958,"25": 0.061644,"50": 0.020548,"75": 0.0410962,"100": 0.0205482}}}