{"type":"Feature","properties":{"GID_2":"WSM.9.3_1","GID_0":"WSM","country":"Samoa","GID_1":"WSM.9_1","province":"Tuamasaga","NL_NAME_1":"NA","county":"Gaga'emaugaI","VARNAME_2":"Le'auva'a","NL_NAME_2":"NA","TYPE_2":"Unknown","ENGTYPE_2":"Unknown","CC_2":"NA","HASC_2":"NA","name":"Gaga'emauga_I.county"},
"geometry":{"type": "MultiPolygon","coordinates": [[[[-171.8763,-13.7967,0.0],[-171.8782,-13.8002,15.4332],[-171.8774,-13.8175,53.7733],[-171.87,-13.8226,54.0051],[-171.8684,-13.8254,62.1699],[-171.8698,-13.8566,242.3197],[-171.8665,-13.8575,235.9764],[-171.863,-13.8488,176.3953],[-171.8647,-13.8466,171.1761],[-171.8627,-13.8289,65.255],[-171.8633,-13.8173,35.7488],[-171.866,-13.8156,21.1493],[-171.8676,-13.8119,19.8241],[-171.867,-13.806,23.394],[-171.8687,-13.8016,17.0904],[-171.8672,-13.7996,11.1124],[-171.864,-13.7999,9.4149],[-171.8636,-13.7968,2.8314],[-171.8653,-13.7947,1.6121],[-171.8708,-13.7983,7.2885],[-171.8725,-13.7967,5.2853],[-171.8763,-13.7967,0.0]]]]}}