{"type": "Feature","bbox": [-170.6704,-14.2898,-170.6543,-14.2624],"geometry": {"type": "MultiPolygon","coordinates": [[[[-170.6543,-14.2732,394.1378],[-170.6553,-14.266,206.0638],[-170.6588,-14.2624,381.4632],[-170.6699,-14.2652,361.2673],[-170.6704,-14.2701,0.0],[-170.6659,-14.2726,0.9382],[-170.6636,-14.2898,8.2892],[-170.6608,-14.2864,87.6354],[-170.6543,-14.2732,394.1378]]]]}
,"properties": {"GID_3": "ASM.1.2.3_1","GID_0": "ASM","country": "AmericanSamoa","GID_1": "ASM.1_1","state": "Eastern","NL_NAME_1": "NA","GID_2": "ASM.1.2_1","county": "Ma'Oputasi","NL_NAME_2": "NA","city": "Aua","VARNAME_3": "NA","NL_NAME_3": "NA","TYPE_3": "Village","ENGTYPE_3": "Village","CC_3": "NA","HASC_3": "NA","name": "Aua.city","area_km2": 2.856136,"hist_schema_id": "Elevation0-9000","hist_area_km2": {"0": 0.554783,"25": 0.184928,"50": 0.246573,"75": 0.164384,"100": 0.246571,"125": 0.061644,"150": 0.267119,"175": 0.308215,"200": 0.082191,"225": 0.143836,"250": 0.123285,"275": 0.123289,"300": 0.020548,"325": 0.143838,"350": 0.041096,"400": 0.082192,"425": 0.020548,"475": 0.020548,"500": 0.020548}}}