{"type":"Feature","properties":{"GID_2":"TON.4.2_1","GID_0":"TON","country":"Tonga","GID_1":"TON.4_1","province":"Tongatapu","NL_NAME_1":"NA","county":"Kolomotu'a","VARNAME_2":"NA","NL_NAME_2":"NA","TYPE_2":"District","ENGTYPE_2":"District","CC_2":"NA","HASC_2":"NA","name":"Kolomotu'a.county"},
"geometry":{"type": "MultiPolygon","coordinates": [[[[-175.1525,-21.1599,1.2329],[-175.1537,-21.1562,0.0],[-175.1547,-21.1588,1.6345],[-175.158,-21.1595,0.879],[-175.1552,-21.1629,1.2736],[-175.1525,-21.1599,1.2329]]],
[[[-175.204,-21.1328,7.8315],[-175.206,-21.142,3.9577],[-175.2054,-21.1464,0.0],[-175.2028,-21.1467,0.0],[-175.1967,-21.1522,2.6563],[-175.1847,-21.1553,0.0],[-175.1817,-21.1597,0.0],[-175.1717,-21.1542,2.07],[-175.1583,-21.1569,0.0],[-175.1517,-21.1472,1.1542],[-175.1525,-21.1511,0.0],[-175.15,-21.1544,0.5611],[-175.1458,-21.1522,0.0],[-175.1433,-21.1492,0.0],[-175.1444,-21.1475,1.9233],[-175.1411,-21.145,0.0],[-175.1425,-21.1358,0.0],[-175.1453,-21.1331,1.8312],[-175.1508,-21.1364,0.2512],[-175.1519,-21.1431,0.2905],[-175.1539,-21.1383,0.5487],[-175.1633,-21.1409,0.0],[-175.1741,-21.1405,1.4133],[-175.1794,-21.1353,0.0],[-175.1829,-21.1381,1.7355],[-175.1865,-21.138,3.5292],[-175.1963,-21.1333,3.0264],[-175.1969,-21.1311,0.4801],[-175.2024,-21.1294,0.0],[-175.204,-21.1328,7.8315]]],
[[[-175.1575,-21.1219,4.7723],[-175.1611,-21.1228,0.0],[-175.1594,-21.1275,0.8698],[-175.1561,-21.1242,0.0],[-175.1575,-21.1219,4.7723]]],
[[[-175.1561,-21.0872,0.0],[-175.1581,-21.0858,0.0],[-175.1606,-21.0867,0.0],[-175.1594,-21.0892,3.4525],[-175.1561,-21.0872,0.0]]],
[[[-175.1453,-21.1272,0.0],[-175.1475,-21.1289,7.1645],[-175.1461,-21.1311,3.569],[-175.145,-21.1303,0.0],[-175.1453,-21.1272,0.0]]],
[[[-175.1475,-21.1244,0.0],[-175.15,-21.1239,0.0],[-175.1481,-21.1261,0.0],[-175.1467,-21.1256,0.0],[-175.1475,-21.1244,0.0]]],
[[[-175.155,-21.115,2.4974],[-175.1544,-21.1161,2.4974],[-175.1533,-21.115,0.0],[-175.1539,-21.1131,0.0],[-175.155,-21.1136,4.1342],[-175.155,-21.115,2.4974]]]]}}