{"type": "Feature","bbox": [-170.7876,-14.3583,-170.7749,-14.3461],"geometry": {"type": "MultiPolygon","coordinates": [[[[-170.7876,-14.3461,5.3325],[-170.7856,-14.356,0.0],[-170.7807,-14.3583,6.4043],[-170.7749,-14.3545,23.4144],[-170.7749,-14.3497,32.0537],[-170.7789,-14.3527,20.6704],[-170.7833,-14.3465,17.7522],[-170.7876,-14.3461,5.3325]]]]}
,"properties": {"GID_3": "ASM.4.3.4_1","GID_0": "ASM","country": "AmericanSamoa","GID_1": "ASM.4_1","state": "Western","NL_NAME_1": "NA","GID_2": "ASM.4.3_1","county": "Tualatai","NL_NAME_2": "NA","city": "Vailoatai","VARNAME_3": "NA","NL_NAME_3": "NA","TYPE_3": "Village","ENGTYPE_3": "Village","CC_3": "NA","HASC_3": "NA","name": "Vailoatai.city","area_km2": 1.0475639,"hist_schema_id": "Elevation0-9000","hist_area_km2": {"0": 0.3081064,"25": 0.7394576}}}