{"type": "Feature","bbox": [-171.9189,-14.0453,-171.693,-13.7928],"geometry": {"type": "MultiPolygon","coordinates": [[[[-171.7409,-13.9615,352.8868],[-171.7399,-13.9368,985.9166],[-171.7313,-13.9393,1137.7395],[-171.7242,-13.9373,1087.1379],[-171.6979,-13.9448,1055.4014],[-171.6949,-13.916,530.1099],[-171.693,-13.9131,621.5146],[-171.6955,-13.8614,16.8871],[-171.6985,-13.8595,0.0],[-171.7056,-13.8636,1.5594],[-171.7081,-13.8633,1.4],[-171.7114,-13.8548,3.1698],[-171.7208,-13.8506,7.7891],[-171.7225,-13.8442,0.0],[-171.7292,-13.8414,5.2051],[-171.7397,-13.8422,0.8925],[-171.7428,-13.8389,1.4624],[-171.7444,-13.8322,0.9629],[-171.7481,-13.831,0.0],[-171.7489,-13.8286,1.3591],[-171.7542,-13.8286,2.7226],[-171.7583,-13.8245,0.0],[-171.7627,-13.8241,0.0],[-171.76,-13.8297,2.1705],[-171.7619,-13.8328,1.7102],[-171.7642,-13.8322,1.3106],[-171.7664,-13.8275,0.0],[-171.7694,-13.8283,1.1836],[-171.7719,-13.8264,3.8262],[-171.7772,-13.8169,0.0],[-171.78,-13.8147,2.1899],[-171.7822,-13.8167,0.0],[-171.7767,-13.8242,3.6605],[-171.7764,-13.8272,1.2587],[-171.7811,-13.8292,0.0],[-171.7875,-13.8267,0.0],[-171.7917,-13.8269,1.5491],[-171.7967,-13.8206,0.7988],[-171.8008,-13.8208,0.6733],[-171.8022,-13.8174,0.7629],[-171.8083,-13.8147,7.1585],[-171.8075,-13.8081,2.4126],[-171.8121,-13.8047,0.0],[-171.8161,-13.8044,0.0],[-171.8191,-13.7999,4.2845],[-171.8228,-13.7983,3.2519],[-171.8258,-13.7997,6.7568],[-171.8306,-13.7928,0.0],[-171.8333,-13.795,4.0097],[-171.8375,-13.7942,0.0],[-171.8406,-13.798,5.8741],[-171.8431,-13.7967,1.7029],[-171.8443,-13.7983,2.7917],[-171.85,-13.7992,0.0],[-171.8515,-13.795,2.8269],[-171.8541,-13.7954,1.1125],[-171.8554,-13.7985,4.4],[-171.8597,-13.7998,4.8896],[-171.8606,-13.7976,0.0],[-171.8653,-13.7947,1.6121],[-171.8708,-13.7983,7.2885],[-171.8725,-13.7967,5.2853],[-171.8783,-13.7978,0.0],[-171.8828,-13.7967,3.2799],[-171.8895,-13.8022,1.5968],[-171.8994,-13.8011,0.568],[-171.9017,-13.7978,0.0],[-171.9055,-13.7992,0.0],[-171.9081,-13.7983,3.5443],[-171.9131,-13.8028,0.0],[-171.9189,-13.8044,0.0],[-171.9158,-13.8169,58.8409],[-171.9137,-13.819,65.9771],[-171.9106,-13.8356,141.1998],[-171.9029,-13.846,207.1082],[-171.9065,-13.8881,543.4133],[-171.9054,-13.9054,549.3707],[-171.903,-13.9153,515.708],[-171.906,-13.9256,434.8929],[-171.8813,-13.9305,427.7158],[-171.909,-13.951599999999999,172.8047],[-171.9085,-14.0056,5.1112],[-171.9027,-14.0055,0.0],[-171.9008,-14.0019,2.4015],[-171.8885,-14.0029,5.3209],[-171.8806,-13.9961,7.2862],[-171.87,-13.9906,2.2977],[-171.8631,-13.9894,2.3213],[-171.8573,-13.9837,0.7655],[-171.8542,-13.9845,2.9366],[-171.851,-13.9896,0.0],[-171.8408,-13.9886,6.5101],[-171.8365,-13.9909,1.4235],[-171.8338,-13.9862,5.6954],[-171.8315,-13.9893,4.8392],[-171.8314,-13.9954,1.849],[-171.8264,-14.0023,1.3235],[-171.8208,-14.0039,0.0],[-171.8274,-14.0058,2.0035],[-171.8311,-14.0019,3.809],[-171.831,-13.9986,2.4903],[-171.8346,-13.9973,0.8783],[-171.8398,-13.9923,2.1193],[-171.8373,-13.9985,0.0],[-171.8281,-14.0082,1.4843],[-171.8114,-14.0081,0.0],[-171.804,-14.0106,1.5228],[-171.7901,-14.0092,2.698],[-171.7838,-14.0139,0.0],[-171.7837,-14.012,0.7046],[-171.7817,-14.0121,0.0],[-171.7794,-14.0166,0.0],[-171.7761,-14.0183,0.0],[-171.7732,-14.0286,0.0],[-171.7693,-14.0295,5.348],[-171.7658,-14.0324,1.0526],[-171.7699,-14.0369,6.626],[-171.7675,-14.0428,2.746],[-171.7618,-14.0449,0.0],[-171.7552,-14.0433,0.0],[-171.7481,-14.0453,0.0],[-171.7477,-14.0279,30.3206],[-171.7391,-13.9915,124.7646],[-171.7409,-13.9894,137.2981],[-171.7409,-13.9615,352.8868]]],
[[[-171.7474,-13.8301,0.0],[-171.7463,-13.8304,0.0],[-171.7451,-13.8292,0.0],[-171.7473,-13.8281,0.7284],[-171.7474,-13.8301,0.0]]]]}
,"properties": {"GID_1": "WSM.9_1","GID_0": "WSM","country": "Samoa","province": "Tuamasaga","VARNAME_1": "NA","NL_NAME_1": "NA","TYPE_1": "Itumalo","ENGTYPE_1": "District","CC_1": "NA","HASC_1": "WS.TU","ISO_1": "WS-TU","name": "Tuamasaga.province","area_km2": 442.7322,"hist_schema_id": "Elevation0-9000","hist_area_km2": {"0": 25.2545,"25": 52.4182,"50": 32.1268,"75": 23.689,"100": 18.7293,"125": 16.1362,"150": 14.5718,"175": 12.8222,"200": 12.74,"225": 12.5958,"250": 11.9165,"275": 10.4757,"300": 10.3727,"325": 10.0022,"350": 9.2408,"375": 9.1172,"400": 8.3558,"425": 8.6851,"450": 9.22,"475": 9.5699,"500": 8.3967,"525": 9.0759,"550": 9.0141,"575": 9.0347,"600": 8.9523,"625": 9.755,"650": 10.0431,"675": 9.0552,"700": 7.8615,"725": 7.2852,"750": 6.7295,"775": 6.5236,"800": 4.7126,"825": 3.8277,"850": 3.1897,"875": 2.1402,"900": 2.1402,"925": 1.6257,"950": 1.0289,"975": 0.926,"1000": 0.8643,"1025": 0.8643,"1050": 0.8231,"1075": 0.4527,"1100": 0.2058,"1125": 0.1235,"1150": 0.0412}}}