{"type":"Feature","properties":{"ISO3166-1-Alpha-3":"WSM","country":"Samoa","fill":"#00F","id":"4984","name":"Tuamasaga"},
"geometry":{"type": "Polygon","coordinates": [[[-171.81491,-13.81162,27.3239],[-171.83454,-13.80739,29.0392],[-171.85789,-13.80635,17.6046],[-171.85323,-13.87296,391.9753],[-171.84407,-13.90729,641.1475],[-171.84793,-13.94375,292.1808],[-171.85407,-14.00189,0.0],[-171.83796,-14.00319,0.0],[-171.82221,-14.00848,0.0],[-171.80443,-14.01775,0.0],[-171.78437,-14.02223,0.0],[-171.77453,-14.0263,0.0],[-171.77033,-14.03484,0.0],[-171.76806,-14.04323,0.0],[-171.76203,-14.04876,0.0],[-171.75329,-14.05153,0.0],[-171.74299,-14.05185,0.0],[-171.70014,-14.039,0.0],[-171.68403,-14.03753,0.0],[-171.65241,-14.04518,0.0],[-171.66555,-13.93018,408.8928],[-171.65022,-13.87127,0.0],[-171.79231,-13.8165,0.0],[-171.79143,-13.87067,116.3379],[-171.81203,-13.86609,148.2106],[-171.81491,-13.81162,27.3239]]]}}