{"type":"Feature","properties":{"GID_3":"ASM.2.5.1_1","GID_0":"ASM","country":"AmericanSamoa","GID_1":"ASM.2_1","state":"Manu'a","NL_NAME_1":"NA","GID_2":"ASM.2.5_1","county":"Ta'u","NL_NAME_2":"NA","city":"Luma","VARNAME_3":"NA","NL_NAME_3":"NA","TYPE_3":"Village","ENGTYPE_3":"Village","CC_3":"NA","HASC_3":"NA","name":"Luma.city"},
"geometry":{"type": "MultiPolygon","coordinates": [[[[-169.5159,-14.2227,61.8585],[-169.5166,-14.23,6.5155],[-169.5144,-14.2355,2.4448],[-169.5112,-14.2313,72.1734],[-169.5057,-14.2322,129.7188],[-169.5013,-14.2294,169.7667],[-169.5019,-14.2231,122.4218],[-169.5065,-14.2242,112.7187],[-169.5159,-14.2227,61.8585]]]]}}