{"type": "Feature","bbox": [-170.8174,-14.3292,-170.808,-14.3143],"geometry": {"type": "MultiPolygon","coordinates": [[[[-170.8088,-14.3203,161.3836],[-170.8124,-14.3143,326.3144],[-170.8174,-14.3165,280.8221],[-170.814,-14.3292,0.0],[-170.808,-14.3273,3.2214],[-170.8088,-14.3203,161.3836]]]]}
,"properties": {"GID_3": "ASM.4.1.13_1","GID_0": "ASM","country": "AmericanSamoa","GID_1": "ASM.4_1","state": "Western","NL_NAME_1": "NA","GID_2": "ASM.4.1_2","county": "Lealataua","NL_NAME_2": "NA","city": "Se'etaga","VARNAME_3": "NA","NL_NAME_3": "NA","TYPE_3": "Village","ENGTYPE_3": "Village","CC_3": "NA","HASC_3": "NA","name": "Se'etaga.city","area_km2": 1.0682503,"hist_schema_id": "Elevation0-9000","hist_area_km2": {"0": 0.2054284,"25": 0.0205431,"50": 0.041086,"75": 0.0821722,"100": 0.0821726,"125": 0.0821731,"150": 0.06163,"175": 0.143803,"200": 0.0205435,"225": 0.0616303,"250": 0.0410872,"275": 0.0616308,"300": 0.0410875,"325": 0.0821751,"350": 0.0410876}}}