{"type": "Feature","bbox": [-170.7545,-14.3512,-170.7193,-14.3382],"geometry": {"type": "MultiPolygon","coordinates": [[[[-170.7529,-14.3512,85.3144],[-170.7432,-14.3506,49.3148],[-170.7309,-14.3454,26.2718],[-170.7248,-14.3477,4.9338],[-170.7211,-14.3441,2.8351],[-170.7193,-14.3382,0.0],[-170.7361,-14.3418,30.9415],[-170.7413,-14.3399,37.3304],[-170.7545,-14.3407,90.9455],[-170.7529,-14.3512,85.3144]]]]}
,"properties": {"GID_3": "ASM.4.4.2_1","GID_0": "ASM","country": "AmericanSamoa","GID_1": "ASM.4_1","state": "Western","NL_NAME_1": "NA","GID_2": "ASM.4.4_1","county": "Tualauta","NL_NAME_2": "NA","city": "Ili'ili","VARNAME_3": "NA","NL_NAME_3": "NA","TYPE_3": "Village","ENGTYPE_3": "Village","CC_3": "NA","HASC_3": "NA","name": "Ili'ili.city","area_km2": 3.266051,"hist_schema_id": "Elevation0-9000","hist_area_km2": {"0": 0.451911,"25": 1.170852,"50": 0.821642,"75": 0.575151,"100": 0.246496}}}