{"type":"Feature","properties":{"GID_2":"WSM.3.4_1","GID_0":"WSM","country":"Samoa","GID_1":"WSM.3_1","province":"Atua","NL_NAME_1":"NA","county":"AnoamaaWest","VARNAME_2":"NA","NL_NAME_2":"NA","TYPE_2":"Unknown","ENGTYPE_2":"Unknown","CC_2":"NA","HASC_2":"NA","name":"Anoamaa_West.county"},
"geometry":{"type": "MultiPolygon","coordinates": [[[[-171.6044,-13.8736,0.9184],[-171.6067,-13.8717,2.1804],[-171.6119,-13.8778,1.1504],[-171.6217,-13.8847,2.7026],[-171.625,-13.8833,1.2061],[-171.6267,-13.8796,0.0],[-171.6295,-13.8777,0.0],[-171.6301,-13.8745,0.0],[-171.6332,-13.8727,0.0],[-171.6407,-13.8719,0.8964],[-171.645,-13.8753,3.0442],[-171.6486,-13.8755,0.0],[-171.6638,-13.8647,0.0],[-171.6649,-13.8605,0.0],[-171.6674,-13.8618,3.5272],[-171.6826,-13.8621,1.9811],[-171.6857,-13.864,0.0],[-171.6955,-13.8614,16.8871],[-171.693,-13.9131,621.5146],[-171.6949,-13.916,530.1099],[-171.6979,-13.9448,1055.4014],[-171.6907,-13.9469,1080.5586],[-171.6876,-13.9494,1103.5188],[-171.6328,-13.9667,470.0825],[-171.6281,-13.9505,234.6038],[-171.6245,-13.9448,287.9765],[-171.6243,-13.9242,167.0959],[-171.6218,-13.9118,154.2837],[-171.6202,-13.9123,146.9371],[-171.6149,-13.9052,131.9833],[-171.6038,-13.885,68.098],[-171.6044,-13.8736,0.9184]]]]}}