{"type": "Feature","bbox": [-173.8106,-15.9836,-173.735,-15.8378],"geometry": {"type": "MultiPolygon","coordinates": [[[[-173.7531,-15.9297,4.4415],[-173.7558,-15.9292,0.0],[-173.7572,-15.9306,0.0],[-173.7567,-15.9325,1.6016],[-173.7594,-15.9375,2.1159],[-173.7675,-15.9447,4.9129],[-173.7725,-15.9431,0.0],[-173.7789,-15.9436,0.0],[-173.7967,-15.9497,2.2508],[-173.8008,-15.9481,1.9661],[-173.8036,-15.95,6.3382],[-173.8078,-15.95,1.638],[-173.8106,-15.9525,0.0],[-173.8083,-15.9539,5.3319],[-173.8089,-15.9567,0.0],[-173.8042,-15.9611,0.0],[-173.8011,-15.9708,0.0],[-173.7944,-15.9778,0.9814],[-173.7835,-15.9836,0.0],[-173.7794,-15.9825,0.0],[-173.7742,-15.9772,0.4416],[-173.7733,-15.9742,0.0],[-173.7697,-15.9717,0.0],[-173.7664,-15.9653,1.2531],[-173.75,-15.9503,0.0],[-173.7469,-15.945,0.2966],[-173.7465,-15.9386,0.0],[-173.7497,-15.9316,0.0],[-173.7531,-15.9297,4.4415]]],
[[[-173.7814,-15.9356,1.1402],[-173.7792,-15.9347,0.0],[-173.7797,-15.9328,0.0],[-173.7814,-15.9342,0.0],[-173.7814,-15.9356,1.1402]]],
[[[-173.75,-15.8378,0.0],[-173.7544,-15.8378,0.0],[-173.7567,-15.8411,0.0],[-173.7547,-15.8533,0.0],[-173.7536,-15.8578,0.0],[-173.75,-15.8628,11.2934],[-173.7442,-15.8636,0.0],[-173.74,-15.8594,86.0854],[-173.7375,-15.8597,0.0],[-173.735,-15.8544,0.0],[-173.7408,-15.8447,0.0],[-173.75,-15.8378,0.0]]]]}
,"properties": {"GID_1": "TON.3_1","GID_0": "TON","country": "Tonga","province": "Niuas","VARNAME_1": "NA","NL_NAME_1": "NA","TYPE_1": "IslandGroup","ENGTYPE_1": "IslandGroup","CC_1": "NA","HASC_1": "TO.NI","ISO_1": "NA","name": "Niuas.province","area_km2": 23.54721,"hist_schema_id": "Elevation0-9000","hist_area_km2": {"0": 12.80255,"25": 6.09526,"50": 1.24362,"75": 0.44857,"100": 0.38741,"125": 0.34669,"150": 0.36709,"175": 0.20396,"200": 0.36713,"225": 0.20396,"250": 0.14277,"275": 0.18356,"300": 0.10198,"325": 0.12237,"350": 0.12237,"375": 0.10198,"400": 0.06119,"425": 0.04079,"450": 0.06119,"475": 0.04079,"500": 0.04079,"525": 0.0204,"550": 0.04079}}}