{"type":"Feature","properties":{"ISO3166-1-Alpha-3":"TON","country":"Tonga","fill":"#F0F","id":"4947","name":"Niuas"},
"geometry":{"type": "MultiPolygon","coordinates": [[[[-173.76366,-15.95208,9.0721],[-173.76452,-15.94858,11.5981],[-173.76879,-15.9485,17.5077],[-173.76948,-15.9542,12.3039],[-173.76598,-15.95713,7.6291],[-173.76366,-15.95208,9.0721]]],
[[[-173.72659,-15.96299,0.0],[-173.71585,-15.94573,0.0],[-173.71524,-15.93206,0.0],[-173.72024,-15.93182,0.0],[-173.73339,-15.93971,0.0],[-173.7543,-15.94956,10.8003],[-173.76472,-15.95859,6.9344],[-173.76521,-15.96608,1.2531],[-173.75687,-15.97658,0.0],[-173.74124,-15.97674,0.0],[-173.72659,-15.96299,0.0]]],
[[[-173.71353,-15.85101,0.0],[-173.71817,-15.84726,0.0],[-173.71369,-15.85914,0.0],[-173.71353,-15.85101,0.0]]],
[[[-175.61779,-15.6015,18.412],[-175.61262,-15.57334,0.0],[-175.63134,-15.5595,0.0],[-175.66377,-15.56601,0.0],[-175.68334,-15.58213,0.0],[-175.68627,-15.60231,0.0],[-175.66889,-15.62151,20.2705],[-175.63915,-15.62428,9.9134],[-175.61779,-15.6015,18.412]]]]}}