{"type": "Feature","bbox": [-170.5862,-14.2592,-170.5749,-14.2478],"geometry": {"type": "MultiPolygon","coordinates": [[[[-170.5749,-14.2592,199.205],[-170.5787,-14.2478,9.2019],[-170.5833,-14.2508,0.0],[-170.5862,-14.2554,11.5892],[-170.5749,-14.2592,199.205]]]]}
,"properties": {"GID_3": "ASM.1.5.3_1","GID_0": "ASM","country": "AmericanSamoa","GID_1": "ASM.1_1","state": "Eastern","NL_NAME_1": "NA","GID_2": "ASM.1.5_1","county": "Vaifanua","NL_NAME_2": "NA","city": "Onenoa","VARNAME_3": "NA","NL_NAME_3": "NA","TYPE_3": "Village","ENGTYPE_3": "Village","CC_3": "NA","HASC_3": "NA","name": "Onenoa.city","area_km2": 0.8014305,"hist_schema_id": "Elevation0-9000","hist_area_km2": {"0": 0.1438486,"25": 0.0821983,"50": 0.082198,"75": 0.1027475,"100": 0.1027477,"125": 0.1027472,"150": 0.0821971,"175": 0.1027461}}}