{"type": "Feature","bbox": [-169.5144,-14.2718,-169.4565,-14.2294],"geometry": {"type": "MultiPolygon","coordinates": [[[[-169.5013,-14.2294,169.7667],[-169.5057,-14.2322,129.7188],[-169.5112,-14.2313,72.1734],[-169.5144,-14.2355,2.4448],[-169.5046,-14.2468,0.0],[-169.4987,-14.2577,63.8952],[-169.4973,-14.2641,78.9661],[-169.4915,-14.2717,0.0],[-169.485,-14.2718,10.5775],[-169.4715,-14.2558,0.0],[-169.4565,-14.2472,71.9272],[-169.4606,-14.239,436.6088],[-169.4578,-14.2347,517.4736],[-169.4814,-14.2405,713.6804],[-169.4865,-14.2393,654.6024],[-169.5013,-14.2294,169.7667]]]]}
,"properties": {"GID_3": "ASM.2.5.2_1","GID_0": "ASM","country": "AmericanSamoa","GID_1": "ASM.2_1","state": "Manu'a","NL_NAME_1": "NA","GID_2": "ASM.2.5_1","county": "Ta'u","NL_NAME_2": "NA","city": "Si'ufaga","VARNAME_3": "NA","NL_NAME_3": "NA","TYPE_3": "Village","ENGTYPE_3": "Village","CC_3": "NA","HASC_3": "NA","name": "Si'ufaga.city","area_km2": 14.36441,"hist_schema_id": "Elevation0-9000","hist_area_km2": {"0": 0.65758,"25": 0.32879,"50": 0.41099,"75": 0.6165,"100": 0.59595,"125": 0.55485,"150": 0.53429,"175": 0.55484,"200": 0.6165,"225": 0.63705,"250": 0.67815,"275": 0.4932,"300": 0.43155,"325": 0.73979,"350": 0.6576,"375": 0.59595,"400": 0.84256,"425": 0.28769,"450": 0.34934,"475": 0.3288,"500": 0.47265,"525": 0.411,"550": 0.3699,"575": 0.49321,"600": 0.22605,"625": 0.26715,"650": 0.28771,"675": 0.18495,"700": 0.3288,"725": 0.14385,"750": 0.10275,"775": 0.06165,"800": 0.0822,"825": 0.02055}}}