{"type": "Feature","bbox": [-171.7477,-14.0772,-171.398,-13.8605],"geometry": {"type": "MultiPolygon","coordinates": [[[[-171.408,-14.0734,0.0],[-171.4083,-14.0706,0.0],[-171.41,-14.0697,14.7621],[-171.4144,-14.0722,0.9675],[-171.4101,-14.0761,12.4502],[-171.4058,-14.0772,0.0],[-171.408,-14.0734,0.0]]],
[[[-171.4186,-14.0588,3.1331],[-171.4225,-14.0578,0.0],[-171.4276,-14.0583,3.7135],[-171.4286,-14.0597,19.0647],[-171.429,-14.0638,43.8195],[-171.4214,-14.0703,0.0],[-171.4177,-14.0687,4.7487],[-171.4159,-14.0649,27.073],[-171.4195,-14.0629,5.4954],[-171.4175,-14.06,4.1117],[-171.4186,-14.0588,3.1331]]],
[[[-171.4322,-14.0323,2.8088],[-171.4239,-14.0203,1.1229],[-171.4238,-14.0041,1.6617],[-171.4278,-13.9953,3.624],[-171.4333,-13.9911,0.0],[-171.4342,-13.9883,9.3263],[-171.4378,-13.9883,61.1687],[-171.4361,-13.985,0.0],[-171.4395,-13.9825,3.0949],[-171.439,-13.9803,9.425],[-171.4413,-13.9755,0.5203],[-171.4538,-13.9729,0.0],[-171.455,-13.9789,1.6045],[-171.4586,-13.9756,0.0],[-171.4606,-13.9778,0.0],[-171.468,-13.9758,0.9154],[-171.47,-13.9736,1.0106],[-171.4692,-13.9667,17.8774],[-171.4733,-13.9661,8.2972],[-171.4742,-13.9625,6.4228],[-171.4803,-13.9597,2.5734],[-171.4804,-13.9548,0.0],[-171.4834,-13.9534,0.0],[-171.4869,-13.9561,0.0],[-171.4873,-13.951599999999999,4.3741],[-171.4913,-13.9549,81.1589],[-171.4947,-13.9507,0.0],[-171.4978,-13.95,19.0537],[-171.5053,-13.9517,31.7201],[-171.508,-13.9508,0.0],[-171.5085,-13.9569,130.2633],[-171.5133,-13.9711,540.3554],[-171.5122,-13.9714,451.2194],[-171.5142,-13.9804,335.1061],[-171.5371,-13.9804,338.8128],[-171.5603,-13.9655,315.0],[-171.5609,-13.9559,554.869],[-171.5638,-13.9534,492.5975],[-171.5756,-13.9547,338.7531],[-171.5771,-13.9501,158.196],[-171.5835,-13.944,164.6214],[-171.5838,-13.9419,140.6888],[-171.5724,-13.9348,293.8768],[-171.5742,-13.9266,210.208],[-171.5668,-13.9268,438.3199],[-171.5651,-13.9242,645.7175],[-171.5535,-13.9237,272.361],[-171.5361,-13.9126,0.0],[-171.5453,-13.915,25.8424],[-171.5452,-13.9109,8.1617],[-171.5489,-13.9078,0.0],[-171.5533,-13.909,0.0],[-171.5549,-13.9114,15.1519],[-171.5631,-13.9094,0.0],[-171.5634,-13.9068,54.2362],[-171.5603,-13.9006,0.0],[-171.5659,-13.9018,8.8162],[-171.5663,-13.8952,2.3724],[-171.5704,-13.8949,36.359],[-171.5694,-13.8881,0.0],[-171.5708,-13.8867,0.0],[-171.5744,-13.8911,0.0],[-171.5775,-13.89,0.0],[-171.5817,-13.8919,9.9734],[-171.5861,-13.8903,0.0],[-171.5863,-13.8844,1.1353],[-171.5831,-13.8792,0.6261],[-171.5844,-13.8778,0.0],[-171.5927,-13.8806,22.2015],[-171.5936,-13.8901,24.3562],[-171.5965,-13.8936,36.7067],[-171.5983,-13.9153,33.2135],[-171.606,-13.9103,68.9673],[-171.6021,-13.8914,57.4337],[-171.5936,-13.8733,0.9444],[-171.6044,-13.8736,0.9184],[-171.6067,-13.8717,2.1804],[-171.6119,-13.8778,1.1504],[-171.6217,-13.8847,2.7026],[-171.625,-13.8833,1.2061],[-171.6267,-13.8796,0.0],[-171.6295,-13.8777,0.0],[-171.6301,-13.8745,0.0],[-171.6332,-13.8727,0.0],[-171.6407,-13.8719,0.8964],[-171.645,-13.8753,3.0442],[-171.6486,-13.8755,0.0],[-171.6638,-13.8647,0.0],[-171.6649,-13.8605,0.0],[-171.6674,-13.8618,3.5272],[-171.6826,-13.8621,1.9811],[-171.6857,-13.864,0.0],[-171.6955,-13.8614,16.8871],[-171.693,-13.9131,621.5146],[-171.6949,-13.916,530.1099],[-171.6979,-13.9448,1055.4014],[-171.7242,-13.9373,1087.1379],[-171.7313,-13.9393,1137.7395],[-171.7399,-13.9368,985.9166],[-171.7409,-13.9894,137.2981],[-171.7391,-13.9915,124.7646],[-171.7477,-14.0279,30.3206],[-171.7477,-14.0456,0.0],[-171.7419,-14.0439,4.3649],[-171.7349,-14.0452,0.0],[-171.7277,-14.0444,0.0],[-171.7164,-14.0359,4.7481],[-171.7042,-14.035,0.0],[-171.7021,-14.0301,5.4749],[-171.6968,-14.0295,3.6907],[-171.6891,-14.0317,0.0],[-171.6858,-14.0356,0.0],[-171.6808,-14.0364,0.0],[-171.6775,-14.0394,4.7799],[-171.6608,-14.0408,1.6616],[-171.654,-14.0441,0.0],[-171.6358,-14.0392,2.7967],[-171.6253,-14.0383,0.0],[-171.6152,-14.0346,0.0],[-171.61,-14.0367,0.9314],[-171.6049,-14.0416,0.0],[-171.5863,-14.0431,0.0],[-171.5825,-14.0464,0.0],[-171.5784,-14.0447,0.0],[-171.5653,-14.0442,16.4502],[-171.5597,-14.046,0.0],[-171.5469,-14.0435,0.0],[-171.5447,-14.0455,0.0],[-171.543,-14.0444,12.942],[-171.5403,-14.0453,0.0],[-171.5275,-14.0401,0.0],[-171.5208,-14.0426,0.218],[-171.5147,-14.0417,0.0],[-171.5079,-14.043,0.0],[-171.4896,-14.0406,2.5637],[-171.4726,-14.0436,7.7685],[-171.4675,-14.0469,0.0],[-171.4644,-14.0449,0.0],[-171.4603,-14.0447,2.1588],[-171.455,-14.0464,0.0],[-171.4444,-14.0464,0.0],[-171.4344,-14.0494,1.9644],[-171.4375,-14.045,0.0],[-171.4322,-14.0323,2.8088]]],
[[[-171.4158,-14.0258,0.0],[-171.4142,-14.0258,2.4526],[-171.4142,-14.0181,7.1009],[-171.4176,-14.0212,0.0],[-171.4158,-14.0258,0.0]]],
[[[-171.3993,-14.0166,0.0],[-171.3995,-14.0137,9.0617],[-171.398,-14.0117,0.0],[-171.4011,-14.0128,0.0],[-171.3993,-14.0166,0.0]]]]}
,"properties": {"GID_1": "WSM.3_1","GID_0": "WSM","country": "Samoa","province": "Atua","VARNAME_1": "NA","NL_NAME_1": "NA","TYPE_1": "Itumalo","ENGTYPE_1": "District","CC_1": "NA","HASC_1": "WS.AT","ISO_1": "WS-AT","name": "Atua.province","area_km2": 433.4854,"hist_schema_id": "Elevation0-9000","hist_area_km2": {"0": 16.129,"25": 38.5125,"50": 27.2799,"75": 22.3222,"100": 21.0886,"125": 20.2866,"150": 18.7639,"175": 20.7601,"200": 21.4183,"225": 20.8624,"250": 22.4263,"275": 20.122,"300": 16.8508,"325": 17.9824,"350": 18.7437,"375": 16.2541,"400": 12.5299,"425": 9.9995,"450": 7.5513,"475": 6.5226,"500": 5.9464,"525": 4.9794,"550": 4.5474,"575": 4.0125,"600": 3.3334,"625": 3.3746,"650": 2.4486,"675": 2.5104,"700": 2.5721,"725": 2.0988,"750": 1.8725,"775": 2.2223,"800": 2.2017,"825": 2.1194,"850": 2.2017,"875": 1.7696,"900": 1.3375,"925": 1.2758,"950": 1.1317,"975": 1.2964,"1000": 1.3992,"1025": 0.9054,"1050": 0.7202,"1075": 0.4733,"1100": 0.1029,"1125": 0.1852,"1150": 0.0412}}}