{"type":"Feature","properties":{"ISO3166-1-Alpha-3":"WSM","country":"Samoa","fill":"#F0F","id":"4987","name":"Atua"},
"geometry":{"type": "Polygon","coordinates": [[[-171.58515,-13.88388,0.0],[-171.60692,-13.87615,2.317],[-171.65022,-13.87127,0.0],[-171.66555,-13.93018,408.8928],[-171.65241,-14.04518,0.0],[-171.63581,-14.04616,0.0],[-171.6195,-14.03753,0.0],[-171.59883,-14.04778,0.0],[-171.57921,-14.04949,0.0],[-171.53694,-14.04567,0.0],[-171.46618,-14.05283,0.0],[-171.44074,-14.05185,0.0],[-171.4453,-14.04144,42.9387],[-171.44819,-14.03753,95.5732],[-171.43769,-14.00612,46.6302],[-171.46935,-13.96941,9.9621],[-171.48474,-13.99197,274.8253],[-171.51907,-13.97595,454.46],[-171.55798,-13.98282,386.3042],[-171.59231,-13.96909,241.4841],[-171.58545,-13.92789,31.7503],[-171.55907,-13.92539,166.6769],[-171.55744,-13.91522,161.057],[-171.56758,-13.89674,75.1818],[-171.58774,-13.90958,29.7984],[-171.59918,-13.90729,36.5765],[-171.58515,-13.88388,0.0]]]}}