{"type": "Feature","bbox": [-170.687,-14.2706,-170.6699,-14.2631],"geometry": {"type": "MultiPolygon","coordinates": [[[[-170.6847,-14.2706,10.2318],[-170.6797,-14.2685,0.0],[-170.6704,-14.2701,0.0],[-170.6699,-14.2652,361.2673],[-170.6779,-14.2631,266.6913],[-170.687,-14.2647,429.2059],[-170.6847,-14.2706,10.2318]]]]}
,"properties": {"GID_3": "ASM.1.2.7_1","GID_0": "ASM","country": "AmericanSamoa","GID_1": "ASM.1_1","state": "Eastern","NL_NAME_1": "NA","GID_2": "ASM.1.2_1","county": "Ma'Oputasi","NL_NAME_2": "NA","city": "Leloaloa","VARNAME_3": "NA","NL_NAME_3": "NA","TYPE_3": "Village","ENGTYPE_3": "Village","CC_3": "NA","HASC_3": "NA","name": "Leloaloa.city","area_km2": 1.0479642,"hist_schema_id": "Elevation0-9000","hist_area_km2": {"0": 0.2260295,"25": 0.1438375,"50": 0.0410966,"75": 0.0821931,"100": 0.0616451,"125": 0.0821934,"150": 0.0821936,"175": 0.0205484,"200": 0.0616452,"225": 0.0616455,"250": 0.041097,"275": 0.0205484,"300": 0.0205484,"325": 0.0410972,"350": 0.0205485,"375": 0.0410969}}}