{"type": "Feature","bbox": [-149.07286727101493,-22.461846612505951,-136.02171790272871,-13.856622003130909],"geometry": {"type": "Polygon","coordinates": [[[-138.839161750385,-22.454888604693451,0.0],[-138.67808997304124,-22.406670831255894,0.0],[-138.53465735585374,-22.32158782344338,0.0],[-138.40550696522882,-22.203912042193394,0.0],[-138.28740393788502,-22.057671807818437,0.0],[-137.49187171132255,-20.586602471880909,0.0],[-137.17589270741627,-20.148247979693451,0.0],[-136.98662268788505,-19.946954034380894,0.0],[-136.38951575429127,-19.428887628130951,0.0],[-136.25145423085371,-19.271050714068451,0.0],[-136.14708411366627,-19.11858489375588,0.0],[-136.07487952382252,-18.971368096880909,0.0],[-136.03355872304124,-18.828789971880909,0.0],[-136.02171790272871,-18.690484307818394,0.0],[-136.03789221913502,-18.555962823443423,0.0],[-136.08079993397877,-18.424981378130894,0.0],[-136.1489151683538,-18.296807550005894,0.0],[-136.24095618397871,-18.171319268755909,0.0],[-136.35539710194746,-18.047906182818394,0.0],[-136.49101721913496,-17.92620208125588,0.0],[-138.9704483714788,-16.09685637813088,0.0],[-139.76567542226002,-15.283501885943409,0.0],[-140.37718665272877,-14.465020440630965,0.0],[-140.52562415272871,-14.304864190630923,0.0],[-140.68224036366624,-14.173760675005951,0.0],[-140.84587561757246,-14.069268487505894,0.0],[-141.01543128163496,-13.988702081255909,0.0],[-141.18974768788505,-13.929742120318394,0.0],[-141.36760413319755,-13.889703057818409,0.0],[-141.72935950429121,-13.856622003130909,0.0],[-148.59722029835865,-14.10711028438088,0.0],[-148.69493758351496,-14.130791925005909,0.0],[-148.78301131398365,-14.164849542193409,0.0],[-148.8608311382024,-14.211114190630923,0.0],[-148.92772566945243,-14.272027276568394,0.0],[-148.98308455617115,-14.34954192500588,0.0],[-149.0261143413274,-14.445733331255937,0.0],[-149.05632674367115,-14.562920831255923,0.0],[-149.07286727101493,-14.703057550005965,0.0],[-149.0627354350774,-15.042046807818423,0.0],[-149.03545272023365,-15.206109307818451,0.0],[-148.99443709523365,-15.360894464068451,0.0],[-148.94048201710865,-15.506646417193394,0.0],[-148.87444197804612,-15.643731378130937,0.0],[-148.7971104350774,-15.77251555781838,0.0],[-148.61223494679615,-16.006036065630937,0.0],[-148.39263045460859,-16.209893487505894,0.0],[-148.14507186085862,-16.386407159380894,0.0],[-147.59361731679124,-16.66753508906838,0.0],[-144.83324134022877,-18.398614190630937,0.0],[-142.79100501210374,-19.438287042193409,0.0],[-142.30522620351002,-19.828423760943409,0.0],[-142.0985001292913,-20.048638604693409,0.0],[-141.923634406635,-20.286797784380937,0.0],[-141.78667151600996,-20.54412200313088,0.0],[-141.61369788319749,-21.091851495318409,0.0],[-141.51451575429124,-21.329278253130965,0.0],[-141.39763343007252,-21.53594329219338,0.0],[-141.26469885976002,-21.714043878130923,0.0],[-141.11729895741624,-21.865899346880951,0.0],[-140.9571427074163,-21.993951104693423,0.0],[-140.78593909413502,-22.100396417193437,0.0],[-140.605275031635,-22.187432550005909,0.0],[-140.22240149647877,-22.312554620318409,0.0],[-139.8218888011663,-22.38787200313088,0.0],[-139.02110755116621,-22.461846612505951,0.0],[-138.839161750385,-22.454888604693451,0.0]],
[[-138.38646399647874,-17.335625909380909,0.0],[-138.44481360585371,-17.393975518755894,0.0],[-138.50322425038502,-17.335625909380909,0.0],[-138.44481360585371,-17.277154229693409,0.0],[-138.38646399647874,-17.335625909380909,0.0]],
[[-140.59276282460371,-21.684380792193423,2.0613],[-140.65099036366627,-21.742730401568409,0.0],[-140.70952307851002,-21.684380792193423,0.0],[-140.65099036366627,-21.625909112505909,0.0],[-140.59276282460371,-21.684380792193423,2.0613]],
[[-145.35454260976005,-17.439873956255923,0.0],[-145.41283118397871,-17.498223565630909,0.0],[-145.47130286366624,-17.439873956255923,0.0],[-145.41283118397871,-17.381402276568409,0.0],[-145.35454260976005,-17.439873956255923,0.0]],
[[-146.31309973866621,-16.137749932818451,0.0],[-146.371388312885,-16.196099542193437,0.0],[-146.42985999257252,-16.137749932818451,0.0],[-146.371388312885,-16.079278253130937,0.0],[-146.31309973866621,-16.137749932818451,0.0]]]}
,"properties": {"featurecla": "Island group","name": "ARCHIPEL DES TUAMOTU","namealt": null,"region": "Oceania","subregion": "Polynesia","min_label": 5.0,"max_label": 8.0,"scalerank": 3,"area_km2": 709814.74,"hist_schema_id": "Elevation0-9000","hist_area_km2": {"0": 709775.52,"25": 14.44,"50": 17.95,"75": 6.32}}}