{"type":"Feature","properties":{"featurecla":"Island group","name":"Chatham Islands","namealt":null,"region":"Oceania","subregion":"Polynesia","min_label":6.0,"max_label":11.0,"scalerank":6},
"geometry":{"type": "Polygon","coordinates": [[[-176.02746974367162,-44.212482001234719,0.0],[-176.42538833039143,-44.455954907554826,0.0],[-176.39787947804615,-44.465874932818451,0.0],[-176.30968176991621,-44.484063409380923,0.0],[-176.3096836772649,-44.484063409380923,0.0],[-176.25670516163984,-44.486748956255937,0.0],[-176.21007430226487,-44.48211028438088,0.0],[-176.16942488820243,-44.470269464068451,0.0],[-176.1343907085149,-44.451836846880923,0.0],[-176.10478865773362,-44.427056573443437,0.0],[-176.08025252492118,-44.396294854693394,0.0],[-176.06047713429615,-44.36003997188088,0.0],[-176.04509627492112,-44.31865813594338,0.0],[-176.03392684132734,-44.272515557818394,0.0],[-176.02746974367162,-44.212482001234719,0.0]]]}}