{"type": "Feature","bbox": [-179.18688094288987,22.953418732183962,-163.19015764849877,29.586798407025356],"geometry": {"type": "Polygon","coordinates": [[[-165.94806881454792,22.953418732183962,0.0],[-164.17607772023365,25.117926336712856,0.0],[-163.19015764849877,25.280446264838588,0.0],[-173.06883895070243,27.669501043744077,0.0],[-177.86662947804615,29.438849188275327,0.0],[-178.2645176616399,29.545233465619134,0.0],[-178.58251082570243,29.586798407025356,0.0],[-178.82665145070243,29.570135809369049,0.0],[-179.0030430522649,29.502020574994134,0.0],[-179.11785018117115,29.389166571087827,0.0],[-179.17705428273362,29.238287664837827,0.0],[-179.18688094288987,29.055975653119106,0.0],[-179.15337264210868,28.849066473431549,0.0],[-179.08257186085865,28.6242739929628,0.0],[-178.85362898976493,28.147589422650356,0.0],[-178.54888045460862,27.679632879681606,0.0],[-178.21715247304127,27.274115301556606,0.0],[-178.21715438038993,27.274115301556606,0.0],[-178.0953282085149,27.171026922650356,0.0],[-177.67760359913987,26.932501532025327,0.0],[-165.94806881454792,22.953418732183962,0.0]],
[[-167.99876963866507,24.954231001309211,0.0],[-168.0572422710149,25.012640692181662,0.0],[-167.9987705913274,25.071112371868992,0.0],[-167.9404209819524,25.012640692181662,0.0],[-167.99876963866507,24.954231001309211,0.0]],
[[-167.99876963866507,24.954231001309211,0.0],[-167.99876868397871,24.95423004765027,0.0],[-167.9987705913274,24.95423004765027,0.0],[-167.99876963866507,24.954231001309211,0.0]],
[[-173.96263682666412,26.004279829932614,0.0],[-174.02110945851487,26.062689520306719,0.0],[-173.96263777882734,26.121161199994049,0.0],[-173.90434920460859,26.062689520306719,0.0],[-173.96263682666412,26.004279829932614,0.0]],
[[-173.96263682666412,26.004279829932614,0.0],[-173.96263587147877,26.004278875775327,0.0],[-173.96263777882734,26.004278875775327,0.0],[-173.96263682666412,26.004279829932614,0.0]],
[[-177.34435164601493,28.177435614056606,0.0],[-177.37895857960868,28.176214910931606,0.0],[-177.4056309428899,28.178290106244106,0.0],[-177.41619002492112,28.180304266400356,0.0],[-177.42497908742112,28.182867742962856,0.0],[-177.43199813038993,28.185980535931549,0.0],[-177.43736922413987,28.189520574994077,0.0],[-177.44115340382743,28.193304754681634,0.0],[-177.44341170460865,28.197394110150384,0.0],[-177.44420516163993,28.201666571087856,0.0],[-177.44365584523362,28.206061102337856,0.0],[-177.44176375538987,28.210455633587856,0.0],[-177.43858992726484,28.214850164837884,0.0],[-177.43419539601493,28.219061590619049,0.0],[-177.43419348866627,28.219061590619049,0.0],[-177.42217147023368,28.226629949994077,0.0],[-177.40819441945237,28.231634832806634,0.0],[-177.39281356007734,28.234320379681549,0.0],[-177.37651717335862,28.234930731244077,0.0],[-177.3599766460149,28.233771063275327,0.0],[-177.32842147023368,28.227118231244106,0.0],[-177.31444441945237,28.222174383587856,0.0],[-177.30254256398365,28.216498114056549,0.0],[-177.29326522023362,28.210394598431549,0.0],[-177.2871006694524,28.204046942181606,0.0],[-177.28472029835865,28.197882391400384,0.0],[-177.2866123882024,28.192023016400356,0.0],[-177.29338729054615,28.186835028119049,0.0],[-177.30565535695237,28.182501532025356,0.0],[-177.34435164601493,28.177435614056606,0.0]]]}
,"properties": {"featurecla": "Island group","name": "HAWAIIAN ISLANDS","namealt": null,"region": "Oceania","subregion": "Polynesia","min_label": 3.0,"max_label": 6.0,"scalerank": 1,"area_km2": 396343.59,"hist_schema_id": "Elevation0-9000","hist_area_km2": {"0": 396343.59}}}