{"type": "Feature","bbox": [-156.0502842632024,18.931463934369077,-154.79588973195234,20.2799136414003],"geometry": {"type": "Polygon","coordinates": [[[-155.59441268117112,20.140570379681719,0.0],[-155.60698592335859,20.152350164837827,0.0],[-155.61431014210859,20.156805731244134,0.0],[-155.63341414601487,20.162176824993992,0.0],[-155.65990340382734,20.185248114056492,0.0],[-155.71941268117109,20.207953192181492,0.0],[-155.72576033742115,20.213629461712884,0.0],[-155.7281407085149,20.222845770306606,0.0],[-155.72936141163987,20.232550360150242,0.0],[-155.73277938038984,20.240057684369049,0.0],[-155.73808943898365,20.244940496869162,0.0],[-155.76622664601484,20.250311590619106,0.0],[-155.8237217632024,20.274603582806577,0.0],[-155.85613143117115,20.2799136414003,0.0],[-155.88060652882737,20.253241278119077,39.9255],[-155.89556014210859,20.214972235150384,57.9219],[-155.89946639210859,20.185248114056492,21.5296],[-155.89025008351487,20.1473452820253,36.1629],[-155.87334334523359,20.114447332806634,93.4053],[-155.8237217632024,20.054877020306577,184.157],[-155.82030379445234,20.050848699994049,202.2225],[-155.80974471242109,20.031317449994162,114.5039],[-155.8100498882024,20.013983465619106,104.1343],[-155.81944930226484,20.0008609070253,67.8045],[-155.8510655132024,19.976507879681606,0.0],[-155.85790145070234,19.969549871869106,0.0],[-155.89604842335859,19.914618231244106,0.0],[-155.9059971538274,19.903265692181606,0.0],[-155.9261387553899,19.87000153202527,0.0],[-155.96806990773362,19.855414129681719,0.0],[-155.98223006398365,19.844549871869219,0.0],[-155.98760115773359,19.82556793827527,12.3279],[-155.99687850148365,19.815619207806606,11.4747],[-156.0175694194524,19.802313543744049,0.0],[-156.03899275929609,19.784308172650412,0.0],[-156.0502842632024,19.760748602337912,0.0],[-156.04491316945234,19.7183902039003,8.1555],[-156.02452742726487,19.6865298523378,14.5544],[-155.9980381694524,19.657477117962912,66.8371],[-155.97453963429609,19.623541571087742,87.985],[-155.9658116069524,19.603216864056577,71.0569],[-155.95940291554615,19.582464910931606,132.4795],[-155.95543563038984,19.560675360150412,91.1292],[-155.9540928569524,19.537298895306634,61.3725],[-155.95250594288984,19.528143621869134,30.6574],[-155.9404209819524,19.493170477337827,129.1847],[-155.93675887257734,19.492438055462856,172.3145],[-155.92339217335859,19.493963934369106,345.1789],[-155.9199131694524,19.493170477337827,378.802],[-155.91930281788984,19.48834869999402,325.5698],[-155.92070662648365,19.477484442181549,0.0],[-155.9199131694524,19.472723699994049,0.7399],[-155.89653670460862,19.39105866093152,66.0733],[-155.8829258647649,19.368353582806606,173.7566],[-155.87895857960859,19.356024481244077,262.8988],[-155.87932479054615,19.347845770306606,198.0271],[-155.90508162648359,19.188544012494162,12.623],[-155.90605818898359,19.105108953900412,30.1134],[-155.90093123585862,19.083807684369049,11.1592],[-155.88890731007737,19.07483551640027,40.2323],[-155.87706648976484,19.069403387494219,58.6421],[-155.8724278178899,19.056952215619077,46.6725],[-155.86992537648362,19.04315827030652,22.6762],[-155.86467635304609,19.033880926556577,19.275],[-155.85619246632737,19.031927801556549,34.8089],[-155.8237217632024,19.033880926556577,87.3953],[-155.78606307179609,19.02448151249402,99.6448],[-155.74541365773365,19.007391668744106,104.2368],[-155.70976912648359,18.98651764530652,72.4031],[-155.68718611867109,18.965643621869219,207.7878],[-155.67009627492109,18.936957098431549,79.3513],[-155.66948592335865,18.931463934369077,63.3309],[-155.65727889210865,18.935736395306662,64.8025],[-155.63902938038984,18.954535223431577,63.9206],[-155.62853133351484,18.958807684369162,50.6045],[-155.61461531788984,18.967230535931606,0.0],[-155.57048689992115,19.027044989056606,26.6798],[-155.55559432179612,19.083807684369049,78.9364],[-155.54631697804609,19.09943268436902,32.0856],[-155.50298201710865,19.138861395306662,17.1823],[-155.48796736867109,19.143744207806577,10.797],[-155.43694197804609,19.171026922650327,61.7156],[-155.42278182179615,19.181341864056606,67.7265],[-155.39879500538984,19.205023504681634,110.7046],[-155.38451277882737,19.2148501648378,141.9332],[-155.3681553569524,19.218878485150412,133.9644],[-155.35570418507737,19.223395086712856,89.8102],[-155.32347762257737,19.253607489056577,55.9039],[-155.29930770070234,19.270880438275356,135.2626],[-155.2869785991399,19.275824285931492,228.9929],[-155.26885115773365,19.280340887494106,292.1358],[-155.18999373585865,19.276922918744219,45.9413],[-155.17259871632737,19.285711981244134,64.0707],[-155.1043614116399,19.300787664837884,35.7617],[-155.0698155132024,19.319220282025327,55.0199],[-155.05034529835862,19.3260562195253,61.0081],[-155.02519881398365,19.328741766400412,40.9013],[-155.00829207570237,19.333502508587912,7.3701],[-154.91936385304609,19.409979559369049,64.3883],[-154.91191756398365,19.42121002811902,70.3771],[-154.83000838429609,19.465277410931549,0.0],[-154.81731307179615,19.480963446087827,0.0],[-154.80638777882737,19.501349188275412,0.0],[-154.79875838429612,19.523565985150384,0.0],[-154.79588973195234,19.5444400085878,0.0],[-154.87096297413987,19.588812567181662,0.0],[-154.9225987163274,19.615118719525384,0.0],[-154.96282088429615,19.654608465619162,0.0],[-154.96935164601484,19.668158270306662,0.0],[-154.97746932179609,19.718817449994077,0.0],[-154.98235213429612,19.73572418827527,0.0],[-154.99425398976484,19.7445132507753,0.0],[-155.01872908742115,19.747076727337969,0.0],[-155.05876814992115,19.74048493046277,0.0],[-155.06987654835859,19.745245672650356,0.0],[-155.07701766163984,19.766974188275242,0.0],[-155.07701766163984,19.846075750775469,0.0],[-155.08055770070234,19.868170477337856,0.0],[-155.08940779835859,19.885687567181662,0.0],[-155.17375838429615,19.975592352337884,0.0],[-155.20744979054615,20.0008609070253,0.0],[-155.3380039897649,20.064276434369219,0.0],[-155.44682967335865,20.106573797650327,0.0],[-155.49126326710865,20.114203192181577,0.0],[-155.52831160695234,20.136419989056492,0.0],[-155.55004012257734,20.1442935242128,0.0],[-155.56035506398359,20.14179108280652,0.0],[-155.57036482960859,20.135443426556634,0.0],[-155.58122908742109,20.132574774212884,0.0],[-155.59441268117112,20.140570379681719,0.0]]]}
,"properties": {"featurecla": "Island group","name": "Hawai‘i","namealt": null,"region": "Oceania","subregion": "Polynesia","min_label": 3.0,"max_label": 6.0,"scalerank": 1,"area_km2": 10471.988,"hist_schema_id": "Elevation0-9000","hist_area_km2": {"0": 351.292,"25": 190.003,"50": 161.175,"75": 148.305,"100": 156.208,"125": 146.012,"150": 135.584,"175": 133.215,"200": 130.87,"225": 127.478,"250": 120.894,"275": 118.759,"300": 118.083,"325": 114.1,"350": 116.294,"375": 113.383,"400": 112.305,"425": 108.109,"450": 111.024,"475": 111.972,"500": 114.366,"525": 107.669,"550": 110.924,"575": 112.896,"600": 112.834,"625": 111.525,"650": 111.401,"675": 111.738,"700": 116.12,"725": 119.592,"750": 119.463,"775": 121.416,"800": 121.622,"825": 118.106,"850": 120.92,"875": 128.544,"900": 119.417,"925": 116.21,"950": 110.029,"975": 108.582,"1000": 108.44,"1025": 101.224,"1050": 96.17,"1075": 102.286,"1100": 99.751,"1125": 99.222,"1150": 98.46,"1175": 94.174,"1200": 92.915,"1225": 96.212,"1250": 85.241,"1275": 86.068,"1300": 84.346,"1325": 84.448,"1350": 81.378,"1375": 83.257,"1400": 79.907,"1425": 81.343,"1450": 80.982,"1475": 76.849,"1500": 77.231,"1525": 80.268,"1550": 88.137,"1575": 95.465,"1600": 86.8,"1625": 76.119,"1650": 70.749,"1675": 75.36,"1700": 71.705,"1725": 72.505,"1750": 71.866,"1775": 73.721,"1800": 73.025,"1825": 69.948,"1850": 70.41,"1875": 70.251,"1900": 67.197,"1925": 69.233,"1950": 71.628,"1975": 69.373,"2000": 76.181,"2025": 78.22,"2050": 67.941,"2075": 60.212,"2100": 55.118,"2125": 52.504,"2150": 51.488,"2175": 49.172,"2200": 47.893,"2225": 44.597,"2250": 44.118,"2275": 42.638,"2300": 43.037,"2325": 41.319,"2350": 39.123,"2375": 39.004,"2400": 36.087,"2425": 35.466,"2450": 34.608,"2475": 34.748,"2500": 33.05,"2525": 31.531,"2550": 31.892,"2575": 31.95,"2600": 29.352,"2625": 30.252,"2650": 29.332,"2675": 27.574,"2700": 26.474,"2725": 24.556,"2750": 25.874,"2775": 24.097,"2800": 24.017,"2825": 22.158,"2850": 22.678,"2875": 21.578,"2900": 20.48,"2925": 20.519,"2950": 19.639,"2975": 19.22,"3000": 18.7,"3025": 18.241,"3050": 16.722,"3075": 17.002,"3100": 16.501,"3125": 16.542,"3150": 15.603,"3175": 16.621,"3200": 14.823,"3225": 15.423,"3250": 15.003,"3275": 14.403,"3300": 14.263,"3325": 14.163,"3350": 13.384,"3375": 13.084,"3400": 13.204,"3425": 12.624,"3450": 12.844,"3475": 12.923,"3500": 12.146,"3525": 12.144,"3550": 11.346,"3575": 12.264,"3600": 11.884,"3625": 10.725,"3650": 11.306,"3675": 10.806,"3700": 9.748,"3725": 10.108,"3750": 9.588,"3775": 9.268,"3800": 8.948,"3825": 8.81,"3850": 8.929,"3875": 8.311,"3900": 8.71,"3925": 8.332,"3950": 8.492,"3975": 13.07,"4000": 9.532,"4025": 5.835,"4050": 2.997,"4075": 1.698,"4100": 1.378,"4125": 0.998,"4150": 0.519,"4175": 0.199}}}