{"type": "Feature","bbox": [-139.17339026601005,-9.8535702453184086,-138.81419837147877,-9.6932919250059371],"geometry": {"type": "Polygon","coordinates": [[[-138.87712561757249,-9.753106378130866,0.0],[-138.90099036366627,-9.7473690734434513,141.525],[-138.92131507069752,-9.7460263000059371,174.0415],[-138.94292151601,-9.7412655578184513,155.396],[-138.96147620351002,-9.732598565630866,0.0],[-138.9726456371038,-9.719537042193366,321.0424],[-138.98473059804127,-9.6984188781309228,75.1892],[-139.01555335194752,-9.6932919250059371,0.0],[-139.05150305897877,-9.70037200313088,0.0],[-139.13860022694746,-9.74968840938088,0.0],[-139.16960608632246,-9.7598202453184086,0.0],[-139.17339026601005,-9.7730038390684228,0.0],[-139.17046057850996,-9.78887297969338,0.0],[-139.16508948476002,-9.8020565734433944,0.0],[-139.157032844135,-9.814141534380866,0.0],[-139.14360510976002,-9.82769133906838,0.0],[-139.12639319569746,-9.83904387813088,0.0],[-139.08568274647871,-9.8475888000059371,50.5359],[-139.07146155507246,-9.8535702453184086,0.0],[-139.06206214101002,-9.8527157531309086,129.136],[-139.05522620351002,-9.8362362609434371,0.0],[-139.05522620351002,-9.8051083312558944,327.6977],[-139.04991614491621,-9.8023007140684513,74.1071],[-139.03813635976002,-9.8012020812558944,83.6858],[-139.02641760976002,-9.8021786437559228,47.9548],[-139.02104651601002,-9.8051083312558944,133.4144],[-139.00963294179127,-9.8079159484434371,118.5298],[-138.95586096913505,-9.808892510943366,0.0],[-138.91673743397877,-9.8053524718809513,46.7765],[-138.89226233632257,-9.7994930968809086,212.5621],[-138.86943518788502,-9.7904598937559371,0.8299],[-138.81865393788496,-9.7476132140684086,0.0],[-138.81419837147877,-9.7384579406309086,0.0],[-138.83672034413502,-9.7399227843809371,0.0],[-138.84251868397877,-9.7429745421934371,0.0],[-138.84819495351005,-9.747857354693366,0.0],[-138.85564124257257,-9.7523739562558944,0.0],[-138.86681067616621,-9.7542050109434228,0.0],[-138.87712561757249,-9.753106378130866,0.0]]]}
,"properties": {"featurecla": "Island group","name": "Hiva Oa","namealt": null,"region": "Oceania","subregion": "Polynesia","min_label": 5.3,"max_label": 9.0,"scalerank": 4,"area_km2": 342.3171,"hist_schema_id": "Elevation0-9000","hist_area_km2": {"0": 57.5883,"25": 6.4146,"50": 7.6474,"75": 8.4205,"100": 9.2772,"125": 10.7189,"150": 10.9069,"175": 11.4085,"200": 11.7636,"225": 11.7636,"250": 11.3247,"275": 10.5726,"300": 10.6143,"325": 10.6771,"350": 10.0085,"375": 9.5906,"400": 9.507,"425": 10.4264,"450": 10.2802,"475": 11.2832,"500": 9.1728,"525": 9.7787,"550": 9.4653,"575": 9.8414,"600": 6.6236,"625": 5.6416,"650": 6.2265,"675": 4.7222,"700": 4.1162,"725": 3.2804,"750": 3.1132,"775": 2.0685,"800": 2.1939,"825": 2.0894,"850": 1.8595,"875": 1.7341,"900": 1.7968,"925": 1.4416,"950": 1.6296,"975": 0.7939,"1000": 0.8148,"1025": 0.7521,"1050": 0.7939,"1075": 0.6686,"1100": 0.5014,"1125": 0.2716,"1150": 0.3761,"1175": 0.1462,"1200": 0.1254,"1225": 0.0836}}}