{"type":"Feature","properties":{"featurecla":"Island group","name":"Kaua‘i","namealt":null,"region":"Oceania","subregion":"Polynesia","min_label":5.3,"max_label":9.0,"scalerank":4},
"geometry":{"type": "Polygon","coordinates": [[[-159.35570418507737,22.224066473431549,0.0],[-159.3807285991399,22.231573797650356,0.0],[-159.39134871632734,22.238409735150327,0.0],[-159.40166365773362,22.242499090619162,0.0],[-159.41130721242112,22.237921453900412,0.0],[-159.41844832570237,22.233343817181662,0.0],[-159.42882430226484,22.230658270306634,0.0],[-159.50682723195234,22.219794012494134,0.0],[-159.51433455617115,22.217108465619134,0.0],[-159.5279453960149,22.227362371869077,0.0],[-159.5438145366399,22.234869696087912,0.0],[-159.55956160695234,22.236151434369106,0.0],[-159.57268416554615,22.227972723431719,0.0],[-159.5908116069524,22.222235418744106,0.0],[-159.64617049367109,22.195563055462884,0.0],[-159.72362410695237,22.147772528119049,0.0],[-159.72600447804609,22.144781805462856,0.0],[-159.73277938038987,22.141913153119077,0.0],[-159.73436629445243,22.134955145306606,0.0],[-159.73442732960865,22.126166082806492,0.0],[-159.73656356007734,22.118109442181719,171.3164],[-159.77672469288984,22.070685125775356,0.0],[-159.78807723195234,22.062811590619134,0.0],[-159.7952793803899,22.052618719525412,0.0],[-159.78600203663987,22.030523992962827,3.4815],[-159.7718418803899,22.010199285931492,2.6464],[-159.76445662648365,22.004828192181634,8.3212],[-159.75957381398359,21.98792145390027,7.99],[-159.74706160695234,21.981024481243992,2.813],[-159.73039900929612,21.97589752811902,5.2073],[-159.71294295460862,21.963812567181634,0.0],[-159.69621932179618,21.959357000775412,0.0],[-159.67211043507734,21.960760809369134,8.11],[-159.65038191945237,21.958502508587912,51.2072],[-159.63512313038987,21.932074285931662,27.2056],[-159.60802352101484,21.90857575077527,28.6344],[-159.5999668803899,21.898993231244162,8.0456],[-159.59319197804615,21.898993231244162,0.0],[-159.57012068898365,21.905829168744134,52.0673],[-159.52361189992109,21.903387762493992,143.4051],[-159.47746932179609,21.891913153119134,29.6569],[-159.45537459523365,21.871039129681662,0.0],[-159.4007481303899,21.905829168744134,108.7558],[-159.34551131398365,21.952948309369134,0.0],[-159.3500889507024,21.963751532025327,34.8512],[-159.34911238820234,21.969732977337884,41.3043],[-159.34300887257734,21.970831610150356,33.8704],[-159.3319004741399,21.967291571087742,7.3369],[-159.33080184132734,21.985968328900412,0.0],[-159.33183943898359,22.005194403119219,0.0],[-159.33476912648365,22.022772528119162,0.0],[-159.33928572804609,22.036200262494049,8.9348],[-159.3035801616399,22.094977117962827,0.0],[-159.2927159038274,22.1367251648378,0.0],[-159.2929600444524,22.147650457806606,0.0],[-159.30144393117112,22.152228094525356,0.0],[-159.3078526225774,22.155829168744077,22.8243],[-159.31334578663984,22.16474030155652,36.2949],[-159.31731307179615,22.176092840619219,35.2794],[-159.3188389507024,22.186957098431719,53.5],[-159.3249424663274,22.200934149212742,0.0],[-159.33891951710862,22.214178778119162,0.0],[-159.35570418507737,22.224066473431549,0.0]]]}}