{"type": "Feature","bbox": [-178.2256993022649,-29.567559503130923,-177.68352400929615,-29.055840753130951],"geometry": {"type": "Polygon","coordinates": [[[-177.98705184132734,-29.563164971880923,0.0],[-177.93498885304612,-29.549248956255923,0.0],[-177.8834141460149,-29.525567315630894,0.0],[-177.83397566945243,-29.49187590938088,0.0],[-177.78819930226493,-29.447564385943409,0.0],[-177.74785506398368,-29.392632745318409,0.0],[-177.71459090382737,-29.326470635943423,0.0],[-177.69328963429618,-29.263604425005909,0.0],[-177.68352400929615,-29.209771417193451,0.0],[-177.6841953960149,-29.164727471880923,0.0],[-177.69414412648365,-29.12786223750588,0.0],[-177.71227156788993,-29.099053643755965,0.0],[-177.73754012257743,-29.077813409380894,0.0],[-177.7687901225774,-29.063653253130937,0.0],[-177.80498397023368,-29.056573175005923,0.0],[-177.84490096242115,-29.055840753130951,0.0],[-177.88756453663993,-29.061333917193409,0.0],[-177.93175398976487,-29.072564385943394,0.0],[-177.9764317241399,-29.089165948443394,0.0],[-178.02049910695243,-29.11089446406838,0.0],[-178.06291854054615,-29.137261651568423,0.0],[-178.1024082866399,-29.167901300005951,0.0],[-178.15489852101484,-29.221978448443451,0.0],[-178.16978919179127,-29.242608331255894,0.0],[-178.16979109913987,-29.242608331255894,0.0],[-178.20390975148359,-29.306939385943451,0.0],[-178.22197615773365,-29.36504485469338,0.0],[-178.2256993022649,-29.416558526568394,0.0],[-178.21660506398362,-29.461114190630909,0.0],[-178.19646346242118,-29.49846770625588,0.0],[-178.1668614116399,-29.528008721880951,0.0],[-178.12944686085862,-29.549737237505937,0.0],[-178.08592879445243,-29.563042901568394,0.0],[-178.03795516163993,-29.567559503130923,0.0],[-177.98705184132734,-29.563164971880923,0.0]]]}
,"properties": {"featurecla": "Island group","name": "Kermadec Islands","namealt": null,"region": "Oceania","subregion": "Polynesia","min_label": 6.0,"max_label": 11.0,"scalerank": 6,"area_km2": 2178.943,"hist_schema_id": "Elevation0-9000","hist_area_km2": {"0": 2151.699,"25": 2.627,"50": 1.85,"75": 1.85,"100": 1.683,"125": 1.147,"150": 1.295,"175": 1.443,"200": 1.535,"225": 2.256,"250": 1.739,"275": 1.961,"300": 1.72,"325": 1.35,"350": 1.443,"375": 1.332,"400": 0.888,"425": 0.592,"450": 0.351,"475": 0.148,"500": 0.037}}}