{"type": "Feature","bbox": [-157.58129012257737,1.71051666874402,-157.1747959819524,2.035650946087884],"geometry": {"type": "Polygon","coordinates": [[[-157.42400252492109,2.021612860150285,5.5122],[-157.4747227397649,2.034491278119205,7.2193],[-157.4964512553899,2.035650946087884,2.2981],[-157.5095127788274,2.0258242859315492,0.0],[-157.50859725148359,2.0118472351502419,0.0],[-157.49907576710859,2.0033633484315909,0.0],[-157.48808943898359,2.0017153992128982,0.0],[-157.48284041554609,2.0084292664003409,2.938],[-157.4776524272649,2.0192935242127561,0.0],[-157.46648299367115,2.014471746869134,0.0],[-157.45549666554609,2.0042178406189919,0.0],[-157.4511631694524,1.998480535931662,2.7174],[-157.44548689992112,1.995611883587898,0.6541],[-157.40904891163984,1.9705264343690629,0.0],[-157.37981307179615,1.95685455936912,0.8748],[-157.3618077007024,1.952643133587856,0.0],[-157.35515486867109,1.9487979187440769,0.0],[-157.35246932179618,1.9401309265564921,0.0],[-157.3542393413274,1.9329898132753409,0.229],[-157.35857283742118,1.925055242962912,1.1022],[-157.3640049663274,1.918524481244205,0.8011],[-157.37413680226484,1.91260407108787,1.1177],[-157.37737166554609,1.9064395203065629,1.0634],[-157.38225447804609,1.9033267273377561,1.1451],[-157.3922032085149,1.9091250671815769,0.6],[-157.39604842335865,1.918158270306634,0.6059],[-157.39409529835862,1.9279238953064921,0.0],[-157.3948887553899,1.9369570984315629,0.5557],[-157.40648543507737,1.9438540710878409,0.0],[-157.40331160695234,1.925421453900398,0.0],[-157.40849959523365,1.9226748718690769,0.0],[-157.4201573100774,1.93024323124402,0.2059],[-157.42449080617109,1.922430731244035,0.0],[-157.42650496632734,1.913214422650398,0.0],[-157.4245518413274,1.9030215515565769,0.0],[-157.41020857960862,1.8806216492127421,0.0],[-157.40807234913984,1.867315985150285,-0.5],[-157.41210066945234,1.859625555462912,-1.0],[-157.42388045460865,1.864386297650398,0.0],[-157.43010604054609,1.87396881718152,0.0],[-157.43260848195234,1.884955145306705,0.0],[-157.43669783742109,1.895086981244148,0.0],[-157.44744002492115,1.902289129681606,0.0],[-157.4459141460149,1.884894110150398,0.0],[-157.45183455617115,1.877630926556549,0.0],[-157.46245467335859,1.87750885624412,0.0],[-157.47539412648365,1.8817813171815909,0.0],[-157.46819197804612,1.8695742859315909,1.3091],[-157.45873152882734,1.8633486999940769,0.0],[-157.4481114116399,1.85871002811902,0.0],[-157.4374912944524,1.851385809369205,1.6495],[-157.42864119679615,1.839789129681662,0.0],[-157.43486678273368,1.839667059369049,1.4476],[-157.45488631398365,1.848273016400398,0.0],[-157.4789952007024,1.849127508587898,0.9792],[-157.4908360210149,1.851385809369205,0.0],[-157.49584090382737,1.857855535931606,1.5079],[-157.50108992726487,1.867010809369106,4.3111],[-157.51323592335865,1.867804266400384,5.7797],[-157.52709090382734,1.8660342468690909,6.6312],[-157.5374668803899,1.8675601257753409,1.3875],[-157.54961287648359,1.8856875671815909,0.0],[-157.54552352101484,1.903570867962799,0.0],[-157.53301131398359,1.917303778119049,0.0],[-157.52007186085862,1.92279694218152,0.0],[-157.51769148976487,1.9248721374939921,0.0],[-157.5213535991399,1.92890045780652,0.0],[-157.53026473195234,1.931708074994148,0.0],[-157.54369246632734,1.93024323124402,0.0],[-157.57244002492115,1.9140078796815061,0.0],[-157.57842147023359,1.9091250671815769,0.0],[-157.58129012257737,1.8814761414003269,0.0],[-157.5661534038274,1.864935614056634,0.0],[-157.5469883647649,1.85767243046287,3.7869],[-157.5374668803899,1.857855535931606,6.0426],[-157.52843367726484,1.8636538757752561,6.2971],[-157.50878035695234,1.8507754578065909,0.0],[-157.48284041554609,1.8265445007753269,0.0],[-157.44914900929615,1.801459051556662,2.2764],[-157.41069686085865,1.783087469525356,3.3173],[-157.30937850148359,1.753058172650285,0.0],[-157.28703963429615,1.7514102234315909,-0.2119],[-157.28166854054615,1.748236395306662,-0.5],[-157.27129256398365,1.7341372742127421,1.1806],[-157.26103865773359,1.7280337585877421,2.2354],[-157.25475203663987,1.7214419617128269,3.0649],[-157.2465733257024,1.714544989056549,2.4373],[-157.23515975148365,1.71051666874402,0.6636],[-157.22429549367118,1.7108828796815909,2.9947],[-157.21343123585859,1.7139346374940909,-1.5],[-157.20323836476484,1.718634344525455,-1.0],[-157.19420516163987,1.7241275085878409,0.4648],[-157.17894637257737,1.71967194218152,1.525],[-157.1747959819524,1.7349917664003269,1.652],[-157.1795567241399,1.755072332806634,1.8898],[-157.19115340382737,1.765082098431535,2.9962],[-157.20708357960865,1.767767645306549,2.5623],[-157.2231358257024,1.77478668827527,3.1209],[-157.23857772023365,1.784796453900356,0.0],[-157.25255477101484,1.796454168744205,0.0],[-157.28990828663993,1.819952703900412,0.0],[-157.32561385304612,1.836981512494035,0.0],[-157.34789168507743,1.862005926556648,1.9072],[-157.34502303273365,1.9091250671815769,2.8822],[-157.34056746632734,1.9314639343690909,1.6537],[-157.33629500538987,1.940314032025412,1.7707],[-157.3207920757024,1.9467227234315909,1.8166],[-157.31523787648365,1.953924871869049,0.6678],[-157.31157576710859,1.963751532025398,2.273],[-157.3102940288274,1.974249578900398,1.5575],[-157.32195174367118,1.9733340515565909,0.217],[-157.38603865773368,1.9916445984315909,1.3467],[-157.42400252492109,2.021612860150285,5.5122]]]}
,"properties": {"featurecla": "Island group","name": "Kiritimati","namealt": "Christmas I.","region": "Oceania","subregion": "Polynesia","min_label": 5.3,"max_label": 9.0,"scalerank": 4,"area_km2": 438.4019,"hist_schema_id": "Elevation0-9000","hist_area_km2": {"0": 438.4019}}}