{"type": "Feature","bbox": [-179.99980818898365,-12.785821221880838,-150.08995711476493,7.0614688171816624],"geometry": {"type": "MultiPolygon","coordinates": [[[[-150.50496681643745,-9.3534403966785788,0.0],[-150.67632186085856,-8.8690731750058376,0.0],[-152.23625838429615,-6.1974423156308944,0.0],[-154.18102156788984,-1.010674737505894,0.0],[-154.82555281788979,1.324164129681662,0.0],[-154.95275008351496,1.647650457806662,0.0],[-155.1686924663274,2.0051944031190492,0.0],[-155.82628523976493,2.7971255554627992,0.0],[-157.75798689992121,4.5091006531189919,0.0],[-160.97240340382743,6.6297061218690487,0.0],[-161.80174910695246,7.0127017273377987,0.0],[-162.17449080617115,7.0614688171816624,0.0],[-162.57781111867115,6.9516055359316624,0.0],[-163.01036727101487,6.7005069031190487,0.0],[-163.47106063038996,6.3256289734316624,0.0],[-169.36992537648362,-0.394952081255951,0.0],[-170.7711094585149,-1.480401300005838,0.0],[-171.50261580617118,-1.891289971880894,0.0],[-173.03758895070237,-2.489922784380838,0.0],[-174.59978377492104,-2.837456964068394,0.0],[-176.10698592335862,-2.989068292193394,0.0],[-178.62676131398371,-2.9262020812559508,0.0],[-179.99980818898365,-2.731377862505894,0.0],[-179.99980628163505,-4.2122128234434513,0.0],[-179.99980818898365,-4.2122128234434513,0.0],[-175.13011824757737,-5.3389218078183944,0.0],[-174.39952742726487,-5.4014218078183376,0.0],[-173.58641707570229,-5.3989804015684513,0.0],[-170.35967147023362,-4.9504940734433944,0.0],[-162.63127791554604,-5.1021054015684513,0.0],[-159.3222569194524,-5.4836971984433376,0.0],[-158.31804549367118,-5.6960995421933376,0.0],[-157.96007430226479,-5.8245175109434513,0.0],[-157.23815047413979,-6.2102596984434513,0.0],[-156.5049961772649,-6.7533505187558376,0.0],[-154.99071395070246,-8.2423641906309513,0.0],[-151.69469344288984,-12.256036065630894,0.0],[-151.5128752627655,-12.413249994514501,0.0],[-151.3266514507024,-12.574273370318394,0.0],[-151.00597273976487,-12.746270440630951,0.0],[-150.73284041554612,-12.785821221880838,0.0],[-150.50749861867104,-12.706353448443394,0.0],[-150.33031356007729,-12.521538995318394,0.0],[-150.20146834523354,-12.244805596880838,0.0],[-150.12126814992104,-11.889580987505951,0.0],[-150.08995711476493,-11.469537042193394,0.0],[-150.10777938038984,-10.998101495318451,0.0],[-150.2921055522649,-9.9551327453183376,0.0],[-150.50496681643745,-9.3534403966785788,0.0]],
[[-152.37816416991507,-10.154350542656005,0.0],[-152.4366368022649,-10.096001885943423,0.0],[-152.3781651225774,-10.037530206255909,0.0],[-152.3198155132024,-10.096001885943423,0.0],[-152.37816416991507,-10.154350542656005,0.0]],
[[-152.37816416991507,-10.154350542656005,0.0],[-152.37816321522871,-10.154351495318409,0.0],[-152.3781651225774,-10.154351495318409,0.0],[-152.37816416991507,-10.154350542656005,0.0]],
[[-155.91118419044281,-5.6802294489062319,0.0],[-155.9697178569524,-5.6218807921934513,0.0],[-155.91118514210859,-5.5635311828184646,0.0],[-155.8528965678899,-5.6218807921934513,0.0],[-155.91118419044281,-5.6802294489062319,0.0]],
[[-155.91118419044281,-5.6802294489062319,0.0],[-155.91118323476,-5.6802304015684371,0.0],[-155.91118514210859,-5.6802304015684371,0.0],[-155.91118419044281,-5.6802294489062319,0.0]],
[[-157.42400252492109,2.021612860150285,5.5122],[-157.38603865773368,1.9916445984315909,1.3467],[-157.32195174367118,1.9733340515565909,0.217],[-157.3102940288274,1.974249578900398,1.5575],[-157.31157576710859,1.963751532025398,2.273],[-157.31523787648365,1.953924871869049,0.6678],[-157.3207920757024,1.9467227234315909,1.8166],[-157.33629500538987,1.940314032025412,1.7707],[-157.34056746632734,1.9314639343690909,1.6537],[-157.34502303273365,1.9091250671815769,2.8822],[-157.34789168507743,1.862005926556648,1.9072],[-157.32561385304612,1.836981512494035,0.0],[-157.28990828663993,1.819952703900412,0.0],[-157.25255477101484,1.796454168744205,0.0],[-157.23857772023365,1.784796453900356,0.0],[-157.2231358257024,1.77478668827527,3.1209],[-157.20708357960865,1.767767645306549,2.5623],[-157.19115340382737,1.765082098431535,2.9962],[-157.1795567241399,1.755072332806634,1.8898],[-157.1747959819524,1.7349917664003269,1.652],[-157.17894637257737,1.71967194218152,1.525],[-157.19420516163987,1.7241275085878409,0.4648],[-157.20323836476484,1.718634344525455,-1.0],[-157.21343123585859,1.7139346374940909,-1.5],[-157.22429549367118,1.7108828796815909,2.9947],[-157.23515975148365,1.71051666874402,0.6636],[-157.2465733257024,1.714544989056549,2.4373],[-157.25475203663987,1.7214419617128269,3.0649],[-157.26103865773359,1.7280337585877421,2.2354],[-157.27129256398365,1.7341372742127421,1.1806],[-157.28166854054615,1.748236395306662,-0.5],[-157.28703963429615,1.7514102234315909,-0.2119],[-157.30937850148359,1.753058172650285,0.0],[-157.41069686085865,1.783087469525356,3.3173],[-157.44914900929615,1.801459051556662,2.2764],[-157.48284041554609,1.8265445007753269,0.0],[-157.50878035695234,1.8507754578065909,0.0],[-157.52843367726484,1.8636538757752561,6.2971],[-157.5374668803899,1.857855535931606,6.0426],[-157.5469883647649,1.85767243046287,3.7869],[-157.5661534038274,1.864935614056634,0.0],[-157.58129012257737,1.8814761414003269,0.0],[-157.57842147023359,1.9091250671815769,0.0],[-157.57244002492115,1.9140078796815061,0.0],[-157.54369246632734,1.93024323124402,0.0],[-157.53026473195234,1.931708074994148,0.0],[-157.5213535991399,1.92890045780652,0.0],[-157.51769148976487,1.9248721374939921,0.0],[-157.52007186085862,1.92279694218152,0.0],[-157.53301131398359,1.917303778119049,0.0],[-157.54552352101484,1.903570867962799,0.0],[-157.54961287648359,1.8856875671815909,0.0],[-157.5374668803899,1.8675601257753409,1.3875],[-157.52709090382734,1.8660342468690909,6.6312],[-157.51323592335865,1.867804266400384,5.7797],[-157.50108992726487,1.867010809369106,4.3111],[-157.49584090382737,1.857855535931606,1.5079],[-157.4908360210149,1.851385809369205,0.0],[-157.4789952007024,1.849127508587898,0.9792],[-157.45488631398365,1.848273016400398,0.0],[-157.43486678273368,1.839667059369049,1.4476],[-157.42864119679615,1.839789129681662,0.0],[-157.4374912944524,1.851385809369205,1.6495],[-157.4481114116399,1.85871002811902,0.0],[-157.45873152882734,1.8633486999940769,0.0],[-157.46819197804612,1.8695742859315909,1.3091],[-157.47539412648365,1.8817813171815909,0.0],[-157.46245467335859,1.87750885624412,0.0],[-157.45183455617115,1.877630926556549,0.0],[-157.4459141460149,1.884894110150398,0.0],[-157.44744002492115,1.902289129681606,0.0],[-157.43669783742109,1.895086981244148,0.0],[-157.43260848195234,1.884955145306705,0.0],[-157.43010604054609,1.87396881718152,0.0],[-157.42388045460865,1.864386297650398,0.0],[-157.41210066945234,1.859625555462912,-1.0],[-157.40807234913984,1.867315985150285,-0.5],[-157.41020857960862,1.8806216492127421,0.0],[-157.4245518413274,1.9030215515565769,0.0],[-157.42650496632734,1.913214422650398,0.0],[-157.42449080617109,1.922430731244035,0.0],[-157.4201573100774,1.93024323124402,0.2059],[-157.40849959523365,1.9226748718690769,0.0],[-157.40331160695234,1.925421453900398,0.0],[-157.40648543507737,1.9438540710878409,0.0],[-157.3948887553899,1.9369570984315629,0.5557],[-157.39409529835862,1.9279238953064921,0.0],[-157.39604842335865,1.918158270306634,0.6059],[-157.3922032085149,1.9091250671815769,0.6],[-157.38225447804609,1.9033267273377561,1.1451],[-157.37737166554609,1.9064395203065629,1.0634],[-157.37413680226484,1.91260407108787,1.1177],[-157.3640049663274,1.918524481244205,0.8011],[-157.35857283742118,1.925055242962912,1.1022],[-157.3542393413274,1.9329898132753409,0.229],[-157.35246932179618,1.9401309265564921,0.0],[-157.35515486867109,1.9487979187440769,0.0],[-157.3618077007024,1.952643133587856,0.0],[-157.37981307179615,1.95685455936912,0.8748],[-157.40904891163984,1.9705264343690629,0.0],[-157.44548689992112,1.995611883587898,0.6541],[-157.4511631694524,1.998480535931662,2.7174],[-157.45549666554609,2.0042178406189919,0.0],[-157.46648299367115,2.014471746869134,0.0],[-157.4776524272649,2.0192935242127561,0.0],[-157.48284041554609,2.0084292664003409,2.938],[-157.48808943898359,2.0017153992128982,0.0],[-157.49907576710859,2.0033633484315909,0.0],[-157.50859725148359,2.0118472351502419,0.0],[-157.5095127788274,2.0258242859315492,0.0],[-157.4964512553899,2.035650946087884,2.2981],[-157.4747227397649,2.034491278119205,7.2193],[-157.42400252492109,2.021612860150285,5.5122]],
[[-172.0750645366399,-4.85161712031838,0.0],[-174.14824568898362,-5.1130917296934513,0.0],[-174.35430037648368,-5.1036923156309086,0.0],[-174.43608748585865,-5.0885555968809228,0.0],[-174.73052107960868,-4.9622128234434513,0.0],[-174.83495223195243,-4.9017880187558944,0.0],[-174.88164412648365,-4.8656552062559086,0.0],[-174.92339217335862,-4.82415130000588,0.0],[-174.9594639507024,-4.7760555968809513,0.0],[-174.98888289601484,-4.72039153438088,0.0],[-175.0108555522649,-4.6559384093808944,0.0],[-175.02446639210862,-4.5818417296934086,0.0],[-175.02886092335862,-4.4968807921934086,0.0],[-175.0231846538274,-4.39995696406838,0.0],[-174.97795760304615,-4.1659481750059086,0.0],[-174.97795569569755,-4.1659481750059086,0.0],[-174.90447127492118,-3.7816708312559508,0.0],[-174.87834822804618,-3.7079403625059508,0.0],[-174.84276473195243,-3.631402276568394,0.0],[-174.79570662648365,-3.5521786437559228,0.0],[-174.73509871632743,-3.4701473937559091,0.0],[-174.65892684132737,-3.3855526671934091,0.0],[-174.4516514507024,-3.2081845031309228,0.0],[-174.15740096242112,-3.0203182921934228,0.0],[-173.35698592335862,-2.6459286437559508,0.0],[-172.5290440288274,-2.3755429015684228,0.0],[-172.1426914897649,-2.3002255187559508,0.0],[-171.79289900929615,-2.2753231750059371,0.0],[-171.63597762257737,-2.2843563781309091,0.0],[-171.49327742726493,-2.3088925109434371,0.0],[-171.36662947804618,-2.3499081359434508,0.0],[-171.25762068898368,-2.4086239562559228,0.0],[-170.65892684132737,-3.0165341125059508,0.0],[-170.51811873585865,-3.200249932818394,0.0],[-170.46221053273365,-3.29387786250588,0.0],[-170.4188145366399,-3.3888485656309508,0.0],[-170.38982283742115,-3.4854061828184091,0.0],[-170.37731063038987,-3.583428643755894,0.0],[-170.38335311085865,-3.683282159380894,0.0],[-170.40996443898365,-3.784844659380894,0.0],[-170.45915877492115,-3.8883602843809371,0.0],[-170.53295027882737,-3.9939511046934508,0.0],[-170.71233260304612,-4.1921932921934228,0.0],[-170.90379988820243,-4.3615048156309513,0.0],[-171.10826766163993,-4.5042050109433944,0.0],[-171.32671248585865,-4.6223690734433944,0.0],[-171.56004988820234,-4.71819426875588,0.0],[-172.0750645366399,-4.85161712031838,0.0]]]]}
,"properties": {"featurecla": "Island group","name": "KIRIBATI","namealt": null,"region": "Oceania","subregion": "Polynesia","min_label": 3.0,"max_label": 6.0,"scalerank": 1,"area_km2": 2324931.8,"hist_schema_id": "Elevation0-9000","hist_area_km2": {"0": 2324918.0}}}