{"type":"Feature","properties":{"featurecla":"Island group","name":"LINE ISLANDS","namealt":null,"region":"Oceania","subregion":"Polynesia","min_label":3.0,"max_label":6.0,"scalerank":1},
"geometry":{"type": "Polygon","coordinates": [[[-151.5128752627655,-12.413249994514501,0.0],[-151.16252791554615,-12.892022393755951,0.0],[-150.80718123585865,-13.180108331255937,0.0],[-150.50981795460865,-13.317071221880951,0.0],[-150.2663487163274,-13.321587823443394,0.0],[-150.0727452007024,-13.212456964068451,0.0],[-149.92479598195246,-13.008355401568437,0.0],[-149.8185948100774,-12.727959893755923,0.0],[-149.7498692241399,-12.390069268755923,0.0],[-149.70891463429612,-11.616265557818423,0.0],[-149.76915633351496,-10.836724542193423,0.0],[-149.89812361867112,-10.200982354693394,0.0],[-149.97807967335865,-9.9838192687558944,0.0],[-150.06297957570243,-9.8588192687559086,0.0],[-150.50496681643745,-9.3534403966785788,0.0],[-150.2921055522649,-9.9551327453183376,0.0],[-150.10777938038984,-10.998101495318451,0.0],[-150.08995711476493,-11.469537042193394,0.0],[-150.12126814992104,-11.889580987505951,0.0],[-150.20146834523354,-12.244805596880838,0.0],[-150.33031356007729,-12.521538995318394,0.0],[-150.50749861867104,-12.706353448443394,0.0],[-150.73284041554612,-12.785821221880838,0.0],[-151.00597273976487,-12.746270440630951,0.0],[-151.3266514507024,-12.574273370318394,0.0],[-151.5128752627655,-12.413249994514501,0.0]]]}}