{"type":"Feature","properties":{"featurecla":"Island group","name":"Maui","namealt":null,"region":"Oceania","subregion":"Polynesia","min_label":4.0,"max_label":8.0,"scalerank":3},
"geometry":{"type": "Polygon","coordinates": [[[-156.58470809132737,21.041815496869134,0.0],[-156.60014998585859,21.053656317181662,0.0],[-156.6083897319524,21.055487371869077,0.0],[-156.61199080617112,21.045233465619134,0.0],[-156.61540877492109,21.039923407025412,0.0],[-156.62322127492109,21.038397528119162,0.0],[-156.6323155132024,21.039496160931719,0.0],[-156.63933455617109,21.041815496869134,0.0],[-156.64067732960859,21.034796453900356,0.0],[-156.64494979054609,21.022406317181606,0.0],[-156.6454991069524,21.014532782025384,0.0],[-156.65038191945234,21.016546942181662,0.0],[-156.66240584523359,21.019354559369106,0.0],[-156.6672276225774,21.021368719525356,0.0],[-156.6716221538274,20.997870184369077,0.0],[-156.70818221242109,20.925116278118992,0.0],[-156.64153182179609,20.834967352337912,6.475],[-156.63561141163984,20.829535223431662,33.5045],[-156.6279209819524,20.827948309369106,59.9701],[-156.60436141163987,20.818426824994106,113.4039],[-156.58623397023362,20.807196356244134,64.7817],[-156.5573643413274,20.795416571087742,238.8345],[-156.54442488820234,20.794378973431606,390.6288],[-156.53533064992115,20.796576239056606,372.0142],[-156.52702986867115,20.799627996869106,308.2877],[-156.51640975148359,20.801642157025356,71.9648],[-156.49217879445234,20.802435614056634,6.7998],[-156.48046004445234,20.799750067181719,1.9806],[-156.4754551616399,20.791998602337856,2.4504],[-156.47209822804615,20.77008698124402,0.0],[-156.46855818898362,20.759161688275412,0.0],[-156.4645909038274,20.754461981244049,0.0],[-156.45525252492115,20.746466375775412,4.379],[-156.44975936085862,20.72754547733777,6.2898],[-156.44695174367115,20.643255926556549,2.287],[-156.43559920460865,20.609686590619049,9.9677],[-156.40972029835865,20.590155340619134,20.6102],[-156.3655918803899,20.589972235150412,114.3409],[-156.34673201710859,20.598944403119162,271.2053],[-156.33574568898365,20.602789617962856,313.8078],[-156.33086287648365,20.600165106244049,258.2907],[-156.32567488820234,20.59461090702527,190.3051],[-156.31444441945237,20.594000555462742,199.5723],[-156.2769688335149,20.601874090619049,140.8379],[-156.22099959523365,20.637762762494077,352.0201],[-156.2016514507024,20.641852117962912,182.4446],[-156.18346297413984,20.638922430462827,138.6882],[-156.1645420757024,20.633734442181549,147.8202],[-156.14275252492109,20.630926824994106,120.6289],[-156.12425887257734,20.635931707806634,96.8799],[-156.0565098491399,20.671942449994106,282.9417],[-156.02690779835862,20.695868231244106,379.4758],[-155.99950301320234,20.729376532025384,157.4165],[-155.98692977101484,20.766607977337742,16.1933],[-156.00188338429609,20.801642157025356,0.0],[-156.05925643117115,20.8322818054628,0.0],[-156.07359969288984,20.836981512494162,0.0],[-156.11858260304615,20.843207098431606,0.0],[-156.12761580617112,20.853094793744162,0.0],[-156.13335311085865,20.874090887494077,0.0],[-156.1396397319524,20.884222723431606,0.0],[-156.17516219288984,20.890021063275242,0.0],[-156.1973789897649,20.896185614056549,0.0],[-156.20732772023359,20.908087469525469,0.0],[-156.21318709523365,20.918707586712912,0.0],[-156.22698104054612,20.933172918744049,0.0],[-156.2430332866399,20.94269440311902,0.0],[-156.2557285991399,20.938788153119219,0.0],[-156.2582920757024,20.942816473431634,0.0],[-156.26109969288984,20.944891668744219,0.0],[-156.2645176616399,20.945685125775384,0.0],[-156.2687901225774,20.946234442181719,0.0],[-156.28209578663984,20.951422430462912,0.0],[-156.29851424367112,20.953924871869106,0.0],[-156.31554305226484,20.954107977337742,0.0],[-156.33086287648365,20.952398992962856,0.0],[-156.34660994679615,20.947027899212912,0.0],[-156.3786534038274,20.925116278118992,0.0],[-156.38982283742115,20.92267487186902,0.0],[-156.41893660695234,20.92133209843152,0.0],[-156.43389022023365,20.918951727337969,0.0],[-156.44975936085862,20.91199371952527,0.0],[-156.4623936382024,20.904791571087827,0.0],[-156.47441756398365,20.902716375775356,0.0],[-156.4885166850774,20.911505438275356,3.0879],[-156.51708113820234,20.975470282025242,0.0],[-156.5242832866399,20.98712799686902,0.8401],[-156.5325840678899,20.9970767273378,0.0],[-156.57201277882734,21.034491278119077,0.0],[-156.58470809132737,21.041815496869134,0.0]]]}}