{"type":"Feature","properties":{"featurecla":"Island group","name":"MELANESIA","namealt":null,"region":"Oceania","subregion":"Melanesia","min_label":3.0,"max_label":6.0,"scalerank":0},
"geometry":{"type": "MultiPolygon","coordinates": [[[[-179.97510099548126,-19.752348251269165,0.0],[-179.97510099548126,-21.800520214086816,0.0],[-179.02882208048163,-21.63896039933087,0.0],[-177.89790337718949,-20.854241299087278,0.0],[-176.92854448865336,-18.846283601405275,0.0],[-176.76698467389735,-18.038484527625144,0.0],[-177.09010430340936,-17.022965692015873,0.0],[-177.71326358889687,-16.215166618235685,0.0],[-178.82110231865249,-15.499687438601939,0.0],[-179.97510099548126,-15.130407862016682,0.0],[-179.97510099548126,-15.506945789349698,0.0],[-179.97510099548126,-16.754565493832391,0.0],[-179.97510099548126,-16.92457446749534,342.3586],[-179.97510099548126,-18.468472475790573,0.0],[-179.97510099548126,-19.416546407839348,0.0],[-179.97510099548126,-19.752348251269165,0.0]]]]}}