{"type": "Feature","bbox": [-166.45171248585862,-14.025567315630965,-156.90508162648365,-8.5073788390684228],"geometry": {"type": "Polygon","coordinates": [[[-157.4127110210149,-9.4620907531309086,0.0],[-157.1690586772649,-9.2520077453184228,0.0],[-157.00713240773365,-9.0685360656309371,0.0],[-156.92107283742112,-8.91130950313088,0.0],[-156.90508162648365,-8.7802059875059086,0.0],[-156.9532383647649,-8.67498137813088,0.0],[-157.0596836772649,-8.5952694640683944,0.0],[-157.21861922413987,-8.5409481750059228,0.0],[-157.42400252492118,-8.5116513000059086,0.0],[-157.67015731007734,-8.5073788390684228,0.0],[-158.26097762257737,-8.5723202453184228,0.0],[-161.30431258351493,-9.4878475890684228,0.0],[-163.03160750538993,-9.7937557921933944,0.0],[-165.42601477772877,-9.9791805968809228,0.0],[-165.42601668507734,-9.9791805968809228,0.0],[-165.4069737163274,-9.9738095031308944,0.0],[-165.40447127492112,-9.9722225890684228,0.0],[-165.40691268117118,-9.9713680968809228,0.0],[-165.43425643117115,-9.9730770812559228,0.0],[-166.13487898976484,-10.078179620318423,0.0],[-166.28301131398362,-10.120904229693423,0.0],[-166.38310897023368,-10.192315362505909,0.0],[-166.43834578663987,-10.290337823443394,0.0],[-166.45171248585862,-10.413262628130894,0.0],[-166.42619979054618,-10.559014581255923,0.0],[-166.36498152882743,-10.72576262813088,0.0],[-166.27098738820237,-10.911675714068409,0.0],[-165.99687850148359,-11.332940362505937,0.0],[-164.20806014210868,-13.377251885943451,0.0],[-163.76286971242115,-13.746392510943423,0.0],[-163.5606602397649,-13.87041594844338,0.0],[-163.37065779835859,-13.956963800005923,0.0],[-163.19176375538987,-14.007989190630937,0.0],[-163.02275740773359,-14.025567315630965,0.0],[-162.8626621928899,-14.011895440630923,0.0],[-162.7101963725774,-13.969048760943409,0.0],[-162.5644444194524,-13.899102471880951,0.0],[-162.42412459523371,-13.804253839068409,0.0],[-162.2881993022649,-13.686578057818409,0.0],[-162.1556309428899,-13.548028253130923,0.0],[-161.62920272023365,-12.835137628130909,0.0],[-160.9317539897649,-12.065362237505937,0.0],[-159.99162947804615,-11.27251555781838,0.0],[-157.4127110210149,-9.4620907531309086,0.0]],
[[-157.97539317382137,-9.024223587538188,0.0],[-158.03386580617115,-8.9657528625059655,0.0],[-157.97539412648365,-8.90740325313098,0.0],[-157.91704451710868,-8.9657528625059655,0.0],[-157.97539317382137,-9.024223587538188,0.0]],
[[-157.97539317382137,-9.024223587538188,0.0],[-157.97539221913496,-9.0242245421934655,0.0],[-157.97539412648365,-9.0242245421934655,0.0],[-157.97539317382137,-9.024223587538188,0.0]],
[[-160.98106944385165,-10.439262651533141,0.0],[-161.0395420757024,-10.380913995318465,0.0],[-160.9810703960149,-10.32256438594348,0.0],[-160.92278182179612,-10.380913995318465,0.0],[-160.98106944385165,-10.439262651533141,0.0]],
[[-160.98106944385165,-10.439262651533141,0.0],[-160.98106848866621,-10.439263604693451,0.0],[-160.9810703960149,-10.439263604693451,0.0],[-160.98106944385165,-10.439262651533141,0.0]],
[[-163.12572276466165,-13.474785112968618,0.0],[-163.18425643117115,-13.416436456255937,0.0],[-163.12572371632743,-13.357964776568338,0.0],[-163.06743514210865,-13.416436456255937,0.0],[-163.12572276466165,-13.474785112968618,0.0]],
[[-163.12572276466165,-13.474785112968618,0.0],[-163.12572180897874,-13.474786065630923,0.0],[-163.12572371632743,-13.474786065630923,0.0],[-163.12572276466165,-13.474785112968618,0.0]],
[[-165.8159693451984,-10.940605424970727,0.0],[-165.8743809428899,-10.882256768755965,0.0],[-165.81597029835859,-10.823785089068451,0.0],[-165.75762068898362,-10.882256768755965,0.0],[-165.8159693451984,-10.940605424970727,0.0]],
[[-165.8159693451984,-10.940605424970727,0.0],[-165.81596839101002,-10.940606378130951,0.0],[-165.81597029835859,-10.940606378130951,0.0],[-165.8159693451984,-10.940605424970727,0.0]]]}
,"properties": {"featurecla": "Island group","name": "NORTHERN COOK ISLANDS","namealt": null,"region": "Oceania","subregion": "Polynesia","min_label": 5.3,"max_label": 9.0,"scalerank": 4,"area_km2": 287787.73,"hist_schema_id": "Elevation0-9000","hist_area_km2": {"0": 287782.14,"25": 5.59}}}