{"type": "Feature","bbox": [-140.26121985585377,-8.9524471984434086,-140.01421057851002,-8.7799618468809513],"geometry": {"type": "Polygon","coordinates": [[[-140.21684729726,-8.7799618468809513,0.0],[-140.24797522694752,-8.7858212218808944,0.0],[-140.26121985585377,-8.82195403438088,0.0],[-140.25908362538496,-8.829278253130866,0.0],[-140.24968421132252,-8.8374569640684371,47.14],[-140.24754798085374,-8.8461239562559228,76.234],[-140.24535071522871,-8.8656552062559086,0.0],[-140.23497473866627,-8.911675714068366,0.0],[-140.22789466054121,-8.9258358703184086,0.0],[-140.20714270741627,-8.9381649718809371,122.8639],[-140.19444739491627,-8.9492733703183944,212.4008],[-140.18340003163502,-8.9524471984434086,248.3421],[-140.17870032460374,-8.9356014953184513,612.0137],[-140.17009436757246,-8.9283993468808944,30.0105],[-140.1301163402288,-8.91521575313088,444.5234],[-140.11784827382249,-8.9044735656309086,196.53],[-140.11040198475996,-8.9044735656309086,162.5688],[-140.09611975819752,-8.9179013000058944,0.0],[-140.07683264882246,-8.9141171203184228,321.1497],[-140.06071936757246,-8.8987362609433944,177.0889],[-140.05577551991624,-8.877251885943366,51.8002],[-140.03142249257255,-8.8932430968809371,134.4022],[-140.019337531635,-8.89519622188088,88.6408],[-140.01421057851002,-8.8800595031309086,128.6761],[-140.01616370351005,-8.85808684688088,86.5927],[-140.02238928944749,-8.8455136046933944,8.6067],[-140.04954993397871,-8.82195403438088,179.6761],[-140.03960120351002,-8.8058407531308944,0.0],[-140.03239905507249,-8.79753997188088,0.0],[-140.02965247304127,-8.7952206359434513,0.0],[-140.02788245351005,-8.7925350890684371,0.0],[-140.02782141835374,-8.7877743468809371,0.0],[-140.03758704335377,-8.7910702453183944,0.0],[-140.05162512929127,-8.79924895625588,0.0],[-140.05919348866621,-8.8008358703184371,0.0],[-140.08989417225996,-8.8008358703184371,0.0],[-140.21684729726,-8.7799618468809513,0.0]]]}
,"properties": {"featurecla": "Island group","name": "Nuku Hiva","namealt": null,"region": "Oceania","subregion": "Polynesia","min_label": 5.3,"max_label": 9.0,"scalerank": 4,"area_km2": 337.2447,"hist_schema_id": "Elevation0-9000","hist_area_km2": {"0": 48.6486,"25": 8.5478,"50": 9.9934,"75": 11.3552,"100": 10.7684,"125": 10.7894,"150": 10.2864,"175": 10.0559,"200": 10.0139,"225": 9.4065,"250": 10.2652,"275": 8.6939,"300": 8.4424,"325": 8.2749,"350": 8.4634,"375": 7.8349,"400": 7.4578,"425": 6.7874,"450": 7.353,"475": 5.7608,"500": 6.2636,"525": 6.3055,"550": 5.6561,"575": 5.7818,"600": 5.4047,"625": 4.6715,"650": 6.2007,"675": 6.6616,"700": 6.5778,"725": 6.1379,"750": 4.8809,"775": 5.9703,"800": 9.385,"825": 12.2761,"850": 5.3001,"875": 2.8072,"900": 2.7234,"925": 2.1787,"950": 2.2834,"975": 1.9902,"1000": 2.0739,"1025": 1.8435,"1050": 1.215,"1075": 0.9218,"1100": 0.9636,"1125": 0.6913,"1150": 0.6075,"1175": 0.2514,"1200": 0.0209}}}