{"type":"Feature","properties":{"featurecla":"Island group","name":"O‘ahu","namealt":null,"region":"Oceania","subregion":"Polynesia","min_label":5.3,"max_label":9.0,"scalerank":4},
"geometry":{"type": "Polygon","coordinates": [[[-157.89580428273359,21.601141668744049,0.0],[-157.91106307179609,21.628058172650327,0.0],[-157.9135655132024,21.645148016400356,0.0],[-157.92381941945234,21.664007879681662,0.0],[-157.93572127492115,21.67969391483777,0.0],[-157.9503086772649,21.691778875775327,-0.3391],[-157.96880232960865,21.699774481244077,-0.1459],[-157.97106063038987,21.703558660931549,-0.4452],[-157.97368514210865,21.706061102337912,-1.6306],[-157.9755772319524,21.709051824994106,-0.1306],[-157.97569930226484,21.714056707806549,0.0],[-158.03551375538984,21.684576727337884,0.0],[-158.05077254445234,21.672491766400412,0.0],[-158.0601719585149,21.653631903119077,11.8135],[-158.06731307179615,21.642584539837856,0.0],[-158.0753086772649,21.637701727337742,0.0],[-158.0828770366399,21.634649969525242,0.0],[-158.11284529835859,21.617193914837827,0.0],[-158.1176670757024,21.607855535931577,0.0],[-158.1177891460149,21.599310614056719,0.0],[-158.12139022023365,21.593023992962884,0.0],[-158.13671004445237,21.590521551556606,0.0],[-158.14763533742115,21.591498114056634,0.0],[-158.16680037648365,21.59577057499402,0.0],[-158.2222813335149,21.598395086712912,0.0],[-158.24468123585865,21.596808172650356,0.0],[-158.26305281788984,21.590521551556606,0.0],[-158.27263533742115,21.573126532025327,79.751],[-158.23613631398365,21.542792059369162,60.7203],[-158.23912703663984,21.524725653119219,0.0],[-158.24712264210859,21.504461981244077,0.0],[-158.2366856303899,21.484503485150384,0.0],[-158.21990096242115,21.4683902039003,0.0],[-158.20842635304612,21.459540106244162,0.0],[-158.19719588429615,21.44623444218152,0.0],[-158.17796981007743,21.412176824994106,0.0],[-158.16435897023359,21.394964910931662,0.0],[-158.15618025929615,21.389105535931606,0.0],[-158.14043318898362,21.383002020306606,7.7459],[-158.1332920757024,21.377630926556577,76.6932],[-158.12926375538984,21.37128327030652,218.6449],[-158.10912215382734,21.302557684369162,-0.2498],[-158.10350691945234,21.300421453900469,4.0052],[-158.09905135304612,21.296576239056577,0.0317],[-158.09447371632737,21.2948062195253,0.0],[-158.08489119679618,21.301703192181662,1.9978],[-158.07280623585859,21.307623602337827,4.5831],[-158.02507674367115,21.314886785931577,2.9416],[-158.00347029835859,21.315619207806662,1.8553],[-157.98186385304615,21.30872223515027,0.0],[-157.9791172710149,21.3388736023378,1.6664],[-157.99193465382734,21.353399969525327,0.0],[-158.0118321147649,21.362860418744106,0.0],[-158.03032576710865,21.377630926556577,26.1426],[-158.01061141163984,21.377691961712884,5.7712],[-157.98717391163987,21.370367742962912,5.6729],[-157.97502791554618,21.371893621869162,0.0],[-157.98931014210865,21.398688055462912,20.0624],[-157.97411238820237,21.389288641400356,2.964],[-157.96880232960865,21.384405828900242,-0.1744],[-157.96105086476487,21.390021063275327,9.3742],[-157.95262801320234,21.390509344525242,17.9136],[-157.94530379445234,21.386297918744162,19.6125],[-157.94090926320234,21.377630926556577,5.5],[-157.94243514210859,21.364569403118992,0.0],[-157.9515293803899,21.360052801556549,0.0],[-157.96227156788984,21.357306219525412,4.6453],[-157.96880232960865,21.349676824994162,0.0],[-157.96361434132734,21.328436590619106,-0.4353],[-157.94359481007737,21.323126532025469,-0.4364],[-157.92082869679615,21.329535223431549,0.0286],[-157.90740096242115,21.343512274212856,26.0549],[-157.8858555522649,21.332525946087742,2.6418],[-157.87682234913984,21.325934149212827,4.7045],[-157.86644637257737,21.3161685242128,1.2258],[-157.87102400929612,21.305975653119134,0.0],[-157.86150252492115,21.297430731243992,0.1794],[-157.8316563335149,21.281988836712856,1.8642],[-157.81767928273359,21.269293524212827,1.7137],[-157.81096541554615,21.267950750775327,40.4356],[-157.79411971242109,21.267767645306577,13.1904],[-157.77104842335859,21.273871160931577,0.929],[-157.74480330617115,21.284064032025412,126.8739],[-157.7217930522649,21.28601715702527,-0.5712],[-157.70812117726484,21.267767645306577,14.6353],[-157.6929844585149,21.2808902039003,58.5617],[-157.6398838725774,21.3161685242128,0.0],[-157.65483748585865,21.329535223431549,2.1044],[-157.68730818898359,21.341986395306606,0.0],[-157.70134627492109,21.357123114056492,0.0],[-157.70598494679615,21.37604401249402,1.1106],[-157.70555770070237,21.393927313275412,0.0],[-157.70897566945234,21.407171942181662,0.0],[-157.72521102101487,21.412420965619162,0.0],[-157.74071395070234,21.420721746869162,0.0],[-157.73778426320234,21.438910223431634,0.7908],[-157.72765242726484,21.456488348431662,43.4196],[-157.7217930522649,21.463263250775327,0.0],[-157.77019393117109,21.463263250775327,0.0],[-157.78386580617115,21.459540106244162,0.0],[-157.75658309132737,21.439703680462912,0.9738],[-157.77397811085865,21.433111883587912,0.0],[-157.7855137553899,21.431586004681662,0.0],[-157.79070174367109,21.436346746869049,0.3794],[-157.7950352397649,21.435797430462827,0.0],[-157.81798445851484,21.459540106244162,0.0],[-157.8312901225774,21.470587469525384,0.0],[-157.84142195851484,21.483526922650469,-0.0309],[-157.85893904835865,21.521612860150412,99.2395],[-157.85222518117109,21.522406317181577,326.286],[-157.84886824757734,21.520880438275327,474.3987],[-157.8447178569524,21.514776922650327,8.5034],[-157.84453475148365,21.534064032025356,22.3804],[-157.84612166554609,21.549200750775242,0.0],[-157.85234725148365,21.560736395306577,0.0],[-157.87761580617115,21.577398992962884,0.0],[-157.89580428273359,21.601141668744049,0.0]]]}}