{"type":"Feature","properties":{"featurecla":"Island group","name":"PHOENIX ISLANDS","namealt":null,"region":"Oceania","subregion":"Polynesia","min_label":5.4,"max_label":10.0,"scalerank":5},
"geometry":{"type": "Polygon","coordinates": [[[-172.0750645366399,-4.85161712031838,0.0],[-171.56004988820234,-4.71819426875588,0.0],[-171.32671248585865,-4.6223690734433944,0.0],[-171.10826766163993,-4.5042050109433944,0.0],[-170.90379988820243,-4.3615048156309513,0.0],[-170.71233260304612,-4.1921932921934228,0.0],[-170.53295027882737,-3.9939511046934508,0.0],[-170.45915877492115,-3.8883602843809371,0.0],[-170.40996443898365,-3.784844659380894,0.0],[-170.38335311085865,-3.683282159380894,0.0],[-170.37731063038987,-3.583428643755894,0.0],[-170.38982283742115,-3.4854061828184091,0.0],[-170.4188145366399,-3.3888485656309508,0.0],[-170.46221053273365,-3.29387786250588,0.0],[-170.51811873585865,-3.200249932818394,0.0],[-170.65892684132737,-3.0165341125059508,0.0],[-171.25762068898368,-2.4086239562559228,0.0],[-171.36662947804618,-2.3499081359434508,0.0],[-171.49327742726493,-2.3088925109434371,0.0],[-171.63597762257737,-2.2843563781309091,0.0],[-171.79289900929615,-2.2753231750059371,0.0],[-172.1426914897649,-2.3002255187559508,0.0],[-172.5290440288274,-2.3755429015684228,0.0],[-173.35698592335862,-2.6459286437559508,0.0],[-174.15740096242112,-3.0203182921934228,0.0],[-174.4516514507024,-3.2081845031309228,0.0],[-174.65892684132737,-3.3855526671934091,0.0],[-174.73509871632743,-3.4701473937559091,0.0],[-174.79570662648365,-3.5521786437559228,0.0],[-174.84276473195243,-3.631402276568394,0.0],[-174.87834822804618,-3.7079403625059508,0.0],[-174.90447127492118,-3.7816708312559508,0.0],[-174.97795569569755,-4.1659481750059086,0.0],[-174.97795760304615,-4.1659481750059086,0.0],[-175.0231846538274,-4.39995696406838,0.0],[-175.02886092335862,-4.4968807921934086,0.0],[-175.02446639210862,-4.5818417296934086,0.0],[-175.0108555522649,-4.6559384093808944,0.0],[-174.98888289601484,-4.72039153438088,0.0],[-174.9594639507024,-4.7760555968809513,0.0],[-174.92339217335862,-4.82415130000588,0.0],[-174.88164412648365,-4.8656552062559086,0.0],[-174.83495223195243,-4.9017880187558944,0.0],[-174.73052107960868,-4.9622128234434513,0.0],[-174.43608748585865,-5.0885555968809228,0.0],[-174.35430037648368,-5.1036923156309086,0.0],[-174.14824568898362,-5.1130917296934513,0.0],[-172.0750645366399,-4.85161712031838,0.0]]]}}