{"type": "Feature","bbox": [-180.0,-46.643138721559808,-106.46263587147871,25.853583074994106],"geometry": {"type": "MultiPolygon","coordinates": [[[[-176.02746974367162,-44.212482001234719,0.0],[-164.91161238820237,-37.411065362505951,0.0],[-136.61418616444746,-33.438653253130894,0.0],[-106.46263587147871,-28.645074151568451,0.0],[-106.58885657460365,-27.572198175005951,0.0],[-120.09856116444746,-17.506524346880838,0.0],[-145.02476966054132,4.2443911804627987,0.0],[-151.05791365773368,19.3271548523378,0.0],[-159.7132481303899,25.853583074994106,0.0],[-163.19015764849877,25.280446264838588,0.0],[-164.17607772023365,25.117926336712856,0.0],[-165.94806881454792,22.953418732183962,0.0],[-171.92479598195234,15.652777410931662,0.0],[-177.91484725148362,2.382513739056606,0.0],[-180.0,-2.1914528875085471,0.0],[-180.0,-13.862884596773085,0.0],[-179.66228377492112,-14.419488214068451,0.0],[-177.58556258351487,-15.584527276568394,0.0],[-176.47118270070229,-18.269097589068451,0.0],[-177.53490340382737,-20.953667901568338,0.0],[-180.0,-23.570186056689636,0.0],[-180.0,-46.643138721559808,0.0],[-176.42538833039143,-44.455954907554826,0.0],[-176.02746974367162,-44.212482001234719,0.0]],
[[-130.04686438710374,-25.069756768755937,0.0],[-130.10521399647871,-25.128106378130923,0.0],[-130.16362464101002,-25.069756768755937,0.0],[-130.10521399647871,-25.011285089068423,0.0],[-130.04686438710374,-25.069756768755937,0.0]],
[[-134.79930579335374,-23.507500909380894,0.0],[-134.86961829335377,-23.507989190630909,0.0],[-135.05473792226002,-23.474053643755923,0.0],[-135.57762610585377,-23.300957940630923,0.0],[-136.05785071522871,-23.062066339068423,0.0],[-136.61339270741624,-22.682427667193437,0.0],[-136.63982093007252,-22.66033294063088,0.0],[-136.85063635976007,-22.413384698443437,0.0],[-137.03404700429124,-22.133843682818409,0.0],[-137.171193000385,-21.843438409380909,0.0],[-137.21660315663502,-21.700982354693423,0.0],[-137.24339759022877,-21.56389739375588,0.0],[-137.24931800038502,-21.43523528438088,0.0],[-137.23192298085371,-21.317315362505923,0.0],[-137.18895423085377,-21.213189385943437,0.0],[-137.117970344135,-21.125542901568437,0.0],[-137.01665198476002,-21.056939385943394,0.0],[-136.88274085194752,-21.010308526568409,0.0],[-136.71379553944746,-20.988213800005937,0.0],[-135.92332923085377,-21.060113214068423,0.0],[-135.62584387929121,-21.125420831255909,0.0],[-135.50066077382252,-21.168999932818409,0.0],[-135.38927161366627,-21.22210051875588,0.0],[-135.29045569569749,-21.28618743281838,0.0],[-135.20280921132249,-21.362725518755937,0.0],[-135.12492835194752,-21.453423760943437,0.0],[-135.0555313792913,-21.559869073443451,0.0],[-134.99321448476002,-21.683648370318451,0.0],[-134.88444983632246,-21.989190362505937,0.0],[-134.65630042226002,-23.071831964068465,0.0],[-134.64171301991627,-23.284966729693451,0.0],[-134.64970862538502,-23.362725518755894,0.0],[-134.66869055897877,-23.422662042193437,0.0],[-134.69951331288505,-23.46599700313088,0.0],[-134.74278723866627,-23.493951104693394,0.0],[-134.79930579335374,-23.507500909380894,0.0]],
[[-138.839161750385,-22.454888604693451,0.0],[-139.02110755116621,-22.461846612505951,0.0],[-139.8218888011663,-22.38787200313088,0.0],[-140.22240149647877,-22.312554620318409,0.0],[-140.605275031635,-22.187432550005909,0.0],[-140.78593909413502,-22.100396417193437,0.0],[-140.9571427074163,-21.993951104693423,0.0],[-141.11729895741624,-21.865899346880951,0.0],[-141.26469885976002,-21.714043878130923,0.0],[-141.39763343007252,-21.53594329219338,0.0],[-141.51451575429124,-21.329278253130965,0.0],[-141.61369788319749,-21.091851495318409,0.0],[-141.78667151600996,-20.54412200313088,0.0],[-141.923634406635,-20.286797784380937,0.0],[-142.0985001292913,-20.048638604693409,0.0],[-142.30522620351002,-19.828423760943409,0.0],[-142.79100501210374,-19.438287042193409,0.0],[-144.83324134022877,-18.398614190630937,0.0],[-147.59361731679124,-16.66753508906838,0.0],[-148.14507186085862,-16.386407159380894,0.0],[-148.39263045460859,-16.209893487505894,0.0],[-148.61223494679615,-16.006036065630937,0.0],[-148.7971104350774,-15.77251555781838,0.0],[-148.87444197804612,-15.643731378130937,0.0],[-148.94048201710865,-15.506646417193394,0.0],[-148.99443709523365,-15.360894464068451,0.0],[-149.03545272023365,-15.206109307818451,0.0],[-149.0627354350774,-15.042046807818423,0.0],[-149.07286727101493,-14.703057550005965,0.0],[-149.05632674367115,-14.562920831255923,0.0],[-149.0261143413274,-14.445733331255937,0.0],[-148.98308455617115,-14.34954192500588,0.0],[-148.92772566945243,-14.272027276568394,0.0],[-148.8608311382024,-14.211114190630923,0.0],[-148.78301131398365,-14.164849542193409,0.0],[-148.69493758351496,-14.130791925005909,0.0],[-148.59722029835865,-14.10711028438088,0.0],[-141.72935950429121,-13.856622003130909,0.0],[-141.36760413319755,-13.889703057818409,0.0],[-141.18974768788505,-13.929742120318394,0.0],[-141.01543128163496,-13.988702081255909,0.0],[-140.84587561757246,-14.069268487505894,0.0],[-140.68224036366624,-14.173760675005951,0.0],[-140.52562415272871,-14.304864190630923,0.0],[-140.37718665272877,-14.465020440630965,0.0],[-139.76567542226002,-15.283501885943409,0.0],[-138.9704483714788,-16.09685637813088,0.0],[-136.49101721913496,-17.92620208125588,0.0],[-136.35539710194746,-18.047906182818394,0.0],[-136.24095618397871,-18.171319268755909,0.0],[-136.1489151683538,-18.296807550005894,0.0],[-136.08079993397877,-18.424981378130894,0.0],[-136.03789221913502,-18.555962823443423,0.0],[-136.02171790272871,-18.690484307818394,0.0],[-136.03355872304124,-18.828789971880909,0.0],[-136.07487952382252,-18.971368096880909,0.0],[-136.14708411366627,-19.11858489375588,0.0],[-136.25145423085371,-19.271050714068451,0.0],[-136.38951575429127,-19.428887628130951,0.0],[-136.98662268788505,-19.946954034380894,0.0],[-137.17589270741627,-20.148247979693451,0.0],[-137.49187171132255,-20.586602471880909,0.0],[-138.28740393788502,-22.057671807818437,0.0],[-138.40550696522882,-22.203912042193394,0.0],[-138.53465735585374,-22.32158782344338,0.0],[-138.67808997304124,-22.406670831255894,0.0],[-138.839161750385,-22.454888604693451,0.0]],
[[-138.57463538319752,-10.66472747188088,0.0],[-138.61961829335371,-10.671563409380937,0.0],[-138.67601477772877,-10.658868096880923,0.0],[-138.74486243397877,-10.623955987505923,0.0],[-139.30321204335371,-10.176568292193394,0.0],[-139.30327307851002,-10.17644622188088,0.0],[-139.73326575429127,-9.8611386046934371,0.0],[-140.13322913319752,-9.64287688594338,0.0],[-140.16905676991621,-9.6106503234433944,0.0],[-140.20457923085377,-9.56914641719338,0.0],[-140.2748917308538,-9.4616024718809086,0.0],[-140.69768225819749,-8.5053036437559513,0.0],[-140.81700598866627,-8.12920501094338,0.0],[-140.84380042226002,-7.9540341125059086,0.0],[-140.84447180897877,-7.87896087031838,0.0],[-140.8350723949163,-7.8159725890684371,0.0],[-140.81432044179124,-7.7676327453184371,0.0],[-140.78081214101005,-7.736748956255866,0.0],[-140.73344885976,-7.7257626281309371,0.0],[-140.67082678944752,-7.7376034484434513,0.0],[-140.59178626210377,-7.7748348937558944,0.0],[-140.49504553944752,-7.84014251094338,0.0],[-139.41716468007257,-8.8054745421934086,0.0],[-138.80992591054127,-9.5214169250059228,0.0],[-138.6452530589788,-9.778374932818366,0.0],[-138.55663001210377,-9.9647763000059228,0.0],[-138.51042639882246,-10.150933526568423,0.0],[-138.49089514882252,-10.287286065630894,0.0],[-138.48381507069746,-10.428155206255909,0.0],[-138.48753821522871,-10.493951104693394,0.0],[-138.4974259105413,-10.553033135943451,0.0],[-138.51451575429121,-10.602959893755909,0.0],[-138.53990637929124,-10.641045831255937,0.0],[-138.57463538319752,-10.66472747188088,0.0]],
[[-147.27721106679127,-24.330865167193451,0.0],[-147.44249426991627,-24.335137628130937,0.0],[-149.0710362163274,-24.05413176875588,0.0],[-149.75438582570234,-23.864190362505909,0.0],[-149.75438391835377,-23.864190362505909,0.0],[-150.98607527882737,-23.34612395625588,0.0],[-151.2150791850774,-23.202813409380909,0.0],[-151.37999617726493,-23.062676690630965,0.0],[-151.44341170460868,-22.991875909380923,0.0],[-151.49687850148365,-22.919122003130937,0.0],[-151.58171736867109,-22.765313409380951,0.0],[-151.6505039897649,-22.594170831255909,0.0],[-151.67766463429609,-22.50469329219338,0.0],[-151.69316756398365,-22.418877862505894,0.0],[-151.6972569194524,-22.33770110469338,0.0],[-151.69035994679612,-22.262627862505951,0.0],[-151.67278182179618,-22.194756768755894,0.0],[-151.64482772023368,-22.135064385943394,0.0],[-151.60680281788984,-22.084771417193451,0.0],[-151.55901229054621,-22.045220635943394,0.0],[-151.50188338429618,-22.017388604693409,0.0],[-151.4356602397649,-22.002496026568394,0.0],[-151.3607090678899,-22.001763604693423,0.0],[-151.27727400929615,-22.016289971880951,0.0],[-151.18572127492115,-22.047295831255951,0.0],[-151.08635604054618,-22.09575774531838,0.0],[-150.48644148976487,-22.518975518755951,0.0],[-149.9111241069524,-22.810479425005923,0.0],[-148.2889317241399,-23.313164971880923,0.0],[-147.94225012929132,-23.455743096880923,0.0],[-147.6130264964788,-23.638970635943451,0.0],[-147.3358048167913,-23.839043878130937,0.0],[-147.22758948476,-23.938042901568451,0.0],[-147.14543616444752,-24.032403253130894,0.0],[-147.09367835194746,-24.119195245318409,0.0],[-147.07658850819755,-24.19536712031838,0.0],[-147.0986221996038,-24.257989190630937,0.0],[-147.16405188710382,-24.304131768755923,0.0],[-147.27721106679127,-24.330865167193451,0.0]],
[[-149.03996932179618,-17.108575128130937,0.0],[-148.90904891163984,-17.349175714068423,0.0],[-148.80650984913993,-17.585747979693394,0.0],[-148.76378523976493,-17.71428801875588,0.0],[-148.7335118022649,-17.842705987505923,0.0],[-148.7208164897649,-17.965508721880894,0.0],[-148.73076522023365,-18.07744719844338,0.0],[-148.76848494679612,-18.173028253130894,0.0],[-148.83904158742109,-18.247002862505951,0.0],[-148.94756209523368,-18.29412200313088,0.0],[-149.09905135304615,-18.308770440630923,0.0],[-149.29869734913993,-18.285821221880965,0.0],[-152.3384922710149,-17.296929620318437,0.0],[-152.75920760304618,-17.220513604693409,0.0],[-153.14623152882737,-17.200127862505937,0.0],[-153.64202010304618,-17.233697198443437,0.0],[-153.77556502492112,-17.224541925005937,0.0],[-153.8945225444524,-17.203912042193409,0.0],[-154.00005232960859,-17.172662042193437,0.0],[-154.09331404835859,-17.13189055781838,0.0],[-154.17552840382734,-17.082207940630894,0.0],[-154.24785506398365,-17.024712823443394,0.0],[-154.31151473195234,-16.960137628130894,0.0],[-154.36766707570243,-16.88945891719338,0.0],[-154.46227156788993,-16.733086846880909,0.0],[-154.68022811085862,-16.206841729693394,0.0],[-154.72795760304615,-16.03276946406838,0.0],[-154.74217879445243,-15.949273370318423,0.0],[-154.74840438038987,-15.869073175005923,0.0],[-154.74571883351484,-15.792901300005951,0.0],[-154.7329014507024,-15.721612237505894,0.0],[-154.7089756694524,-15.655938409380937,0.0],[-154.67278182179612,-15.596612237505923,0.0],[-154.62322127492115,-15.544244073443409,0.0],[-154.5593174663274,-15.499810479693423,0.0],[-154.47984969288987,-15.463799737505951,0.0],[-154.38378035695243,-15.437310479693394,0.0],[-154.27007186085865,-15.420830987505909,0.0],[-153.2380284038274,-15.415215753130923,0.0],[-153.23802649647874,-15.415215753130923,0.0],[-152.23235213429615,-15.570611260943451,0.0],[-151.0794590678899,-15.878228448443423,0.0],[-150.5031651225774,-16.101495050005937,0.0],[-149.9564121928899,-16.37761809688088,0.0],[-149.46129500538993,-16.71160247188088,0.0],[-149.24004256398368,-16.901910089068423,0.0],[-149.03996932179618,-17.108575128130937,0.0]],
[[-150.50496681643745,-9.3534403966785788,0.0],[-150.06297957570243,-9.8588192687559086,0.0],[-149.97807967335865,-9.9838192687558944,0.0],[-149.89812361867112,-10.200982354693394,0.0],[-149.76915633351496,-10.836724542193423,0.0],[-149.70891463429612,-11.616265557818423,0.0],[-149.7498692241399,-12.390069268755923,0.0],[-149.8185948100774,-12.727959893755923,0.0],[-149.92479598195246,-13.008355401568437,0.0],[-150.0727452007024,-13.212456964068451,0.0],[-150.2663487163274,-13.321587823443394,0.0],[-150.50981795460865,-13.317071221880951,0.0],[-150.80718123585865,-13.180108331255937,0.0],[-151.16252791554615,-12.892022393755951,0.0],[-151.5128752627655,-12.413249994514501,0.0],[-151.69469344288984,-12.256036065630894,0.0],[-154.99071395070246,-8.2423641906309513,0.0],[-156.5049961772649,-6.7533505187558376,0.0],[-157.23815047413979,-6.2102596984434513,0.0],[-157.96007430226479,-5.8245175109434513,0.0],[-158.31804549367118,-5.6960995421933376,0.0],[-159.3222569194524,-5.4836971984433376,0.0],[-162.63127791554604,-5.1021054015684513,0.0],[-170.35967147023362,-4.9504940734433944,0.0],[-173.58641707570229,-5.3989804015684513,0.0],[-174.39952742726487,-5.4014218078183376,0.0],[-175.13011824757737,-5.3389218078183944,0.0],[-179.99980818898365,-4.2122128234434513,0.0],[-179.99980628163505,-4.2122128234434513,0.0],[-179.99980818898365,-2.731377862505894,0.0],[-178.62676131398371,-2.9262020812559508,0.0],[-176.10698592335862,-2.989068292193394,0.0],[-174.59978377492104,-2.837456964068394,0.0],[-173.03758895070237,-2.489922784380838,0.0],[-171.50261580617118,-1.891289971880894,0.0],[-170.7711094585149,-1.480401300005838,0.0],[-169.36992537648362,-0.394952081255951,0.0],[-163.47106063038996,6.3256289734316624,0.0],[-163.01036727101487,6.7005069031190487,0.0],[-162.57781111867115,6.9516055359316624,0.0],[-162.17449080617115,7.0614688171816624,0.0],[-161.80174910695246,7.0127017273377987,0.0],[-160.97240340382743,6.6297061218690487,0.0],[-157.75798689992121,4.5091006531189919,0.0],[-155.82628523976493,2.7971255554627992,0.0],[-155.1686924663274,2.0051944031190492,0.0],[-154.95275008351496,1.647650457806662,0.0],[-154.82555281788979,1.324164129681662,0.0],[-154.18102156788984,-1.010674737505894,0.0],[-152.23625838429615,-6.1974423156308944,0.0],[-150.67632186085856,-8.8690731750058376,0.0],[-150.50496681643745,-9.3534403966785788,0.0]],
[[-155.59441268117112,20.140570379681719,0.0],[-155.58122908742109,20.132574774212884,0.0],[-155.57036482960859,20.135443426556634,0.0],[-155.56035506398359,20.14179108280652,0.0],[-155.55004012257734,20.1442935242128,0.0],[-155.52831160695234,20.136419989056492,0.0],[-155.49126326710865,20.114203192181577,0.0],[-155.44682967335865,20.106573797650327,0.0],[-155.3380039897649,20.064276434369219,0.0],[-155.20744979054615,20.0008609070253,0.0],[-155.17375838429615,19.975592352337884,0.0],[-155.08940779835859,19.885687567181662,0.0],[-155.08055770070234,19.868170477337856,0.0],[-155.07701766163984,19.846075750775469,0.0],[-155.07701766163984,19.766974188275242,0.0],[-155.06987654835859,19.745245672650356,0.0],[-155.05876814992115,19.74048493046277,0.0],[-155.01872908742115,19.747076727337969,0.0],[-154.99425398976484,19.7445132507753,0.0],[-154.98235213429612,19.73572418827527,0.0],[-154.97746932179609,19.718817449994077,0.0],[-154.96935164601484,19.668158270306662,0.0],[-154.96282088429615,19.654608465619162,0.0],[-154.9225987163274,19.615118719525384,0.0],[-154.87096297413987,19.588812567181662,0.0],[-154.79588973195234,19.5444400085878,0.0],[-154.79875838429612,19.523565985150384,0.0],[-154.80638777882737,19.501349188275412,0.0],[-154.81731307179615,19.480963446087827,0.0],[-154.83000838429609,19.465277410931549,0.0],[-154.91191756398365,19.42121002811902,70.3771],[-154.91936385304609,19.409979559369049,64.3883],[-155.00829207570237,19.333502508587912,7.3701],[-155.02519881398365,19.328741766400412,40.9013],[-155.05034529835862,19.3260562195253,61.0081],[-155.0698155132024,19.319220282025327,55.0199],[-155.1043614116399,19.300787664837884,35.7617],[-155.17259871632737,19.285711981244134,64.0707],[-155.18999373585865,19.276922918744219,45.9413],[-155.26885115773365,19.280340887494106,292.1358],[-155.2869785991399,19.275824285931492,228.9929],[-155.29930770070234,19.270880438275356,135.2626],[-155.32347762257737,19.253607489056577,55.9039],[-155.35570418507737,19.223395086712856,89.8102],[-155.3681553569524,19.218878485150412,133.9644],[-155.38451277882737,19.2148501648378,141.9332],[-155.39879500538984,19.205023504681634,110.7046],[-155.42278182179615,19.181341864056606,67.7265],[-155.43694197804609,19.171026922650327,61.7156],[-155.48796736867109,19.143744207806577,10.797],[-155.50298201710865,19.138861395306662,17.1823],[-155.54631697804609,19.09943268436902,32.0856],[-155.55559432179612,19.083807684369049,78.9364],[-155.57048689992115,19.027044989056606,26.6798],[-155.61461531788984,18.967230535931606,0.0],[-155.62853133351484,18.958807684369162,50.6045],[-155.63902938038984,18.954535223431577,63.9206],[-155.65727889210865,18.935736395306662,64.8025],[-155.66948592335865,18.931463934369077,63.3309],[-155.67009627492109,18.936957098431549,79.3513],[-155.68718611867109,18.965643621869219,207.7878],[-155.70976912648359,18.98651764530652,72.4031],[-155.74541365773365,19.007391668744106,104.2368],[-155.78606307179609,19.02448151249402,99.6448],[-155.8237217632024,19.033880926556577,87.3953],[-155.85619246632737,19.031927801556549,34.8089],[-155.86467635304609,19.033880926556577,19.275],[-155.86992537648362,19.04315827030652,22.6762],[-155.8724278178899,19.056952215619077,46.6725],[-155.87706648976484,19.069403387494219,58.6421],[-155.88890731007737,19.07483551640027,40.2323],[-155.90093123585862,19.083807684369049,11.1592],[-155.90605818898359,19.105108953900412,30.1134],[-155.90508162648359,19.188544012494162,12.623],[-155.87932479054615,19.347845770306606,198.0271],[-155.87895857960859,19.356024481244077,262.8988],[-155.8829258647649,19.368353582806606,173.7566],[-155.89653670460862,19.39105866093152,66.0733],[-155.9199131694524,19.472723699994049,0.7399],[-155.92070662648365,19.477484442181549,0.0],[-155.91930281788984,19.48834869999402,325.5698],[-155.9199131694524,19.493170477337827,378.802],[-155.92339217335859,19.493963934369106,345.1789],[-155.93675887257734,19.492438055462856,172.3145],[-155.9404209819524,19.493170477337827,129.1847],[-155.95250594288984,19.528143621869134,30.6574],[-155.9540928569524,19.537298895306634,61.3725],[-155.95543563038984,19.560675360150412,91.1292],[-155.95940291554615,19.582464910931606,132.4795],[-155.9658116069524,19.603216864056577,71.0569],[-155.97453963429609,19.623541571087742,87.985],[-155.9980381694524,19.657477117962912,66.8371],[-156.02452742726487,19.6865298523378,14.5544],[-156.04491316945234,19.7183902039003,8.1555],[-156.0502842632024,19.760748602337912,0.0],[-156.03899275929609,19.784308172650412,0.0],[-156.0175694194524,19.802313543744049,0.0],[-155.99687850148365,19.815619207806606,11.4747],[-155.98760115773359,19.82556793827527,12.3279],[-155.98223006398365,19.844549871869219,0.0],[-155.96806990773362,19.855414129681719,0.0],[-155.9261387553899,19.87000153202527,0.0],[-155.9059971538274,19.903265692181606,0.0],[-155.89604842335859,19.914618231244106,0.0],[-155.85790145070234,19.969549871869106,0.0],[-155.8510655132024,19.976507879681606,0.0],[-155.81944930226484,20.0008609070253,67.8045],[-155.8100498882024,20.013983465619106,104.1343],[-155.80974471242109,20.031317449994162,114.5039],[-155.82030379445234,20.050848699994049,202.2225],[-155.8237217632024,20.054877020306577,184.157],[-155.87334334523359,20.114447332806634,93.4053],[-155.89025008351487,20.1473452820253,36.1629],[-155.89946639210859,20.185248114056492,21.5296],[-155.89556014210859,20.214972235150384,57.9219],[-155.88060652882737,20.253241278119077,39.9255],[-155.85613143117115,20.2799136414003,0.0],[-155.8237217632024,20.274603582806577,0.0],[-155.76622664601484,20.250311590619106,0.0],[-155.73808943898365,20.244940496869162,0.0],[-155.73277938038984,20.240057684369049,0.0],[-155.72936141163987,20.232550360150242,0.0],[-155.7281407085149,20.222845770306606,0.0],[-155.72576033742115,20.213629461712884,0.0],[-155.71941268117109,20.207953192181492,0.0],[-155.65990340382734,20.185248114056492,0.0],[-155.63341414601487,20.162176824993992,0.0],[-155.61431014210859,20.156805731244134,0.0],[-155.60698592335859,20.152350164837827,0.0],[-155.59441268117112,20.140570379681719,0.0]],
[[-156.58470809132737,21.041815496869134,0.0],[-156.57201277882734,21.034491278119077,0.0],[-156.5325840678899,20.9970767273378,0.0],[-156.5242832866399,20.98712799686902,0.8401],[-156.51708113820234,20.975470282025242,0.0],[-156.4885166850774,20.911505438275356,3.0879],[-156.47441756398365,20.902716375775356,0.0],[-156.4623936382024,20.904791571087827,0.0],[-156.44975936085862,20.91199371952527,0.0],[-156.43389022023365,20.918951727337969,0.0],[-156.41893660695234,20.92133209843152,0.0],[-156.38982283742115,20.92267487186902,0.0],[-156.3786534038274,20.925116278118992,0.0],[-156.34660994679615,20.947027899212912,0.0],[-156.33086287648365,20.952398992962856,0.0],[-156.31554305226484,20.954107977337742,0.0],[-156.29851424367112,20.953924871869106,0.0],[-156.28209578663984,20.951422430462912,0.0],[-156.2687901225774,20.946234442181719,0.0],[-156.2645176616399,20.945685125775384,0.0],[-156.26109969288984,20.944891668744219,0.0],[-156.2582920757024,20.942816473431634,0.0],[-156.2557285991399,20.938788153119219,0.0],[-156.2430332866399,20.94269440311902,0.0],[-156.22698104054612,20.933172918744049,0.0],[-156.21318709523365,20.918707586712912,0.0],[-156.20732772023359,20.908087469525469,0.0],[-156.1973789897649,20.896185614056549,0.0],[-156.17516219288984,20.890021063275242,0.0],[-156.1396397319524,20.884222723431606,0.0],[-156.13335311085865,20.874090887494077,0.0],[-156.12761580617112,20.853094793744162,0.0],[-156.11858260304615,20.843207098431606,0.0],[-156.07359969288984,20.836981512494162,0.0],[-156.05925643117115,20.8322818054628,0.0],[-156.00188338429609,20.801642157025356,0.0],[-155.98692977101484,20.766607977337742,16.1933],[-155.99950301320234,20.729376532025384,157.4165],[-156.02690779835862,20.695868231244106,379.4758],[-156.0565098491399,20.671942449994106,282.9417],[-156.12425887257734,20.635931707806634,96.8799],[-156.14275252492109,20.630926824994106,120.6289],[-156.1645420757024,20.633734442181549,147.8202],[-156.18346297413984,20.638922430462827,138.6882],[-156.2016514507024,20.641852117962912,182.4446],[-156.22099959523365,20.637762762494077,352.0201],[-156.2769688335149,20.601874090619049,140.8379],[-156.31444441945237,20.594000555462742,199.5723],[-156.32567488820234,20.59461090702527,190.3051],[-156.33086287648365,20.600165106244049,258.2907],[-156.33574568898365,20.602789617962856,313.8078],[-156.34673201710859,20.598944403119162,271.2053],[-156.3655918803899,20.589972235150412,114.3409],[-156.40972029835865,20.590155340619134,20.6102],[-156.43559920460865,20.609686590619049,9.9677],[-156.44695174367115,20.643255926556549,2.287],[-156.44975936085862,20.72754547733777,6.2898],[-156.45525252492115,20.746466375775412,4.379],[-156.4645909038274,20.754461981244049,0.0],[-156.46855818898362,20.759161688275412,0.0],[-156.47209822804615,20.77008698124402,0.0],[-156.4754551616399,20.791998602337856,2.4504],[-156.48046004445234,20.799750067181719,1.9806],[-156.49217879445234,20.802435614056634,6.7998],[-156.51640975148359,20.801642157025356,71.9648],[-156.52702986867115,20.799627996869106,308.2877],[-156.53533064992115,20.796576239056606,372.0142],[-156.54442488820234,20.794378973431606,390.6288],[-156.5573643413274,20.795416571087742,238.8345],[-156.58623397023362,20.807196356244134,64.7817],[-156.60436141163987,20.818426824994106,113.4039],[-156.6279209819524,20.827948309369106,59.9701],[-156.63561141163984,20.829535223431662,33.5045],[-156.64153182179609,20.834967352337912,6.475],[-156.70818221242109,20.925116278118992,0.0],[-156.6716221538274,20.997870184369077,0.0],[-156.6672276225774,21.021368719525356,0.0],[-156.66240584523359,21.019354559369106,0.0],[-156.65038191945234,21.016546942181662,0.0],[-156.6454991069524,21.014532782025384,0.0],[-156.64494979054609,21.022406317181606,0.0],[-156.64067732960859,21.034796453900356,0.0],[-156.63933455617109,21.041815496869134,0.0],[-156.6323155132024,21.039496160931719,0.0],[-156.62322127492109,21.038397528119162,0.0],[-156.61540877492109,21.039923407025412,0.0],[-156.61199080617112,21.045233465619134,0.0],[-156.6083897319524,21.055487371869077,0.0],[-156.60014998585859,21.053656317181662,0.0],[-156.58470809132737,21.041815496869134,0.0]],
[[-157.2396153178899,21.2259585632753,0.0],[-157.22795760304612,21.225470282025469,0.0],[-157.21813094288987,21.230231024212969,0.0],[-157.20751082570243,21.233099676556719,0.0],[-157.19664656788984,21.225592352337912,0.0],[-157.18541609913984,21.214422918744134,0.0],[-157.17375838429609,21.2063052429628,0.0],[-157.04027449757737,21.200079657025356,0.0],[-157.02471053273359,21.196539617962856,0.0],[-156.98992049367112,21.184027410931577,0.0],[-156.9750889507024,21.185858465619106,46.5135],[-156.96660506398365,21.1984927429628,48.3923],[-156.9680088725774,21.21106598515027,14.7012],[-156.9659336772649,21.214544989056577,0.0],[-156.94719588429612,21.200079657025356,0.0],[-156.9230869975774,21.176031805462827,0.0],[-156.90990340382734,21.168280340619162,0.0],[-156.88945662648365,21.165350653119077,194.895],[-156.82054793507737,21.165350653119077,515.7245],[-156.81297957570234,21.167303778119134,696.6689],[-156.8019932475774,21.176459051556634,0.0],[-156.7963780132024,21.179632879681662,0.0],[-156.78862654835865,21.180060125775356,0.0],[-156.7831944194524,21.177740789837827,0.0],[-156.7775791850774,21.174505926556577,1.2189],[-156.76970564992109,21.172125555462856,153.8884],[-156.76909529835865,21.172552801556549,153.8884],[-156.74919783742109,21.172125555462856,229.6185],[-156.71971785695234,21.16528961796277,0.0],[-156.70818221242109,21.165350653119077,0.0],[-156.72496688038984,21.124945379681719,0.0],[-156.75578963429609,21.096686102337827,0.0],[-156.79350936085865,21.077093817181634,88.9909],[-156.83110701710859,21.062262274212856,12.3053],[-156.86974227101484,21.054510809369162,21.1529],[-156.90874373585859,21.058172918744106,13.3222],[-156.94829451710865,21.069220282025327,21.1485],[-157.04540145070234,21.107550360150327,21.9834],[-157.06792342335859,21.110785223431577,35.0954],[-157.15325057179609,21.103338934369162,114.0792],[-157.21556746632737,21.105353094525242,138.7445],[-157.23210799367115,21.100226141400356,141.9827],[-157.25115096242115,21.089606024212912,48.5761],[-157.27324568898359,21.088507391400356,0.0],[-157.29271590382737,21.095953680462969,25.8177],[-157.30406844288987,21.110785223431577,0.0],[-157.30437361867115,21.129461981244162,0.0],[-157.29662215382737,21.145086981244049,0.0],[-157.28557479054615,21.157294012494049,0.0],[-157.27617537648368,21.165350653119077,0.0],[-157.25798689992109,21.18549225468152,0.0],[-157.25511824757734,21.200079657025356,0.0],[-157.25786482960868,21.214422918744134,21.5591],[-157.25627791554612,21.233648992962856,0.0],[-157.25005232960859,21.22937653202527,0.0],[-157.2396153178899,21.2259585632753,0.0]],
[[-156.87712752492115,20.754217840618992,242.7299],[-156.91973006398362,20.741400457806634,90.3305],[-156.96147811085859,20.747626043744077,161.3698],[-156.9776524272649,20.761053778119134,328.8097],[-156.98570906788984,20.780157782025242,146.5277],[-156.9885166850774,20.802679754681606,0.0],[-156.98876082570234,20.826117254681492,41.2566],[-156.99230086476487,20.847479559368992,336.4745],[-157.00224959523365,20.85877106327527,302.1532],[-157.03716170460865,20.877997137493992,187.9287],[-157.05809676320234,20.908514715618992,3.1836],[-157.02879988820234,20.924627996869077,2.1559],[-156.9130772319524,20.931952215619134,0.0],[-156.86180770070234,20.885809637494162,0.0],[-156.84850203663987,20.877997137493992,0.0],[-156.84227645070234,20.874273992962827,0.0],[-156.81401717335865,20.846625067181577,0.0],[-156.80742537648365,20.835821844525384,0.0],[-156.8080967632024,20.826117254681492,0.0],[-156.81743514210865,20.809088446087969,106.5184],[-156.8406895366399,20.778998114056662,209.6425],[-156.87712752492115,20.754217840618992,242.7299]],
[[-157.4127110210149,-9.4620907531309086,0.0],[-159.99162947804615,-11.27251555781838,0.0],[-160.9317539897649,-12.065362237505937,0.0],[-161.62920272023365,-12.835137628130909,0.0],[-162.1556309428899,-13.548028253130923,0.0],[-162.2881993022649,-13.686578057818409,0.0],[-162.42412459523371,-13.804253839068409,0.0],[-162.5644444194524,-13.899102471880951,0.0],[-162.7101963725774,-13.969048760943409,0.0],[-162.8626621928899,-14.011895440630923,0.0],[-163.02275740773359,-14.025567315630965,0.0],[-163.19176375538987,-14.007989190630937,0.0],[-163.37065779835859,-13.956963800005923,0.0],[-163.5606602397649,-13.87041594844338,0.0],[-163.76286971242115,-13.746392510943423,0.0],[-164.20806014210868,-13.377251885943451,0.0],[-165.99687850148359,-11.332940362505937,0.0],[-166.27098738820237,-10.911675714068409,0.0],[-166.36498152882743,-10.72576262813088,0.0],[-166.42619979054618,-10.559014581255923,0.0],[-166.45171248585862,-10.413262628130894,0.0],[-166.43834578663987,-10.290337823443394,0.0],[-166.38310897023368,-10.192315362505909,0.0],[-166.28301131398362,-10.120904229693423,0.0],[-166.13487898976484,-10.078179620318423,0.0],[-165.43425643117115,-9.9730770812559228,0.0],[-165.40691268117118,-9.9713680968809228,0.0],[-165.40447127492112,-9.9722225890684228,0.0],[-165.4069737163274,-9.9738095031308944,0.0],[-165.42601668507734,-9.9791805968809228,0.0],[-165.42601477772877,-9.9791805968809228,0.0],[-163.03160750538993,-9.7937557921933944,0.0],[-161.30431258351493,-9.4878475890684228,0.0],[-158.26097762257737,-8.5723202453184228,0.0],[-157.67015731007734,-8.5073788390684228,0.0],[-157.42400252492118,-8.5116513000059086,0.0],[-157.21861922413987,-8.5409481750059228,0.0],[-157.0596836772649,-8.5952694640683944,0.0],[-156.9532383647649,-8.67498137813088,0.0],[-156.90508162648365,-8.7802059875059086,0.0],[-156.92107283742112,-8.91130950313088,0.0],[-157.00713240773365,-9.0685360656309371,0.0],[-157.1690586772649,-9.2520077453184228,0.0],[-157.4127110210149,-9.4620907531309086,0.0]],
[[-157.9721592632024,-22.325372003130937,0.0],[-158.1180332866399,-22.337090753130937,0.0],[-158.28581893117115,-22.322320245318437,0.0],[-158.4778965678899,-22.27971770625588,0.0],[-158.9442051616399,-22.104668878130923,0.0],[-159.41643416554609,-21.869439385943465,0.0],[-159.78984725148365,-21.639458917193409,0.0],[-160.0773838725774,-21.413384698443451,0.0],[-160.29192244679612,-21.19024016719338,0.0],[-160.44634139210865,-20.968926690630909,0.0],[-160.55339705617121,-20.748467706255937,0.0],[-160.62608992726487,-20.527764581255923,0.0],[-160.6772373882024,-20.305474542193423,0.0],[-160.7160557475774,-20.194024346880951,0.0],[-160.78545272023362,-20.083062432818409,0.0],[-160.8820713725774,-19.97258880000588,0.0],[-161.1429356303899,-19.753716729693366,0.0],[-163.15294539601487,-18.54656340938088,0.0],[-163.55632674367118,-18.183038018755894,0.0],[-163.6949375835149,-18.014458917193423,0.0],[-163.7447422710149,-17.935845635943394,0.0],[-163.78014266163993,-17.86211516719338,0.0],[-163.80010115773362,-17.793877862505923,0.0],[-163.80345809132737,-17.731866143755909,0.0],[-163.7891758647649,-17.67681243281838,0.0],[-163.75627791554615,-17.629571221880937,0.0],[-163.70360457570237,-17.59050872188088,0.0],[-163.6301182475774,-17.560723565630937,0.0],[-163.53472029835865,-17.540581964068423,0.0],[-163.53471839101005,-17.540581964068423,0.0],[-163.41875350148365,-17.536187432818423,0.0],[-161.1153477397649,-17.954400323443437,0.0],[-159.6749180522649,-18.367974542193409,0.0],[-158.5454014507024,-18.835259698443394,0.0],[-157.75218856007737,-19.287163995318451,0.0],[-157.4620274272649,-19.51921965938088,0.0],[-157.34514510304609,-19.640801690630866,0.0],[-157.24761092335862,-19.767632745318451,0.0],[-157.1699131694524,-19.900933526568437,0.0],[-157.11254012257746,-20.041802667193437,0.0],[-157.0757969585149,-20.19146087031838,0.0],[-157.06023299367115,-20.35100676875588,0.0],[-157.06633650929615,-20.521661065630923,0.0],[-157.09441268117118,-20.704522393755951,0.0],[-157.42644393117115,-21.788628839068423,0.0],[-157.48992049367109,-21.925957940630923,0.0],[-157.56127059132737,-22.04607512813088,0.0],[-157.64281356007737,-22.14763762813088,0.0],[-157.73692977101487,-22.22918059688088,0.0],[-157.84593856007737,-22.28887297969338,0.0],[-157.9721592632024,-22.325372003130937,0.0]],
[[-157.89580428273359,21.601141668744049,0.0],[-157.87761580617115,21.577398992962884,0.0],[-157.85234725148365,21.560736395306577,0.0],[-157.84612166554609,21.549200750775242,0.0],[-157.84453475148365,21.534064032025356,22.3804],[-157.8447178569524,21.514776922650327,8.5034],[-157.84886824757734,21.520880438275327,474.3987],[-157.85222518117109,21.522406317181577,326.286],[-157.85893904835865,21.521612860150412,99.2395],[-157.84142195851484,21.483526922650469,-0.0309],[-157.8312901225774,21.470587469525384,0.0],[-157.81798445851484,21.459540106244162,0.0],[-157.7950352397649,21.435797430462827,0.0],[-157.79070174367109,21.436346746869049,0.3794],[-157.7855137553899,21.431586004681662,0.0],[-157.77397811085865,21.433111883587912,0.0],[-157.75658309132737,21.439703680462912,0.9738],[-157.78386580617115,21.459540106244162,0.0],[-157.77019393117109,21.463263250775327,0.0],[-157.7217930522649,21.463263250775327,0.0],[-157.72765242726484,21.456488348431662,43.4196],[-157.73778426320234,21.438910223431634,0.7908],[-157.74071395070234,21.420721746869162,0.0],[-157.72521102101487,21.412420965619162,0.0],[-157.70897566945234,21.407171942181662,0.0],[-157.70555770070237,21.393927313275412,0.0],[-157.70598494679615,21.37604401249402,1.1106],[-157.70134627492109,21.357123114056492,0.0],[-157.68730818898359,21.341986395306606,0.0],[-157.65483748585865,21.329535223431549,2.1044],[-157.6398838725774,21.3161685242128,0.0],[-157.6929844585149,21.2808902039003,58.5617],[-157.70812117726484,21.267767645306577,14.6353],[-157.7217930522649,21.28601715702527,-0.5712],[-157.74480330617115,21.284064032025412,126.8739],[-157.77104842335859,21.273871160931577,0.929],[-157.79411971242109,21.267767645306577,13.1904],[-157.81096541554615,21.267950750775327,40.4356],[-157.81767928273359,21.269293524212827,1.7137],[-157.8316563335149,21.281988836712856,1.8642],[-157.86150252492115,21.297430731243992,0.1794],[-157.87102400929612,21.305975653119134,0.0],[-157.86644637257737,21.3161685242128,1.2258],[-157.87682234913984,21.325934149212827,4.7045],[-157.8858555522649,21.332525946087742,2.6418],[-157.90740096242115,21.343512274212856,26.0549],[-157.92082869679615,21.329535223431549,0.0286],[-157.94359481007737,21.323126532025469,-0.4364],[-157.96361434132734,21.328436590619106,-0.4353],[-157.96880232960865,21.349676824994162,0.0],[-157.96227156788984,21.357306219525412,4.6453],[-157.9515293803899,21.360052801556549,0.0],[-157.94243514210859,21.364569403118992,0.0],[-157.94090926320234,21.377630926556577,5.5],[-157.94530379445234,21.386297918744162,19.6125],[-157.95262801320234,21.390509344525242,17.9136],[-157.96105086476487,21.390021063275327,9.3742],[-157.96880232960865,21.384405828900242,-0.1744],[-157.97411238820237,21.389288641400356,2.964],[-157.98931014210865,21.398688055462912,20.0624],[-157.97502791554618,21.371893621869162,0.0],[-157.98717391163987,21.370367742962912,5.6729],[-158.01061141163984,21.377691961712884,5.7712],[-158.03032576710865,21.377630926556577,26.1426],[-158.0118321147649,21.362860418744106,0.0],[-157.99193465382734,21.353399969525327,0.0],[-157.9791172710149,21.3388736023378,1.6664],[-157.98186385304615,21.30872223515027,0.0],[-158.00347029835859,21.315619207806662,1.8553],[-158.02507674367115,21.314886785931577,2.9416],[-158.07280623585859,21.307623602337827,4.5831],[-158.08489119679618,21.301703192181662,1.9978],[-158.09447371632737,21.2948062195253,0.0],[-158.09905135304612,21.296576239056577,0.0317],[-158.10350691945234,21.300421453900469,4.0052],[-158.10912215382734,21.302557684369162,-0.2498],[-158.12926375538984,21.37128327030652,218.6449],[-158.1332920757024,21.377630926556577,76.6932],[-158.14043318898362,21.383002020306606,7.7459],[-158.15618025929615,21.389105535931606,0.0],[-158.16435897023359,21.394964910931662,0.0],[-158.17796981007743,21.412176824994106,0.0],[-158.19719588429615,21.44623444218152,0.0],[-158.20842635304612,21.459540106244162,0.0],[-158.21990096242115,21.4683902039003,0.0],[-158.2366856303899,21.484503485150384,0.0],[-158.24712264210859,21.504461981244077,0.0],[-158.23912703663984,21.524725653119219,0.0],[-158.23613631398365,21.542792059369162,60.7203],[-158.27263533742115,21.573126532025327,79.751],[-158.26305281788984,21.590521551556606,0.0],[-158.24468123585865,21.596808172650356,0.0],[-158.2222813335149,21.598395086712912,0.0],[-158.16680037648365,21.59577057499402,0.0],[-158.14763533742115,21.591498114056634,0.0],[-158.13671004445237,21.590521551556606,0.0],[-158.12139022023365,21.593023992962884,0.0],[-158.1177891460149,21.599310614056719,0.0],[-158.1176670757024,21.607855535931577,0.0],[-158.11284529835859,21.617193914837827,0.0],[-158.0828770366399,21.634649969525242,0.0],[-158.0753086772649,21.637701727337742,0.0],[-158.06731307179615,21.642584539837856,0.0],[-158.0601719585149,21.653631903119077,11.8135],[-158.05077254445234,21.672491766400412,0.0],[-158.03551375538984,21.684576727337884,0.0],[-157.97569930226484,21.714056707806549,0.0],[-157.9755772319524,21.709051824994106,-0.1306],[-157.97368514210865,21.706061102337912,-1.6306],[-157.97106063038987,21.703558660931549,-0.4452],[-157.96880232960865,21.699774481244077,-0.1459],[-157.9503086772649,21.691778875775327,-0.3391],[-157.93572127492115,21.67969391483777,0.0],[-157.92381941945234,21.664007879681662,0.0],[-157.9135655132024,21.645148016400356,0.0],[-157.91106307179609,21.628058172650327,0.0],[-157.89580428273359,21.601141668744049,0.0]],
[[-159.35570418507737,22.224066473431549,0.0],[-159.33891951710862,22.214178778119162,0.0],[-159.3249424663274,22.200934149212742,0.0],[-159.3188389507024,22.186957098431719,53.5],[-159.31731307179615,22.176092840619219,35.2794],[-159.31334578663984,22.16474030155652,36.2949],[-159.3078526225774,22.155829168744077,22.8243],[-159.30144393117112,22.152228094525356,0.0],[-159.2929600444524,22.147650457806606,0.0],[-159.2927159038274,22.1367251648378,0.0],[-159.3035801616399,22.094977117962827,0.0],[-159.33928572804609,22.036200262494049,8.9348],[-159.33476912648365,22.022772528119162,0.0],[-159.33183943898359,22.005194403119219,0.0],[-159.33080184132734,21.985968328900412,0.0],[-159.3319004741399,21.967291571087742,7.3369],[-159.34300887257734,21.970831610150356,33.8704],[-159.34911238820234,21.969732977337884,41.3043],[-159.3500889507024,21.963751532025327,34.8512],[-159.34551131398365,21.952948309369134,0.0],[-159.4007481303899,21.905829168744134,108.7558],[-159.45537459523365,21.871039129681662,0.0],[-159.47746932179609,21.891913153119134,29.6569],[-159.52361189992109,21.903387762493992,143.4051],[-159.57012068898365,21.905829168744134,52.0673],[-159.59319197804615,21.898993231244162,0.0],[-159.5999668803899,21.898993231244162,8.0456],[-159.60802352101484,21.90857575077527,28.6344],[-159.63512313038987,21.932074285931662,27.2056],[-159.65038191945237,21.958502508587912,51.2072],[-159.67211043507734,21.960760809369134,8.11],[-159.69621932179618,21.959357000775412,0.0],[-159.71294295460862,21.963812567181634,0.0],[-159.73039900929612,21.97589752811902,5.2073],[-159.74706160695234,21.981024481243992,2.813],[-159.75957381398359,21.98792145390027,7.99],[-159.76445662648365,22.004828192181634,8.3212],[-159.7718418803899,22.010199285931492,2.6464],[-159.78600203663987,22.030523992962827,3.4815],[-159.7952793803899,22.052618719525412,0.0],[-159.78807723195234,22.062811590619134,0.0],[-159.77672469288984,22.070685125775356,0.0],[-159.73656356007734,22.118109442181719,171.3164],[-159.73442732960865,22.126166082806492,0.0],[-159.73436629445243,22.134955145306606,0.0],[-159.73277938038987,22.141913153119077,0.0],[-159.72600447804609,22.144781805462856,0.0],[-159.72362410695237,22.147772528119049,0.0],[-159.64617049367109,22.195563055462884,0.0],[-159.5908116069524,22.222235418744106,0.0],[-159.57268416554615,22.227972723431719,0.0],[-159.55956160695234,22.236151434369106,0.0],[-159.5438145366399,22.234869696087912,0.0],[-159.5279453960149,22.227362371869077,0.0],[-159.51433455617115,22.217108465619134,0.0],[-159.50682723195234,22.219794012494134,0.0],[-159.42882430226484,22.230658270306634,0.0],[-159.41844832570237,22.233343817181662,0.0],[-159.41130721242112,22.237921453900412,0.0],[-159.40166365773362,22.242499090619162,0.0],[-159.39134871632734,22.238409735150327,0.0],[-159.3807285991399,22.231573797650356,0.0],[-159.35570418507737,22.224066473431549,0.0]],
[[-160.19701277882734,21.798590399212827,1.2824],[-160.20567977101484,21.795904852337827,23.0159],[-160.21636092335859,21.795965887494134,18.9467],[-160.24108016163984,21.806463934369134,8.5207],[-160.24822127492109,21.829169012494134,0.0],[-160.24278914601484,21.857611395306492,0.0],[-160.23003279835862,21.885382391400356,0.0],[-160.19432723195234,21.933783270306549,0.0],[-160.16350447804615,21.9414126648378,0.0],[-160.1611241069524,21.952948309369134,0.0],[-160.14684188038984,21.961920477337884,0.0],[-160.13579451710859,21.972967840619134,0.0],[-160.11394393117109,22.00147125858777,0.0],[-160.10198104054615,22.013251043743992,0.0],[-160.09068953663984,22.017645574993992,0.0],[-160.0587071147649,22.015082098431606,0.0],[-160.04564559132743,22.00147125858777,0.0],[-160.06389510304612,21.986151434369162,16.7184],[-160.0760410991399,21.964606024212912,19.6292],[-160.07964217335862,21.93909332890027,0.0],[-160.07231795460865,21.912054754681662,0.0],[-160.08428084523359,21.907599188275356,332.6621],[-160.10393416554609,21.894354559369106,240.1878],[-160.1170567241399,21.89160797733777,89.0417],[-160.13591658742115,21.891058660931549,183.3893],[-160.14513289601484,21.888617254681577,169.8814],[-160.1789463725774,21.849737860150469,3.1606],[-160.18614852101484,21.835638739056634,21.6357],[-160.1911534038274,21.805914617962912,0.0],[-160.19701277882734,21.798590399212827,1.2824]],
[[-161.94396006885162,22.986396529151278,0.0],[-162.00243270070237,23.0448062195253,0.0],[-161.94396102101484,23.103216864056577,0.0],[-161.88567244679609,23.0448062195253,0.0],[-161.94396006885162,22.986396529151278,0.0]],
[[-161.94396006885162,22.986396529151278,0.0],[-161.94395911366627,22.986395574994106,0.0],[-161.94396102101484,22.986395574994106,0.0],[-161.94396006885162,22.986396529151278,0.0]],
[[-170.6856602397649,-13.850884698443394,0.0],[-170.05535018117112,-13.945489190630894,0.0],[-168.80852400929612,-13.920342706255923,0.0],[-168.65898787648362,-13.948174737505909,0.0],[-168.53319441945237,-13.986871026568394,0.0],[-168.42583357960865,-14.034600518755937,0.0],[-168.33165633351493,-14.089410089068409,0.0],[-168.24346053273362,-14.154961846880937,0.0],[-168.15154158742112,-14.256158135943451,0.0],[-168.06981551320237,-14.381890557818394,0.0],[-168.03801619679618,-14.448540948443394,0.0],[-168.0150059428899,-14.514825128130894,0.0],[-168.00292098195243,-14.578545831255909,0.0],[-168.00389754445237,-14.637627862505951,0.0],[-168.01994979054615,-14.689751885943409,0.0],[-168.05327498585868,-14.732964776568423,0.0],[-168.10588729054615,-14.764947198443451,0.0],[-168.17992293507743,-14.783501885943423,0.0],[-168.27739607960868,-14.786553643755923,0.0],[-168.40056502492115,-14.771905206255951,0.0],[-169.5225743022649,-14.516778253130937,0.0],[-169.93431746632734,-14.47991301875588,0.0],[-170.10893904835859,-14.487237237505951,0.0],[-170.42107283742109,-14.547295831255937,0.0],[-170.52471053273368,-14.55266692500588,0.0],[-170.78533064992115,-14.534234307818437,0.0],[-171.4456700053899,-14.399590753130951,0.0],[-172.15111434132743,-14.170464776568409,0.0],[-172.46806990773365,-14.03386809688088,0.0],[-172.73308455617112,-13.889825128130923,0.0],[-172.92601668507737,-13.753228448443394,0.0],[-172.99504744679612,-13.691949151568437,0.0],[-173.04759871632737,-13.635186456255923,0.0],[-173.08489119679612,-13.582940362505937,0.0],[-173.10826766163987,-13.534966729693437,0.0],[-173.11900984913993,-13.491265557818409,0.0],[-173.11833846242118,-13.451592706255909,0.0],[-173.10759627492112,-13.415948175005937,0.0],[-173.08806502492115,-13.38433196406838,0.0],[-173.06108748585865,-13.356499932818394,0.0],[-173.02788436085865,-13.332330010943451,0.0],[-172.98979842335859,-13.31194426875588,0.0],[-172.94811141163993,-13.294854425005951,0.0],[-172.85912215382743,-13.271172784380923,0.0],[-172.85912024647874,-13.271172784380923,0.0],[-172.37584578663987,-13.181329034380923,0.0],[-172.2722080913274,-13.178887628130951,0.0],[-172.2242344585149,-13.18462493281838,0.0],[-172.17681014210862,-13.195733331255923,0.0],[-172.12834822804612,-13.212579034380894,0.0],[-172.02214705617115,-13.264947198443394,0.0],[-171.72856795460862,-13.453301690630909,0.0],[-171.26738631398362,-13.672539971880894,0.0],[-170.6856602397649,-13.850884698443394,0.0]],
[[-169.5308741308526,16.700080610684211,0.0],[-169.58934676320243,16.758490301556662,0.0],[-169.5308750835149,16.81690094608777,0.0],[-169.47252547413993,16.758490301556662,0.0],[-169.5308741308526,16.700080610684211,0.0]],
[[-169.5308741308526,16.700080610684211,0.0],[-169.53087317616624,16.700079657025356,0.0],[-169.5308750835149,16.700079657025356,0.0],[-169.5308741308526,16.700080610684211,0.0]],
[[-169.82402693898365,-19.101250909380909,58.6843],[-169.8655918803899,-19.128472589068451,44.9046],[-169.87316023976493,-19.12468840938098,44.9824],[-169.88109481007734,-19.127862237505909,46.5225],[-169.89910018117118,-19.141534112505937,0.0],[-169.90215193898368,-19.131768487505909,72.8817],[-169.91008650929609,-19.127373956255894,45.1135],[-169.92119490773365,-19.126763604693451,0.0],[-169.93389022023365,-19.128472589068451,0.0],[-169.9306553569524,-19.12517669063098,0.0],[-169.92815291554615,-19.12163665156848,0.0],[-169.9249180522649,-19.118096612505965,0.0],[-169.91954695851487,-19.114800714068409,0.0],[-169.92418563038993,-19.098321221880838,18.8714],[-169.92638289601484,-19.093804620318394,76.2878],[-169.95055281788987,-19.086114190630838,0.0],[-169.94786727101487,-19.068291925005937,0.0],[-169.92638289601484,-19.036309503130909,0.0],[-169.92815291554615,-19.03057219844348,0.0],[-169.93169295460865,-19.025445245318423,0.0],[-169.93450057179609,-19.019707940630909,0.0],[-169.93389022023365,-19.012383721880923,0.0],[-169.93041121632734,-19.007134698443423,0.0],[-169.92656600148368,-19.006280206255923,0.0],[-169.92192732960862,-19.005791925005909,0.0],[-169.91619002492109,-19.001885675005909,6.0474],[-169.89598738820237,-18.964043878130838,0.0],[-169.8638828960149,-18.962823175005951,78.3734],[-169.8513096538274,-18.964043878130838,69.4877],[-169.82549178273359,-18.966729425005951,65.2263],[-169.82280623585868,-18.971490167193437,64.5423],[-169.79436385304615,-19.046075128130951,59.0956],[-169.78301131398365,-19.067681573443409,62.6525],[-169.79698836476484,-19.072686456255951,60.2195],[-169.80614363820234,-19.080743096880909,60.2356],[-169.82402693898365,-19.101250909380909,58.6843]],
[[-171.10399520070234,-9.5298397765684513,0.0],[-171.16075789601487,-9.53472258906838,0.0],[-171.2346104350774,-9.5287411437559086,0.0],[-171.42864119679612,-9.48284270625588,0.0],[-171.82842147023362,-9.3257382140684371,0.0],[-172.1823643413274,-9.12407805781838,0.0],[-172.44579207570243,-8.9172909484434513,0.0],[-172.52953231007743,-8.82451751094338,0.0],[-172.55705916554615,-8.7828915343809228,0.0],[-172.55705725819755,-8.7828915343809228,0.0],[-172.6131504741399,-8.6628964171933944,0.0],[-172.64568221242118,-8.54985930781838,0.0],[-172.6531895366399,-8.4983456359434513,0.0],[-172.6550205913274,-8.4512264953184371,0.0],[-172.6511143413274,-8.40947844844338,0.0],[-172.64171492726487,-8.3740780578184513,0.0],[-172.6267002788274,-8.3457577453184513,0.0],[-172.60625350148362,-8.3256161437559371,0.0],[-172.58031356007737,-8.3145077453183944,0.0],[-172.54912459523362,-8.3132870421934086,0.0],[-172.51256453663993,-8.3229305968809228,0.0],[-172.47081648976487,-8.3442929015684228,0.0],[-172.42388045460859,-8.3782284484434086,0.0],[-171.9360264507024,-8.8007138000059086,0.0],[-171.66997420460865,-8.97759368281838,0.0],[-171.54228865773368,-9.04558684688088,0.0],[-171.31206404835868,-9.1326229796934371,0.0],[-171.25890242726487,-9.158868096880866,0.0],[-171.20818221242115,-9.1910946593809513,0.0],[-171.16112410695234,-9.2277157531309513,0.0],[-171.1190098491399,-9.26751067500588,0.0],[-171.08293807179612,-9.3090145812559086,0.0],[-171.05419051320243,-9.35076262813088,0.0],[-171.0340489116399,-9.3914120421934086,0.0],[-171.02361189992112,-9.4297421203183944,0.0],[-171.02416121632743,-9.464043878130866,0.0],[-171.03697859913987,-9.4930966125059228,0.0],[-171.06316268117118,-9.5154354796934513,0.0],[-171.10399520070234,-9.5298397765684513,0.0]],
[[-175.80791365773362,-23.33257415156838,0.0],[-175.94225203663993,-23.419976495318423,0.0],[-176.0345371928899,-23.382989190630937,0.0],[-176.07713973195237,-23.204644464068423,0.0],[-176.06261336476493,-22.867974542193409,0.0],[-175.52428328663984,-19.296197198443423,0.0],[-175.4887608257024,-18.410699151568409,0.0],[-175.50768172413984,-18.14067962031838,0.0],[-175.54070174367112,-17.960381768755923,0.0],[-175.56004988820237,-17.89788176875588,0.0],[-175.56004798085377,-17.89788176875588,0.0],[-175.91564070851493,-16.865411065630951,0.0],[-176.15904891163984,-15.858575128130909,0.0],[-176.17656600148368,-15.651421807818394,0.0],[-176.16985213429615,-15.472832940630937,0.0],[-176.13548934132734,-15.32830169063088,0.0],[-176.0699375835149,-15.22319915156838,0.0],[-175.96983992726484,-15.162896417193437,0.0],[-175.8317784038274,-15.152764581255923,0.0],[-175.6522129741399,-15.198296807818451,0.0],[-175.42778670460862,-15.304864190630909,0.0],[-174.95720564992118,-15.611138604693451,0.0],[-174.54326522023365,-15.971123956255923,0.0],[-174.19414412648365,-16.380425714068409,0.0],[-173.9179600444524,-16.83452727656838,0.0],[-173.80986678273362,-17.07695891719338,0.0],[-173.72307479054609,-17.32891204219338,0.0],[-173.65868270070243,-17.589898370318437,0.0],[-173.61766707570243,-17.859185479693409,0.0],[-173.60100447804609,-18.136285089068465,0.0],[-173.60985457570243,-18.420708917193409,0.0],[-173.64513289601493,-18.711846612505894,0.0],[-173.80779158742115,-19.345879815630923,0.0],[-174.5400303569524,-21.144830010943451,0.0],[-175.44304549367112,-22.852227471880894,0.0],[-175.63896834523365,-23.137627862505951,0.0],[-175.80791365773362,-23.33257415156838,0.0]],
[[-176.15239607960862,-13.379327081255937,0.0],[-176.16857039601493,-13.38213469844338,2.4983],[-176.18443953663987,-13.381524346880937,0.0],[-176.19951522023365,-13.377373956255894,0.0],[-176.21312606007737,-13.369439385943366,0.0],[-176.22484481007734,-13.357598565630951,0.0],[-176.23400008351484,-13.341729425005909,0.0],[-176.24022566945237,-13.321465753130866,0.0],[-176.24285018117118,-13.296807550005909,30.5498],[-176.24138533742115,-13.267510675005894,0.0],[-176.24138343007255,-13.267510675005894,0.0],[-176.2376621928899,-13.251153253130937,0.0],[-176.23088729054615,-13.23650481563088,0.0],[-176.22148787648368,-13.224053643755923,0.0],[-176.21001326710865,-13.21343352656838,0.0],[-176.19689070851493,-13.20513274531838,0.0],[-176.18254744679615,-13.198907159380951,0.0],[-176.16741072804618,-13.19512297969338,0.0],[-176.15209090382737,-13.193658135943437,0.0],[-176.13701522023359,-13.194756768755894,0.0],[-176.1225498882024,-13.198418878130937,0.0],[-176.10924422413993,-13.204766534380894,0.0],[-176.09752547413993,-13.213921807818394,0.0],[-176.08788191945243,-13.225762628130909,0.0],[-176.08074080617118,-13.240655206255923,0.0],[-176.07665145070234,-13.258599542193437,0.0],[-176.07598006398359,-13.279595635943451,0.0],[-176.07915389210862,-13.301202081255909,0.0],[-176.08580672413984,-13.320611260943366,0.0],[-176.09545027882737,-13.337701104693394,0.0],[-176.1074131694524,-13.352349542193437,0.0],[-176.12126814992118,-13.364312432818394,0.0],[-176.13646590382737,-13.373345635943366,0.0],[-176.15239607960862,-13.379327081255937,0.0]],
[[-176.47948252978912,0.13788578796094,0.0],[-176.53795516163987,0.196356512494106,0.0],[-176.47948348195234,0.254645086712785,0.0],[-176.42119490773359,0.196356512494106,0.0],[-176.47948252978912,0.13788578796094,0.0]],
[[-176.47948252978912,0.13788578796094,0.0],[-176.47948157460377,0.137884832806506,0.0],[-176.47948348195234,0.137884832806506,0.0],[-176.47948252978912,0.13788578796094,0.0]],
[[-177.98705184132734,-29.563164971880923,0.0],[-178.03795516163993,-29.567559503130923,0.0],[-178.08592879445243,-29.563042901568394,0.0],[-178.12944686085862,-29.549737237505937,0.0],[-178.1668614116399,-29.528008721880951,0.0],[-178.19646346242118,-29.49846770625588,0.0],[-178.21660506398362,-29.461114190630909,0.0],[-178.2256993022649,-29.416558526568394,0.0],[-178.22197615773365,-29.36504485469338,0.0],[-178.20390975148359,-29.306939385943451,0.0],[-178.16979109913987,-29.242608331255894,0.0],[-178.16978919179127,-29.242608331255894,0.0],[-178.15489852101484,-29.221978448443451,0.0],[-178.1024082866399,-29.167901300005951,0.0],[-178.06291854054615,-29.137261651568423,0.0],[-178.02049910695243,-29.11089446406838,0.0],[-177.9764317241399,-29.089165948443394,0.0],[-177.93175398976487,-29.072564385943394,0.0],[-177.88756453663993,-29.061333917193409,0.0],[-177.84490096242115,-29.055840753130951,0.0],[-177.80498397023368,-29.056573175005923,0.0],[-177.7687901225774,-29.063653253130937,0.0],[-177.73754012257743,-29.077813409380894,0.0],[-177.71227156788993,-29.099053643755965,0.0],[-177.69414412648365,-29.12786223750588,0.0],[-177.6841953960149,-29.164727471880923,0.0],[-177.68352400929615,-29.209771417193451,0.0],[-177.69328963429618,-29.263604425005909,0.0],[-177.71459090382737,-29.326470635943423,0.0],[-177.74785506398368,-29.392632745318409,0.0],[-177.78819930226493,-29.447564385943409,0.0],[-177.83397566945243,-29.49187590938088,0.0],[-177.8834141460149,-29.525567315630894,0.0],[-177.93498885304612,-29.549248956255923,0.0],[-177.98705184132734,-29.563164971880923,0.0]],
[[-178.1430567485391,-14.332573196414216,0.0],[-178.20152938038984,-14.274102471880965,0.0],[-178.14305770070234,-14.21575286250598,0.0],[-178.08476912648365,-14.274102471880965,0.0],[-178.1430567485391,-14.332573196414216,0.0]],
[[-178.1430567485391,-14.332573196414216,0.0],[-178.14305579335377,-14.33257415156848,0.0],[-178.14305770070234,-14.33257415156848,0.0],[-178.1430567485391,-14.332573196414216,0.0]]]]}
,"properties": {"featurecla": "Island group","name": "POLYNESIA","namealt": null,"region": "Oceania","subregion": "Polynesia","min_label": 2.0,"max_label": 6.0,"scalerank": 0,"area_km2": 26867823.0,"hist_schema_id": "Elevation0-9000","hist_area_km2": {"0": 26866246.0,"25": 449.0,"50": 297.0}}}