{"type":"Feature","properties":{"featurecla":"Island group","name":"Raiatea","namealt":null,"region":"Oceania","subregion":"Polynesia","min_label":4.7,"max_label":9.0,"scalerank":4},
"geometry":{"type": "Polygon","coordinates": [[[-151.3642491069524,-16.865288995318423,22.7366],[-151.35259139210865,-16.857476495318352,0.0],[-151.41289412648359,-16.778497003130923,0.0],[-151.4243077007024,-16.754082940630923,0.0],[-151.43096053273362,-16.746636651568409,0.0],[-151.4466465678899,-16.739312432818437,124.6912],[-151.4648350444524,-16.73516204219348,99.282],[-151.47893416554612,-16.736993096880909,58.8212],[-151.49138533742109,-16.749200128130909,0.0],[-151.49492537648359,-16.763360284380951,0.0],[-151.48821150929615,-16.855279229693437,0.0],[-151.47807967335865,-16.888482354693451,0.0],[-151.45842635304612,-16.901543878130937,60.3551],[-151.44933211476484,-16.901665948443465,242.2349],[-151.44072615773365,-16.89995696406848,265.972],[-151.43425643117109,-16.896416925005965,1.6079],[-151.4317539897649,-16.890923760943409,63.7436],[-151.4295567241399,-16.880669854693451,23.5636],[-151.4244297710149,-16.880669854693451,0.0],[-151.41405379445234,-16.88774993281848,11.712],[-151.40099227101484,-16.884087823443437,113.5404],[-151.3642491069524,-16.865288995318423,22.7366]]]}}