{"type": "Feature","bbox": [-173.11900984913993,-14.786553643755923,-168.00292098195243,-13.178887628130951],"geometry": {"type": "Polygon","coordinates": [[[-170.6856602397649,-13.850884698443394,0.0],[-171.26738631398362,-13.672539971880894,0.0],[-171.72856795460862,-13.453301690630909,0.0],[-172.02214705617115,-13.264947198443394,0.0],[-172.12834822804612,-13.212579034380894,0.0],[-172.17681014210862,-13.195733331255923,0.0],[-172.2242344585149,-13.18462493281838,0.0],[-172.2722080913274,-13.178887628130951,0.0],[-172.37584578663987,-13.181329034380923,0.0],[-172.85912024647874,-13.271172784380923,0.0],[-172.85912215382743,-13.271172784380923,0.0],[-172.94811141163993,-13.294854425005951,0.0],[-172.98979842335859,-13.31194426875588,0.0],[-173.02788436085865,-13.332330010943451,0.0],[-173.06108748585865,-13.356499932818394,0.0],[-173.08806502492115,-13.38433196406838,0.0],[-173.10759627492112,-13.415948175005937,0.0],[-173.11833846242118,-13.451592706255909,0.0],[-173.11900984913993,-13.491265557818409,0.0],[-173.10826766163987,-13.534966729693437,0.0],[-173.08489119679612,-13.582940362505937,0.0],[-173.04759871632737,-13.635186456255923,0.0],[-172.99504744679612,-13.691949151568437,0.0],[-172.92601668507737,-13.753228448443394,0.0],[-172.73308455617112,-13.889825128130923,0.0],[-172.46806990773365,-14.03386809688088,0.0],[-172.15111434132743,-14.170464776568409,0.0],[-171.4456700053899,-14.399590753130951,0.0],[-170.78533064992115,-14.534234307818437,0.0],[-170.52471053273368,-14.55266692500588,0.0],[-170.42107283742109,-14.547295831255937,0.0],[-170.10893904835859,-14.487237237505951,0.0],[-169.93431746632734,-14.47991301875588,0.0],[-169.5225743022649,-14.516778253130937,0.0],[-168.40056502492115,-14.771905206255951,0.0],[-168.27739607960868,-14.786553643755923,0.0],[-168.17992293507743,-14.783501885943423,0.0],[-168.10588729054615,-14.764947198443451,0.0],[-168.05327498585868,-14.732964776568423,0.0],[-168.01994979054615,-14.689751885943409,0.0],[-168.00389754445237,-14.637627862505951,0.0],[-168.00292098195243,-14.578545831255909,0.0],[-168.0150059428899,-14.514825128130894,0.0],[-168.03801619679618,-14.448540948443394,0.0],[-168.06981551320237,-14.381890557818394,0.0],[-168.15154158742112,-14.256158135943451,0.0],[-168.24346053273362,-14.154961846880937,0.0],[-168.33165633351493,-14.089410089068409,0.0],[-168.42583357960865,-14.034600518755937,0.0],[-168.53319441945237,-13.986871026568394,0.0],[-168.65898787648362,-13.948174737505909,0.0],[-168.80852400929612,-13.920342706255923,0.0],[-170.05535018117112,-13.945489190630894,0.0],[-170.6856602397649,-13.850884698443394,0.0]],
[[-170.56743514210868,-14.257378839068352,104.7947],[-170.56865584523365,-14.26983001094348,2.6917],[-170.58434188038984,-14.276543878130937,0.0],[-170.64244734913987,-14.279595635943437,229.3383],[-170.65941512257737,-14.283990167193437,139.9773],[-170.68376814992115,-14.301568292193465,0.0],[-170.72197615773362,-14.352349542193423,0.0],[-170.74883162648359,-14.373467706255965,0.0],[-170.75566756398365,-14.365899346880923,78.5577],[-170.79662215382734,-14.33867766719348,0.0],[-170.82292830617118,-14.325494073443451,148.978],[-170.83135115773362,-14.31816985469348,112.3168],[-170.78874861867115,-14.293389581255894,99.3736],[-170.77269637257734,-14.290215753130965,0.0],[-170.7380284038274,-14.290826104693409,100.9293],[-170.72160994679615,-14.288018487505965,46.7485],[-170.69859969288987,-14.25933196406848,237.4581],[-170.66155135304615,-14.251275323443352,72.7105],[-170.6202305522649,-14.253350518755909,0.0],[-170.5911778178899,-14.263604425005965,62.0684],[-170.57640731007734,-14.251275323443352,129.4853],[-170.56743514210868,-14.257378839068352,104.7947]],
[[-171.57012068898365,-13.936944268755852,98.4687],[-171.56438338429615,-13.948296807818437,363.4926],[-171.5196446147649,-13.943536065630951,208.5371],[-171.46947371632737,-13.968194268755909,9.9621],[-171.43785750538993,-14.004937432818437,67.9813],[-171.44835555226484,-14.036431573443451,95.5732],[-171.44542586476487,-14.040215753130923,49.8837],[-171.44084822804612,-14.050713800005937,0.0],[-171.46629988820234,-14.051568292193423,0.0],[-171.5371006694524,-14.044488214068409,11.8186],[-171.57939803273359,-14.048394464068409,0.0],[-171.59892928273368,-14.04656340938098,0.0],[-171.6196202007024,-14.036431573443451,0.0],[-171.63591658742115,-14.044976495318423,0.0],[-171.65251814992115,-14.04399993281848,1.8674],[-171.68419539601484,-14.036431573443451,0.0],[-171.70024764210862,-14.037774346880965,0.0],[-171.74315535695234,-14.050713800005937,0.0],[-171.75347029835862,-14.050347589068451,0.0],[-171.76219832570243,-14.047539971880909,0.0],[-171.76824080617112,-14.042046807818437,2.746],[-171.77043807179612,-14.033623956255909,0.0],[-171.77464949757737,-14.025079034380951,2.047],[-171.78453719288984,-14.021050714068423,0.0],[-171.80461775929615,-14.01653411250598,0.0],[-171.82237898976493,-14.007256768755965,7.4282],[-171.83812606007734,-14.00212981563098,0.0],[-171.85417830617112,-14.000664971880951,0.0],[-171.89366805226487,-14.005791925005923,0.0],[-171.9112461772649,-14.00518157344348,0.0],[-171.92674910695237,-13.99993255000598,0.0],[-171.94115340382737,-13.989190362505923,0.0],[-171.96202742726487,-13.956963800005923,0.0],[-171.97258650929609,-13.94500090938098,0.0],[-171.98210799367115,-13.948296807818437,0.0],[-171.98894393117115,-13.948296807818437,87.6424],[-172.00646102101484,-13.923760675005909,8.9174],[-172.01811873585862,-13.91668059688098,0.0],[-172.0407627788274,-13.914117120318409,0.0],[-172.0611485210149,-13.904961846880909,0.0],[-172.06377303273359,-13.883843682818451,5.6587],[-172.05571639210865,-13.860650323443352,18.3762],[-172.0441807475774,-13.84514739375598,4.4925],[-171.96538436085862,-13.817315362505894,0.0],[-171.88036238820243,-13.804253839068409,27.3288],[-171.83464705617115,-13.806329034380965,29.0392],[-171.79247176320237,-13.815240167193423,0.0],[-171.65038191945237,-13.87004973750598,0.0],[-171.60704695851484,-13.875054620318437,2.317],[-171.58531844288984,-13.882622979693465,0.0],[-171.56767928273359,-13.895684503130965,13.1305],[-171.55754744679609,-13.914117120318409,77.6652],[-171.55925643117118,-13.924126885943394,394.773],[-171.5659092632024,-13.930352471880923,192.5902],[-171.57012068898365,-13.936944268755852,98.4687]],
[[-172.28069197804615,-13.492364190630951,0.0],[-172.22295272023362,-13.557183526568423,0.0],[-172.22197615773359,-13.56133391719348,0.0],[-172.2237461772649,-13.57268645625598,2.9443],[-172.22295272023362,-13.57708098750598,18.0314],[-172.21770369679609,-13.581597589068423,16.6942],[-172.2054356303899,-13.586602471880965,0.0],[-172.20122420460862,-13.591363214068465,0.0],[-172.19768416554612,-13.601861260943465,0.0],[-172.19585311085859,-13.612603448443437,0.0],[-172.19499861867109,-13.635674737505937,0.7039],[-172.19042098195234,-13.654839776568423,12.9284],[-172.18157088429612,-13.66643645625598,18.1995],[-172.17583357960859,-13.679009698443465,0.0],[-172.18077742726484,-13.701226495318465,0.0],[-172.19084822804615,-13.716729425005923,0.0],[-172.20226180226487,-13.728936456255923,0.0],[-172.21160018117109,-13.743340753130923,0.0],[-172.21550643117109,-13.766412042193423,12.1792],[-172.21245467335859,-13.78936126094348,0.0],[-172.21312606007734,-13.79985930781848,0.0],[-172.21922957570234,-13.804253839068409,0.0],[-172.2429112163274,-13.803887628130923,3.1789],[-172.2534092632024,-13.801690362505909,0.0],[-172.2639073100774,-13.79680755000598,14.6818],[-172.2796543803899,-13.783746026568394,0.0],[-172.2878330913274,-13.773736260943409,0.0],[-172.29772078663987,-13.768609307818423,0.0],[-172.31853377492115,-13.770074151568451,0.0],[-172.36876570851484,-13.787774346880923,0.0],[-172.52336775929612,-13.804253839068409,0.0],[-172.53301131398362,-13.797539971880951,22.485],[-172.5433262553899,-13.78411223750598,21.1627],[-172.55132186085862,-13.77629973750598,17.6701],[-172.56755721242115,-13.767632745318409,15.5497],[-172.57530867726484,-13.761651300005923,24.8196],[-172.5786045757024,-13.75274016719348,16.7596],[-172.58074080617118,-13.743706964068409,19.3031],[-172.59014022023365,-13.72356536250598,12.6716],[-172.59227645070243,-13.711480401568423,34.5095],[-172.59728133351487,-13.699395440630951,103.7648],[-172.6091221538274,-13.691827081255909,65.9317],[-172.62273299367112,-13.686578057818409,43.3952],[-172.63323104054612,-13.680718682818465,33.1562],[-172.65465438038984,-13.648003839068451,117.4079],[-172.6675938335149,-13.632622979693437,171.3168],[-172.69353377492115,-13.62285735469348,0.0],[-172.70366561085868,-13.615533135943409,0.0],[-172.71886336476487,-13.601617120318423,4.5385],[-172.72197615773368,-13.596734307818409,0.3584],[-172.72313582570234,-13.586114190630965,98.8345],[-172.72569930226493,-13.580743096880937,132.8125],[-172.73143660695234,-13.577691339068437,85.6496],[-172.74468123585859,-13.57878997188098,0.0],[-172.74993025929609,-13.57708098750598,0.0],[-172.76128279835859,-13.563775323443437,23.1368],[-172.7766026225774,-13.540826104693465,85.839],[-172.7827061382024,-13.51909758906848,45.1444],[-172.76671492726484,-13.50945403438098,39.2313],[-172.7325352397649,-13.50945403438098,36.7262],[-172.69530379445234,-13.52300383906848,83.6403],[-172.66136824757737,-13.523980401568409,62.2165],[-172.63909041554615,-13.52080657344348,12.1451],[-172.61553084523365,-13.508111260943465,20.921],[-172.60417830617115,-13.505181573443409,24.0113],[-172.58202254445237,-13.503228448443451,21.8651],[-172.56932723195237,-13.50029876094348,32.1989],[-172.54241072804609,-13.486626885943437,20.1987],[-172.53081404835862,-13.482720635943451,16.7518],[-172.45195662648365,-13.482720635943451,74.5109],[-172.43157088429615,-13.479668878130951,83.134],[-172.38933455617118,-13.465752862505951,136.4807],[-172.3663243022649,-13.461602471880909,53.1905],[-172.3445957866399,-13.461724542193437,49.8187],[-172.32250106007734,-13.465630792193423,34.29],[-172.30095564992109,-13.475274346880937,32.5853],[-172.28069197804615,-13.492364190630951,0.0]]]}
,"properties": {"featurecla": "Island group","name": "SAMOA IS.","namealt": null,"region": "Oceania","subregion": "Polynesia","min_label": 5.4,"max_label": 10.0,"scalerank": 5,"area_km2": 39478.46,"hist_schema_id": "Elevation0-9000","hist_area_km2": {"0": 39282.74,"25": 81.0,"50": 29.43,"75": 14.74,"100": 10.2,"125": 8.27,"150": 5.61,"175": 4.44,"200": 3.43,"225": 3.19,"250": 2.94,"275": 2.45,"300": 2.53,"325": 2.36,"350": 2.14,"375": 2.18,"400": 2.3,"425": 1.11,"450": 1.42,"475": 1.19,"500": 1.52,"525": 1.36,"550": 0.76,"575": 1.13,"600": 0.78,"625": 0.74,"650": 0.88,"675": 0.72,"700": 0.78,"725": 0.84,"750": 0.74,"775": 0.84,"800": 0.78,"825": 0.6,"850": 0.78,"875": 0.58,"900": 0.45,"925": 0.37}}}