{"type": "Feature","bbox": [-172.7827061382024,-13.804253839068409,-172.17583357960859,-13.461602471880909],"geometry": {"type": "Polygon","coordinates": [[[-172.28069197804615,-13.492364190630951,0.0],[-172.30095564992109,-13.475274346880937,32.5853],[-172.32250106007734,-13.465630792193423,34.29],[-172.3445957866399,-13.461724542193437,49.8187],[-172.3663243022649,-13.461602471880909,53.1905],[-172.38933455617118,-13.465752862505951,136.4807],[-172.43157088429615,-13.479668878130951,83.134],[-172.45195662648365,-13.482720635943451,74.5109],[-172.53081404835862,-13.482720635943451,16.7518],[-172.54241072804609,-13.486626885943437,20.1987],[-172.56932723195237,-13.50029876094348,32.1989],[-172.58202254445237,-13.503228448443451,21.8651],[-172.60417830617115,-13.505181573443409,24.0113],[-172.61553084523365,-13.508111260943465,20.921],[-172.63909041554615,-13.52080657344348,12.1451],[-172.66136824757737,-13.523980401568409,62.2165],[-172.69530379445234,-13.52300383906848,83.6403],[-172.7325352397649,-13.50945403438098,36.7262],[-172.76671492726484,-13.50945403438098,39.2313],[-172.7827061382024,-13.51909758906848,45.1444],[-172.7766026225774,-13.540826104693465,85.839],[-172.76128279835859,-13.563775323443437,23.1368],[-172.74993025929609,-13.57708098750598,0.0],[-172.74468123585859,-13.57878997188098,0.0],[-172.73143660695234,-13.577691339068437,85.6496],[-172.72569930226493,-13.580743096880937,132.8125],[-172.72313582570234,-13.586114190630965,98.8345],[-172.72197615773368,-13.596734307818409,0.3584],[-172.71886336476487,-13.601617120318423,4.5385],[-172.70366561085868,-13.615533135943409,0.0],[-172.69353377492115,-13.62285735469348,0.0],[-172.6675938335149,-13.632622979693437,171.3168],[-172.65465438038984,-13.648003839068451,117.4079],[-172.63323104054612,-13.680718682818465,33.1562],[-172.62273299367112,-13.686578057818409,43.3952],[-172.6091221538274,-13.691827081255909,65.9317],[-172.59728133351487,-13.699395440630951,103.7648],[-172.59227645070243,-13.711480401568423,34.5095],[-172.59014022023365,-13.72356536250598,12.6716],[-172.58074080617118,-13.743706964068409,19.3031],[-172.5786045757024,-13.75274016719348,16.7596],[-172.57530867726484,-13.761651300005923,24.8196],[-172.56755721242115,-13.767632745318409,15.5497],[-172.55132186085862,-13.77629973750598,17.6701],[-172.5433262553899,-13.78411223750598,21.1627],[-172.53301131398362,-13.797539971880951,22.485],[-172.52336775929612,-13.804253839068409,0.0],[-172.36876570851484,-13.787774346880923,0.0],[-172.31853377492115,-13.770074151568451,0.0],[-172.29772078663987,-13.768609307818423,0.0],[-172.2878330913274,-13.773736260943409,0.0],[-172.2796543803899,-13.783746026568394,0.0],[-172.2639073100774,-13.79680755000598,14.6818],[-172.2534092632024,-13.801690362505909,0.0],[-172.2429112163274,-13.803887628130923,3.1789],[-172.21922957570234,-13.804253839068409,0.0],[-172.21312606007734,-13.79985930781848,0.0],[-172.21245467335859,-13.78936126094348,0.0],[-172.21550643117109,-13.766412042193423,12.1792],[-172.21160018117109,-13.743340753130923,0.0],[-172.20226180226487,-13.728936456255923,0.0],[-172.19084822804615,-13.716729425005923,0.0],[-172.18077742726484,-13.701226495318465,0.0],[-172.17583357960859,-13.679009698443465,0.0],[-172.18157088429612,-13.66643645625598,18.1995],[-172.19042098195234,-13.654839776568423,12.9284],[-172.19499861867109,-13.635674737505937,0.7039],[-172.19585311085859,-13.612603448443437,0.0],[-172.19768416554612,-13.601861260943465,0.0],[-172.20122420460862,-13.591363214068465,0.0],[-172.2054356303899,-13.586602471880965,0.0],[-172.21770369679609,-13.581597589068423,16.6942],[-172.22295272023362,-13.57708098750598,18.0314],[-172.2237461772649,-13.57268645625598,2.9443],[-172.22197615773359,-13.56133391719348,0.0],[-172.22295272023362,-13.557183526568423,0.0],[-172.28069197804615,-13.492364190630951,0.0]]]}
,"properties": {"featurecla": "Island group","name": "Savai‘i","namealt": null,"region": "Oceania","subregion": "Polynesia","min_label": 5.3,"max_label": 9.0,"scalerank": 4,"area_km2": 1651.502,"hist_schema_id": "Elevation0-9000","hist_area_km2": {"0": 59.938,"25": 152.187,"50": 92.659,"75": 81.047,"100": 70.827,"125": 64.007,"150": 63.349,"175": 50.199,"200": 43.502,"225": 40.163,"250": 39.05,"275": 36.577,"300": 33.836,"325": 30.662,"350": 28.704,"375": 27.777,"400": 25.283,"425": 24.603,"450": 23.552,"475": 23.016,"500": 22.357,"525": 21.718,"550": 21.924,"575": 22.11,"600": 21.862,"625": 21.842,"650": 20.956,"675": 20.42,"700": 19.39,"725": 19.019,"750": 17.762,"775": 17.7,"800": 18.689,"825": 17.885,"850": 19.348,"875": 17.061,"900": 18.215,"925": 15.866,"950": 14.877,"975": 15.249,"1000": 14.96,"1025": 13.167,"1050": 11.622,"1075": 11.704,"1100": 11.601,"1125": 11.086,"1150": 10.591,"1175": 9.417,"1200": 10.014,"1225": 8.757,"1250": 8.86,"1275": 8.572,"1300": 8.345,"1325": 7.748,"1350": 8.242,"1375": 7.088,"1400": 6.408,"1425": 6.573,"1450": 6.491,"1475": 6.182,"1500": 5.667,"1525": 6.532,"1550": 6.985,"1575": 7.377,"1600": 6.614,"1625": 6.717,"1650": 7.397,"1675": 5.254,"1700": 3.688,"1725": 3.75,"1750": 5.151,"1775": 2.576,"1800": 0.845,"1825": 0.288,"1850": 0.041}}}