{"type":"Feature","properties":{"featurecla":"Island group","name":"SOUTHERN COOK ISLANDS","namealt":null,"region":"Oceania","subregion":"Polynesia","min_label":5.3,"max_label":9.0,"scalerank":4},
"geometry":{"type": "Polygon","coordinates": [[[-157.9721592632024,-22.325372003130937,0.0],[-157.84593856007737,-22.28887297969338,0.0],[-157.73692977101487,-22.22918059688088,0.0],[-157.64281356007737,-22.14763762813088,0.0],[-157.56127059132737,-22.04607512813088,0.0],[-157.48992049367109,-21.925957940630923,0.0],[-157.42644393117115,-21.788628839068423,0.0],[-157.09441268117118,-20.704522393755951,0.0],[-157.06633650929615,-20.521661065630923,0.0],[-157.06023299367115,-20.35100676875588,0.0],[-157.0757969585149,-20.19146087031838,0.0],[-157.11254012257746,-20.041802667193437,0.0],[-157.1699131694524,-19.900933526568437,0.0],[-157.24761092335862,-19.767632745318451,0.0],[-157.34514510304609,-19.640801690630866,0.0],[-157.4620274272649,-19.51921965938088,0.0],[-157.75218856007737,-19.287163995318451,0.0],[-158.5454014507024,-18.835259698443394,0.0],[-159.6749180522649,-18.367974542193409,0.0],[-161.1153477397649,-17.954400323443437,0.0],[-163.41875350148365,-17.536187432818423,0.0],[-163.53471839101005,-17.540581964068423,0.0],[-163.53472029835865,-17.540581964068423,0.0],[-163.6301182475774,-17.560723565630937,0.0],[-163.70360457570237,-17.59050872188088,0.0],[-163.75627791554615,-17.629571221880937,0.0],[-163.7891758647649,-17.67681243281838,0.0],[-163.80345809132737,-17.731866143755909,0.0],[-163.80010115773362,-17.793877862505923,0.0],[-163.78014266163993,-17.86211516719338,0.0],[-163.7447422710149,-17.935845635943394,0.0],[-163.6949375835149,-18.014458917193423,0.0],[-163.55632674367118,-18.183038018755894,0.0],[-163.15294539601487,-18.54656340938088,0.0],[-161.1429356303899,-19.753716729693366,0.0],[-160.8820713725774,-19.97258880000588,0.0],[-160.78545272023362,-20.083062432818409,0.0],[-160.7160557475774,-20.194024346880951,0.0],[-160.6772373882024,-20.305474542193423,0.0],[-160.62608992726487,-20.527764581255923,0.0],[-160.55339705617121,-20.748467706255937,0.0],[-160.44634139210865,-20.968926690630909,0.0],[-160.29192244679612,-21.19024016719338,0.0],[-160.0773838725774,-21.413384698443451,0.0],[-159.78984725148365,-21.639458917193409,0.0],[-159.41643416554609,-21.869439385943465,0.0],[-158.9442051616399,-22.104668878130923,0.0],[-158.4778965678899,-22.27971770625588,0.0],[-158.28581893117115,-22.322320245318437,0.0],[-158.1180332866399,-22.337090753130937,0.0],[-157.9721592632024,-22.325372003130937,0.0]],
[[-157.9421290141641,-21.967949174970741,0.0],[-158.00060164601484,-21.909600518755965,0.0],[-157.94212996632734,-21.851128839068465,0.0],[-157.88384139210865,-21.909600518755965,0.0],[-157.9421290141641,-21.967949174970741,0.0]],
[[-157.9421290141641,-21.967949174970741,0.0],[-157.94212805897877,-21.967950128130951,0.0],[-157.94212996632734,-21.967950128130951,0.0],[-157.9421290141641,-21.967949174970741,0.0]],
[[-159.78996836963285,-18.918876905357649,0.0],[-159.84844100148359,-18.860284112505838,0.0],[-159.78996932179609,-18.801934503130951,0.0],[-159.7316807475774,-18.860284112505838,0.0],[-159.78996836963285,-18.918876905357649,0.0]],
[[-159.78996836963285,-18.918876905357649,0.0],[-159.78996741444752,-18.918877862505965,0.0],[-159.78996932179609,-18.918877862505965,0.0],[-159.78996836963285,-18.918876905357649,0.0]],
[[-163.1714380951984,-18.129204057783227,0.0],[-163.2298496928899,-18.070855401568451,0.0],[-163.17143904835862,-18.012383721880937,0.0],[-163.11308943898362,-18.070855401568451,0.0],[-163.1714380951984,-18.129204057783227,0.0]],
[[-163.1714380951984,-18.129204057783227,0.0],[-163.17143714101002,-18.129205010943437,0.0],[-163.17143904835862,-18.129205010943437,0.0],[-163.1714380951984,-18.129204057783227,0.0]]]}}