{"type":"Feature","properties":{"featurecla":"Island group","name":"Tahiti","namealt":null,"region":"Oceania","subregion":"Polynesia","min_label":4.0,"max_label":8.0,"scalerank":3},
"geometry":{"type": "Polygon","coordinates": [[[-149.30412947804618,-17.71087005000598,0.0],[-149.32762801320237,-17.682915948443465,184.3423],[-149.3304356303899,-17.662530206255894,171.2162],[-149.32762801320237,-17.596612237505965,263.1062],[-149.32982527882737,-17.578667901568451,237.2574],[-149.3356846538274,-17.562798760943423,160.8004],[-149.34422957570237,-17.549615167193394,162.5466],[-149.35430037648359,-17.538872979693437,3.9552],[-149.38774764210865,-17.516778253130965,0.0],[-149.42961775929615,-17.500420831255909,0.0],[-149.47514998585859,-17.492974542193409,0.0],[-149.51940047413984,-17.497369073443409,0.0],[-149.56426131398365,-17.508965753130965,0.0],[-149.60448348195237,-17.52471282344348,0.0],[-149.63286482960859,-17.552300714068409,0.0],[-149.64232527882734,-17.599786065630909,0.0],[-149.63884627492115,-17.617730401568423,0.0],[-149.63109481007737,-17.638116143755894,0.0],[-149.62139022023365,-17.654961846880951,0.0],[-149.61186873585865,-17.661797784380923,0.0],[-149.60515486867112,-17.670708917193465,0.0],[-149.58769881398362,-17.73003508906848,0.0],[-149.57622420460859,-17.736382745318352,54.6993],[-149.51940047413984,-17.745049737505923,225.6208],[-149.48802840382734,-17.756768487505909,11.5002],[-149.4721592632024,-17.759331964068409,78.8623],[-149.45049178273365,-17.75798919063098,66.5403],[-149.39202010304615,-17.740166925005909,315.1556],[-149.37200057179615,-17.737603448443423,61.5317],[-149.36638533742115,-17.73308684688098,219.8226],[-149.3626621928899,-17.724053643755909,424.1794],[-149.35765731007734,-17.716607354693409,201.6038],[-149.34807479054615,-17.717095635943409,376.282],[-149.34361922413984,-17.723687432818423,189.6781],[-149.33446395070234,-17.75798919063098,0.0],[-149.30876814992115,-17.80242278438098,0.0],[-149.27611434132734,-17.843682550005951,0.0],[-149.26103865773359,-17.850518487505923,0.4565],[-149.20659529835859,-17.865411065630937,184.9788],[-149.1904209819524,-17.86785247188098,201.9694],[-149.15660750538984,-17.845025323443451,445.264],[-149.14922225148365,-17.800835870318423,477.9008],[-149.1607578960149,-17.755669854693451,7.4803],[-149.18358504445243,-17.73003508906848,0.0],[-149.26341902882734,-17.721734307818465,0.0],[-149.30412947804618,-17.71087005000598,0.0]]]}}