{"type":"Feature","properties":{"featurecla":"Island group","name":"TONGA ISLANDS","namealt":null,"region":"Oceania","subregion":"Polynesia","min_label":5.3,"max_label":9.0,"scalerank":4},
"geometry":{"type": "Polygon","coordinates": [[[-175.80791365773362,-23.33257415156838,0.0],[-175.63896834523365,-23.137627862505951,0.0],[-175.44304549367112,-22.852227471880894,0.0],[-174.5400303569524,-21.144830010943451,0.0],[-173.80779158742115,-19.345879815630923,0.0],[-173.64513289601493,-18.711846612505894,0.0],[-173.60985457570243,-18.420708917193409,0.0],[-173.60100447804609,-18.136285089068465,0.0],[-173.61766707570243,-17.859185479693409,0.0],[-173.65868270070243,-17.589898370318437,0.0],[-173.72307479054609,-17.32891204219338,0.0],[-173.80986678273362,-17.07695891719338,0.0],[-173.9179600444524,-16.83452727656838,0.0],[-174.19414412648365,-16.380425714068409,0.0],[-174.54326522023365,-15.971123956255923,0.0],[-174.95720564992118,-15.611138604693451,0.0],[-175.42778670460862,-15.304864190630909,0.0],[-175.6522129741399,-15.198296807818451,0.0],[-175.8317784038274,-15.152764581255923,0.0],[-175.96983992726484,-15.162896417193437,0.0],[-176.0699375835149,-15.22319915156838,0.0],[-176.13548934132734,-15.32830169063088,0.0],[-176.16985213429615,-15.472832940630937,0.0],[-176.17656600148368,-15.651421807818394,0.0],[-176.15904891163984,-15.858575128130909,0.0],[-175.91564070851493,-16.865411065630951,0.0],[-175.56004798085377,-17.89788176875588,0.0],[-175.56004988820237,-17.89788176875588,0.0],[-175.54070174367112,-17.960381768755923,0.0],[-175.50768172413984,-18.14067962031838,0.0],[-175.4887608257024,-18.410699151568409,0.0],[-175.52428328663984,-19.296197198443423,0.0],[-176.06261336476493,-22.867974542193409,0.0],[-176.07713973195237,-23.204644464068423,0.0],[-176.0345371928899,-23.382989190630937,0.0],[-175.94225203663993,-23.419976495318423,0.0],[-175.80791365773362,-23.33257415156838,0.0]],
[[-175.31560408742109,-21.120171807818409,5.7315],[-175.30663191945234,-21.120415948443451,1.6001],[-175.24999129445234,-21.110162042193409,1.3795],[-175.24077498585862,-21.112603448443465,2.9625],[-175.2332676616399,-21.118096612505923,1.9502],[-175.2253330913274,-21.122613214068451,0.0],[-175.21904647023365,-21.12883880000598,2.5505],[-175.21654402882737,-21.139825128130909,7.24],[-175.23149764210859,-21.148980401568409,14.0597],[-175.23833357960865,-21.15715911250598,15.3193],[-175.23418318898362,-21.167535089068465,4.9887],[-175.2237461772649,-21.171319268755937,0.0],[-175.21367537648362,-21.16716887813098,2.1397],[-175.20366561085862,-21.160455010943352,0.0],[-175.1932285991399,-21.156914971880923,3.8465],[-175.18096053273359,-21.158868096880965,1.6007],[-175.16326033742115,-21.168145440630909,10.6766],[-175.15508162648365,-21.170586846880965,1.5495],[-175.14025008351487,-21.16716887813098,0.0],[-175.13439070851493,-21.156670831255965,0.0],[-175.12859236867109,-21.142876885943409,0.0],[-175.11412703663987,-21.129571221880951,5.7418],[-175.10381209523362,-21.125176690630951,4.8559],[-175.09093367726484,-21.121514581255909,5.3672],[-175.07750594288987,-21.120293878130923,0.0],[-175.06566512257737,-21.12273528438098,0.0],[-175.05473982960865,-21.130303643755923,3.2954],[-175.0510166850774,-21.138116143755923,23.3365],[-175.05205428273365,-21.153741143755909,21.4533],[-175.06059920460859,-21.162530206255923,24.9439],[-175.11754500538987,-21.201958917193451,19.1321],[-175.12108504445237,-21.210503839068423,23.8474],[-175.11943709523359,-21.221123956255951,28.2314],[-175.11601912648362,-21.232354425005937,37.5716],[-175.11412703663987,-21.242852471880852,40.8179],[-175.11772811085859,-21.25481536250598,61.5343],[-175.12663924367115,-21.261651300005951,65.3777],[-175.13799178273365,-21.265069268755852,65.1638],[-175.14885604054615,-21.266778253130923,19.7326],[-175.1705235210149,-21.262139581255965,0.0],[-175.18059432179612,-21.253838800005951,0.0],[-175.1966465678899,-21.225274346880909,0.0],[-175.20983016163984,-21.213189385943352,0.0],[-175.25749861867115,-21.191094659380965,25.242],[-175.26494490773365,-21.198540948443465,3.8608],[-175.28972518117115,-21.184747003130909,15.8533],[-175.3039463725774,-21.179497979693409,2.9038],[-175.31645857960859,-21.177422784380937,0.0],[-175.32585799367115,-21.172539971880909,0.0],[-175.35063826710862,-21.139825128130909,0.0],[-175.36492049367109,-21.11272551875598,0.0],[-175.35546004445234,-21.088433526568423,0.0],[-175.33232772023362,-21.070122979693423,16.3717],[-175.30589949757737,-21.061333917193409,0.0],[-175.3183506694524,-21.07561614375598,0.0],[-175.33421981007737,-21.088433526568423,0.0],[-175.34099471242112,-21.101495050005923,7.324],[-175.32640731007737,-21.116021417193451,0.0],[-175.31560408742109,-21.120171807818409,5.7315]],
[[-175.65062510691712,-15.645561479658227,0.0],[-175.70903670460865,-15.587212823443465,0.0],[-175.65062606007734,-15.52886321406848,0.0],[-175.59227645070234,-15.587212823443465,0.0],[-175.65062510691712,-15.645561479658227,0.0]],
[[-175.65062510691712,-15.645561479658227,0.0],[-175.65062415272877,-15.645562432818451,0.0],[-175.65062606007734,-15.645562432818451,0.0],[-175.65062510691712,-15.645561479658227,0.0]]]}}