{"type": "Feature","bbox": [-151.6972569194524,-24.335137628130937,-147.07658850819755,-22.001763604693423],"geometry": {"type": "Polygon","coordinates": [[[-147.27721106679127,-24.330865167193451,0.0],[-147.16405188710382,-24.304131768755923,0.0],[-147.0986221996038,-24.257989190630937,0.0],[-147.07658850819755,-24.19536712031838,0.0],[-147.09367835194746,-24.119195245318409,0.0],[-147.14543616444752,-24.032403253130894,0.0],[-147.22758948476,-23.938042901568451,0.0],[-147.3358048167913,-23.839043878130937,0.0],[-147.6130264964788,-23.638970635943451,0.0],[-147.94225012929132,-23.455743096880923,0.0],[-148.2889317241399,-23.313164971880923,0.0],[-149.9111241069524,-22.810479425005923,0.0],[-150.48644148976487,-22.518975518755951,0.0],[-151.08635604054618,-22.09575774531838,0.0],[-151.18572127492115,-22.047295831255951,0.0],[-151.27727400929615,-22.016289971880951,0.0],[-151.3607090678899,-22.001763604693423,0.0],[-151.4356602397649,-22.002496026568394,0.0],[-151.50188338429618,-22.017388604693409,0.0],[-151.55901229054621,-22.045220635943394,0.0],[-151.60680281788984,-22.084771417193451,0.0],[-151.64482772023368,-22.135064385943394,0.0],[-151.67278182179618,-22.194756768755894,0.0],[-151.69035994679612,-22.262627862505951,0.0],[-151.6972569194524,-22.33770110469338,0.0],[-151.69316756398365,-22.418877862505894,0.0],[-151.67766463429609,-22.50469329219338,0.0],[-151.6505039897649,-22.594170831255909,0.0],[-151.58171736867109,-22.765313409380951,0.0],[-151.49687850148365,-22.919122003130937,0.0],[-151.44341170460868,-22.991875909380923,0.0],[-151.37999617726493,-23.062676690630965,0.0],[-151.2150791850774,-23.202813409380909,0.0],[-150.98607527882737,-23.34612395625588,0.0],[-149.75438391835377,-23.864190362505909,0.0],[-149.75438582570234,-23.864190362505909,0.0],[-149.0710362163274,-24.05413176875588,0.0],[-147.44249426991627,-24.335137628130937,0.0],[-147.27721106679127,-24.330865167193451,0.0]],
[[-149.49199473632137,-23.434257767225702,0.0],[-149.55046736867109,-23.37578704219348,0.0],[-149.49199568898365,-23.317437432818409,0.0],[-149.43364607960859,-23.37578704219348,0.0],[-149.49199473632137,-23.434257767225702,0.0]],
[[-149.49199473632137,-23.434257767225702,0.0],[-149.491993781635,-23.434258721880994,0.0],[-149.49199568898365,-23.434258721880994,0.0],[-149.49199473632137,-23.434257767225702,0.0]]]}
,"properties": {"featurecla": "Island group","name": "ÎLES TUBUAÏ","namealt": null,"region": "Oceania","subregion": "Polynesia","min_label": 5.4,"max_label": 10.0,"scalerank": 5,"area_km2": 47257.93,"hist_schema_id": "Elevation0-9000","hist_area_km2": {"0": 47213.64,"25": 7.78,"50": 6.38,"75": 6.25,"100": 4.84,"125": 3.96,"150": 3.73,"175": 2.95,"200": 3.11,"225": 2.13,"250": 1.17,"275": 1.05,"300": 0.41}}}