{"type":"Feature","properties":{"featurecla":"Island group","name":"ÎLES DE LA SOCIÉTÉ","namealt":null,"region":"Oceania","subregion":"Polynesia","min_label":4.7,"max_label":10.0,"scalerank":5},
"geometry":{"type": "Polygon","coordinates": [[[-149.03996932179618,-17.108575128130937,0.0],[-149.24004256398368,-16.901910089068423,0.0],[-149.46129500538993,-16.71160247188088,0.0],[-149.9564121928899,-16.37761809688088,0.0],[-150.5031651225774,-16.101495050005937,0.0],[-151.0794590678899,-15.878228448443423,0.0],[-152.23235213429615,-15.570611260943451,0.0],[-153.23802649647874,-15.415215753130923,0.0],[-153.2380284038274,-15.415215753130923,0.0],[-154.27007186085865,-15.420830987505909,0.0],[-154.38378035695243,-15.437310479693394,0.0],[-154.47984969288987,-15.463799737505951,0.0],[-154.5593174663274,-15.499810479693423,0.0],[-154.62322127492115,-15.544244073443409,0.0],[-154.67278182179612,-15.596612237505923,0.0],[-154.7089756694524,-15.655938409380937,0.0],[-154.7329014507024,-15.721612237505894,0.0],[-154.74571883351484,-15.792901300005951,0.0],[-154.74840438038987,-15.869073175005923,0.0],[-154.74217879445243,-15.949273370318423,0.0],[-154.72795760304615,-16.03276946406838,0.0],[-154.68022811085862,-16.206841729693394,0.0],[-154.46227156788993,-16.733086846880909,0.0],[-154.36766707570243,-16.88945891719338,0.0],[-154.31151473195234,-16.960137628130894,0.0],[-154.24785506398365,-17.024712823443394,0.0],[-154.17552840382734,-17.082207940630894,0.0],[-154.09331404835859,-17.13189055781838,0.0],[-154.00005232960859,-17.172662042193437,0.0],[-153.8945225444524,-17.203912042193409,0.0],[-153.77556502492112,-17.224541925005937,0.0],[-153.64202010304618,-17.233697198443437,0.0],[-153.14623152882737,-17.200127862505937,0.0],[-152.75920760304618,-17.220513604693409,0.0],[-152.3384922710149,-17.296929620318437,0.0],[-149.29869734913993,-18.285821221880965,0.0],[-149.09905135304615,-18.308770440630923,0.0],[-148.94756209523368,-18.29412200313088,0.0],[-148.83904158742109,-18.247002862505951,0.0],[-148.76848494679612,-18.173028253130894,0.0],[-148.73076522023365,-18.07744719844338,0.0],[-148.7208164897649,-17.965508721880894,0.0],[-148.7335118022649,-17.842705987505923,0.0],[-148.76378523976493,-17.71428801875588,0.0],[-148.80650984913993,-17.585747979693394,0.0],[-148.90904891163984,-17.349175714068423,0.0],[-149.03996932179618,-17.108575128130937,0.0]],
[[-149.30412947804618,-17.71087005000598,0.0],[-149.26341902882734,-17.721734307818465,0.0],[-149.18358504445243,-17.73003508906848,0.0],[-149.1607578960149,-17.755669854693451,7.4803],[-149.14922225148365,-17.800835870318423,477.9008],[-149.15660750538984,-17.845025323443451,445.264],[-149.1904209819524,-17.86785247188098,201.9694],[-149.20659529835859,-17.865411065630937,184.9788],[-149.26103865773359,-17.850518487505923,0.4565],[-149.27611434132734,-17.843682550005951,0.0],[-149.30876814992115,-17.80242278438098,0.0],[-149.33446395070234,-17.75798919063098,0.0],[-149.34361922413984,-17.723687432818423,189.6781],[-149.34807479054615,-17.717095635943409,376.282],[-149.35765731007734,-17.716607354693409,201.6038],[-149.3626621928899,-17.724053643755909,424.1794],[-149.36638533742115,-17.73308684688098,219.8226],[-149.37200057179615,-17.737603448443423,61.5317],[-149.39202010304615,-17.740166925005909,315.1556],[-149.45049178273365,-17.75798919063098,66.5403],[-149.4721592632024,-17.759331964068409,78.8623],[-149.48802840382734,-17.756768487505909,11.5002],[-149.51940047413984,-17.745049737505923,225.6208],[-149.57622420460859,-17.736382745318352,54.6993],[-149.58769881398362,-17.73003508906848,0.0],[-149.60515486867112,-17.670708917193465,0.0],[-149.61186873585865,-17.661797784380923,0.0],[-149.62139022023365,-17.654961846880951,0.0],[-149.63109481007737,-17.638116143755894,0.0],[-149.63884627492115,-17.617730401568423,0.0],[-149.64232527882734,-17.599786065630909,0.0],[-149.63286482960859,-17.552300714068409,0.0],[-149.60448348195237,-17.52471282344348,0.0],[-149.56426131398365,-17.508965753130965,0.0],[-149.51940047413984,-17.497369073443409,0.0],[-149.47514998585859,-17.492974542193409,0.0],[-149.42961775929615,-17.500420831255909,0.0],[-149.38774764210865,-17.516778253130965,0.0],[-149.35430037648359,-17.538872979693437,3.9552],[-149.34422957570237,-17.549615167193394,162.5466],[-149.3356846538274,-17.562798760943423,160.8004],[-149.32982527882737,-17.578667901568451,237.2574],[-149.32762801320237,-17.596612237505965,263.1062],[-149.3304356303899,-17.662530206255894,171.2162],[-149.32762801320237,-17.682915948443465,184.3423],[-149.30412947804618,-17.71087005000598,0.0]],
[[-149.78575789601484,-17.477959893755951,16.0501],[-149.80486189992115,-17.522271417193423,219.1816],[-149.82256209523359,-17.548516534380937,1017.1842],[-149.84288680226484,-17.566338800005937,241.1702],[-149.86205184132734,-17.565606378130965,177.0909],[-149.8853672710149,-17.554131768755937,0.0],[-149.9141758647649,-17.534112237505937,0.0],[-149.9376133647649,-17.511285089068409,0.0],[-149.9445713725774,-17.49114348750598,0.0],[-149.93425643117112,-17.48027922969348,0.0],[-149.91570174367115,-17.472344659380965,0.0],[-149.89787947804615,-17.471001885943465,0.0],[-149.88994490773365,-17.48027922969348,0.0],[-149.88603865773365,-17.490533135943437,0.0],[-149.87779891163987,-17.490777276568409,0.0],[-149.8701084819524,-17.486626885943451,0.0],[-149.86821639210865,-17.483697198443465,0.0],[-149.86040389210865,-17.48198821406848,0.0],[-149.85375106007734,-17.477959893755951,0.0],[-149.84599959523365,-17.47673919063098,0.0],[-149.8347080913274,-17.483697198443465,0.0],[-149.8317784038274,-17.471490167193465,0.0],[-149.82329451710865,-17.465508721880909,0.0],[-149.81096541554615,-17.463433526568423,0.0],[-149.7968662944524,-17.463189385943465,0.0],[-149.78624617726487,-17.467705987505909,0.0],[-149.78575789601484,-17.477959893755951,16.0501]],
[[-150.97966658742109,-16.799126885943451,137.0067],[-150.98406111867112,-16.808038018755894,9.1826],[-150.99291121632734,-16.80584075313098,173.4544],[-150.99492537648359,-16.812310479693465,0.0],[-150.99901473195234,-16.81670501094348,0.0],[-151.00511824757734,-16.819268487505965,0.0],[-151.01341902882734,-16.819512628130923,0.0],[-151.03154647023359,-16.805108331255923,0.0],[-151.0377110210149,-16.798516534380909,0.0],[-151.04009139210865,-16.788872979693409,0.0],[-151.03478133351484,-16.775811456255909,1.1521],[-151.02300154835865,-16.77178313594348,0.0],[-151.01128279835865,-16.77092864375598,4.4381],[-151.00597273976484,-16.767998956255909,20.07],[-151.00249373585865,-16.759698175005909,0.0],[-150.9944981303899,-16.760674737505937,0.0],[-150.98552596242115,-16.767998956255909,228.9727],[-150.9792393413274,-16.778619073443451,284.746],[-150.97850691945234,-16.786797784380923,101.9109],[-150.97966658742109,-16.799126885943451,137.0067]],
[[-151.3642491069524,-16.865288995318423,22.7366],[-151.40099227101484,-16.884087823443437,113.5404],[-151.41405379445234,-16.88774993281848,11.712],[-151.4244297710149,-16.880669854693451,0.0],[-151.4295567241399,-16.880669854693451,23.5636],[-151.4317539897649,-16.890923760943409,63.7436],[-151.43425643117109,-16.896416925005965,1.6079],[-151.44072615773365,-16.89995696406848,265.972],[-151.44933211476484,-16.901665948443465,242.2349],[-151.45842635304612,-16.901543878130937,60.3551],[-151.47807967335865,-16.888482354693451,0.0],[-151.48821150929615,-16.855279229693437,0.0],[-151.49492537648359,-16.763360284380951,0.0],[-151.49138533742109,-16.749200128130909,0.0],[-151.47893416554612,-16.736993096880909,58.8212],[-151.4648350444524,-16.73516204219348,99.282],[-151.4466465678899,-16.739312432818437,124.6912],[-151.43096053273362,-16.746636651568409,0.0],[-151.4243077007024,-16.754082940630923,0.0],[-151.41289412648359,-16.778497003130923,0.0],[-151.35259139210865,-16.857476495318352,0.0],[-151.3642491069524,-16.865288995318423,22.7366]],
[[-151.74846541554615,-16.503106378130951,37.5635],[-151.74706160695234,-16.524712823443409,0.0],[-151.76274764210862,-16.52459075313098,0.0],[-151.77702986867109,-16.51067473750598,0.0],[-151.78465926320234,-16.491753839068451,0.0],[-151.78056990773362,-16.476983331255951,0.0],[-151.76396834523359,-16.471246026568437,0.0],[-151.75371443898365,-16.482598565630951,0.0],[-151.74846541554615,-16.503106378130951,37.5635]]]}}