{"type":"Feature","properties":{"featurecla":"Island group","name":"ÎLES GAMBIER","namealt":null,"region":"Oceania","subregion":"Polynesia","min_label":5.4,"max_label":10.0,"scalerank":5},
"geometry":{"type": "Polygon","coordinates": [[[-134.79930579335374,-23.507500909380894,0.0],[-134.74278723866627,-23.493951104693394,0.0],[-134.69951331288505,-23.46599700313088,0.0],[-134.66869055897877,-23.422662042193437,0.0],[-134.64970862538502,-23.362725518755894,0.0],[-134.64171301991627,-23.284966729693451,0.0],[-134.65630042226002,-23.071831964068465,0.0],[-134.88444983632246,-21.989190362505937,0.0],[-134.99321448476002,-21.683648370318451,0.0],[-135.0555313792913,-21.559869073443451,0.0],[-135.12492835194752,-21.453423760943437,0.0],[-135.20280921132249,-21.362725518755937,0.0],[-135.29045569569749,-21.28618743281838,0.0],[-135.38927161366627,-21.22210051875588,0.0],[-135.50066077382252,-21.168999932818409,0.0],[-135.62584387929121,-21.125420831255909,0.0],[-135.92332923085377,-21.060113214068423,0.0],[-136.71379553944746,-20.988213800005937,0.0],[-136.88274085194752,-21.010308526568409,0.0],[-137.01665198476002,-21.056939385943394,0.0],[-137.117970344135,-21.125542901568437,0.0],[-137.18895423085377,-21.213189385943437,0.0],[-137.23192298085371,-21.317315362505923,0.0],[-137.24931800038502,-21.43523528438088,0.0],[-137.24339759022877,-21.56389739375588,0.0],[-137.21660315663502,-21.700982354693423,0.0],[-137.171193000385,-21.843438409380909,0.0],[-137.03404700429124,-22.133843682818409,0.0],[-136.85063635976007,-22.413384698443437,0.0],[-136.63982093007252,-22.66033294063088,0.0],[-136.61339270741624,-22.682427667193437,0.0],[-136.05785071522871,-23.062066339068423,0.0],[-135.57762610585377,-23.300957940630923,0.0],[-135.05473792226002,-23.474053643755923,0.0],[-134.86961829335377,-23.507989190630909,0.0],[-134.79930579335374,-23.507500909380894,0.0]]]}}