{"type": "Feature","bbox": [-176.24285018117118,-13.38213469844338,-176.07598006398359,-13.193658135943437],"geometry": {"type": "Polygon","coordinates": [[[-176.15239607960862,-13.379327081255937,0.0],[-176.13646590382737,-13.373345635943366,0.0],[-176.12126814992118,-13.364312432818394,0.0],[-176.1074131694524,-13.352349542193437,0.0],[-176.09545027882737,-13.337701104693394,0.0],[-176.08580672413984,-13.320611260943366,0.0],[-176.07915389210862,-13.301202081255909,0.0],[-176.07598006398359,-13.279595635943451,0.0],[-176.07665145070234,-13.258599542193437,0.0],[-176.08074080617118,-13.240655206255923,0.0],[-176.08788191945243,-13.225762628130909,0.0],[-176.09752547413993,-13.213921807818394,0.0],[-176.10924422413993,-13.204766534380894,0.0],[-176.1225498882024,-13.198418878130937,0.0],[-176.13701522023359,-13.194756768755894,0.0],[-176.15209090382737,-13.193658135943437,0.0],[-176.16741072804618,-13.19512297969338,0.0],[-176.18254744679615,-13.198907159380951,0.0],[-176.19689070851493,-13.20513274531838,0.0],[-176.21001326710865,-13.21343352656838,0.0],[-176.22148787648368,-13.224053643755923,0.0],[-176.23088729054615,-13.23650481563088,0.0],[-176.2376621928899,-13.251153253130937,0.0],[-176.24138343007255,-13.267510675005894,0.0],[-176.24138533742115,-13.267510675005894,0.0],[-176.24285018117118,-13.296807550005909,30.5498],[-176.24022566945237,-13.321465753130866,0.0],[-176.23400008351484,-13.341729425005909,0.0],[-176.22484481007734,-13.357598565630951,0.0],[-176.21312606007737,-13.369439385943366,0.0],[-176.19951522023365,-13.377373956255894,0.0],[-176.18443953663987,-13.381524346880937,0.0],[-176.16857039601493,-13.38213469844338,2.4983],[-176.15239607960862,-13.379327081255937,0.0]]]}
,"properties": {"featurecla": "Island group","name": "îles Wallis","namealt": null,"region": "Oceania","subregion": "Polynesia","min_label": 6.0,"max_label": 11.0,"scalerank": 6,"area_km2": 301.2871,"hist_schema_id": "Elevation0-9000","hist_area_km2": {"0": 241.6726,"25": 30.8697,"50": 16.0951,"75": 7.8415,"100": 3.7144,"125": 1.0318,"150": 0.0619}}}