{"type":"Feature","properties":{"featurecla":"Island group","name":"ÎLES MARQUESAS","namealt":null,"region":"Oceania","subregion":"Polynesia","min_label":5.4,"max_label":10.0,"scalerank":5},
"geometry":{"type": "Polygon","coordinates": [[[-138.57463538319752,-10.66472747188088,0.0],[-138.53990637929124,-10.641045831255937,0.0],[-138.51451575429121,-10.602959893755909,0.0],[-138.4974259105413,-10.553033135943451,0.0],[-138.48753821522871,-10.493951104693394,0.0],[-138.48381507069746,-10.428155206255909,0.0],[-138.49089514882252,-10.287286065630894,0.0],[-138.51042639882246,-10.150933526568423,0.0],[-138.55663001210377,-9.9647763000059228,0.0],[-138.6452530589788,-9.778374932818366,0.0],[-138.80992591054127,-9.5214169250059228,0.0],[-139.41716468007257,-8.8054745421934086,0.0],[-140.49504553944752,-7.84014251094338,0.0],[-140.59178626210377,-7.7748348937558944,0.0],[-140.67082678944752,-7.7376034484434513,0.0],[-140.73344885976,-7.7257626281309371,0.0],[-140.78081214101005,-7.736748956255866,0.0],[-140.81432044179124,-7.7676327453184371,0.0],[-140.8350723949163,-7.8159725890684371,0.0],[-140.84447180897877,-7.87896087031838,0.0],[-140.84380042226002,-7.9540341125059086,0.0],[-140.81700598866627,-8.12920501094338,0.0],[-140.69768225819749,-8.5053036437559513,0.0],[-140.2748917308538,-9.4616024718809086,0.0],[-140.20457923085377,-9.56914641719338,0.0],[-140.16905676991621,-9.6106503234433944,0.0],[-140.13322913319752,-9.64287688594338,0.0],[-139.73326575429127,-9.8611386046934371,0.0],[-139.30327307851002,-10.17644622188088,0.0],[-139.30321204335371,-10.176568292193394,0.0],[-138.74486243397877,-10.623955987505923,0.0],[-138.67601477772877,-10.658868096880923,0.0],[-138.61961829335371,-10.671563409380937,0.0],[-138.57463538319752,-10.66472747188088,0.0]],
[[-138.63713538319752,-10.54094817500588,0.0],[-138.67162024647877,-10.549371026568409,0.0],[-138.68571936757249,-10.540826104693451,0.0],[-138.69353186757246,-10.524956964068409,0.0],[-138.69463050038502,-10.506646417193409,0.0],[-138.67973792226002,-10.472344659380937,0.0],[-138.68181311757249,-10.457085870318437,0.0],[-138.69896399647871,-10.425225518755937,0.0],[-138.66539466054121,-10.426080010943423,31.0288],[-138.65056311757252,-10.430352471880909,129.7197],[-138.63689124257249,-10.439507745318409,2.3184],[-138.62059485585377,-10.470635675005951,304.1544],[-138.62035071522877,-10.509698175005909,107.8755],[-138.63713538319752,-10.54094817500588,0.0]],
[[-138.87712561757249,-9.753106378130866,0.0],[-138.86681067616621,-9.7542050109434228,0.0],[-138.85564124257257,-9.7523739562558944,0.0],[-138.84819495351005,-9.747857354693366,0.0],[-138.84251868397877,-9.7429745421934371,0.0],[-138.83672034413502,-9.7399227843809371,0.0],[-138.81419837147877,-9.7384579406309086,0.0],[-138.81865393788496,-9.7476132140684086,0.0],[-138.86943518788502,-9.7904598937559371,0.8299],[-138.89226233632257,-9.7994930968809086,212.5621],[-138.91673743397877,-9.8053524718809513,46.7765],[-138.95586096913505,-9.808892510943366,0.0],[-139.00963294179127,-9.8079159484434371,118.5298],[-139.02104651601002,-9.8051083312558944,133.4144],[-139.02641760976002,-9.8021786437559228,47.9548],[-139.03813635976002,-9.8012020812558944,83.6858],[-139.04991614491621,-9.8023007140684513,74.1071],[-139.05522620351002,-9.8051083312558944,327.6977],[-139.05522620351002,-9.8362362609434371,0.0],[-139.06206214101002,-9.8527157531309086,129.136],[-139.07146155507246,-9.8535702453184086,0.0],[-139.08568274647871,-9.8475888000059371,50.5359],[-139.12639319569746,-9.83904387813088,0.0],[-139.14360510976002,-9.82769133906838,0.0],[-139.157032844135,-9.814141534380866,0.0],[-139.16508948476002,-9.8020565734433944,0.0],[-139.17046057850996,-9.78887297969338,0.0],[-139.17339026601005,-9.7730038390684228,0.0],[-139.16960608632246,-9.7598202453184086,0.0],[-139.13860022694746,-9.74968840938088,0.0],[-139.05150305897877,-9.70037200313088,0.0],[-139.01555335194752,-9.6932919250059371,0.0],[-138.98473059804127,-9.6984188781309228,75.1892],[-138.9726456371038,-9.719537042193366,321.0424],[-138.96147620351002,-9.732598565630866,0.0],[-138.94292151601,-9.7412655578184513,155.396],[-138.92131507069752,-9.7460263000059371,174.0415],[-138.90099036366627,-9.7473690734434513,141.525],[-138.87712561757249,-9.753106378130866,0.0]],
[[-140.21684729726,-8.7799618468809513,0.0],[-140.08989417225996,-8.8008358703184371,0.0],[-140.05919348866621,-8.8008358703184371,0.0],[-140.05162512929127,-8.79924895625588,0.0],[-140.03758704335377,-8.7910702453183944,0.0],[-140.02782141835374,-8.7877743468809371,0.0],[-140.02788245351005,-8.7925350890684371,0.0],[-140.02965247304127,-8.7952206359434513,0.0],[-140.03239905507249,-8.79753997188088,0.0],[-140.03960120351002,-8.8058407531308944,0.0],[-140.04954993397871,-8.82195403438088,179.6761],[-140.02238928944749,-8.8455136046933944,8.6067],[-140.01616370351005,-8.85808684688088,86.5927],[-140.01421057851002,-8.8800595031309086,128.6761],[-140.019337531635,-8.89519622188088,88.6408],[-140.03142249257255,-8.8932430968809371,134.4022],[-140.05577551991624,-8.877251885943366,51.8002],[-140.06071936757246,-8.8987362609433944,177.0889],[-140.07683264882246,-8.9141171203184228,321.1497],[-140.09611975819752,-8.9179013000058944,0.0],[-140.11040198475996,-8.9044735656309086,162.5688],[-140.11784827382249,-8.9044735656309086,196.53],[-140.1301163402288,-8.91521575313088,444.5234],[-140.17009436757246,-8.9283993468808944,30.0105],[-140.17870032460374,-8.9356014953184513,612.0137],[-140.18340003163502,-8.9524471984434086,248.3421],[-140.19444739491627,-8.9492733703183944,212.4008],[-140.20714270741627,-8.9381649718809371,122.8639],[-140.22789466054121,-8.9258358703184086,0.0],[-140.23497473866627,-8.911675714068366,0.0],[-140.24535071522871,-8.8656552062559086,0.0],[-140.24754798085374,-8.8461239562559228,76.234],[-140.24968421132252,-8.8374569640684371,47.14],[-140.25908362538496,-8.829278253130866,0.0],[-140.26121985585377,-8.82195403438088,0.0],[-140.24797522694752,-8.7858212218808944,0.0],[-140.21684729726,-8.7799618468809513,0.0]],
[[-140.05406653554127,-9.345025323443366,0.0],[-140.0416153636663,-9.34990813594338,0.0],[-140.02782141835374,-9.3427059875059228,0.0],[-140.04082190663502,-9.3728573546934371,251.2967],[-140.04912268788502,-9.4069149718809513,146.234],[-140.06309973866621,-9.43486907344338,496.3438],[-140.09300696522877,-9.4463436828184086,0.0],[-140.11150061757252,-9.436578057818366,0.0],[-140.15880286366627,-9.3706600890684371,0.0],[-140.13963782460377,-9.3567440734434513,0.0],[-140.12163245351005,-9.3390438781308944,0.0],[-140.1017960277288,-9.3251278625058944,0.0],[-140.07689368397877,-9.3223202453184513,0.0],[-140.05406653554127,-9.345025323443366,0.0]],
[[-140.70799719960377,-8.03850676875588,298.3818],[-140.71788489491621,-8.0400936828184371,0.0],[-140.727345344135,-8.0269100890684228,0.0],[-140.72795569569752,-7.9902889953184228,0.0],[-140.70653235585382,-7.9619686828184228,0.0],[-140.6733292308538,-7.9489071593809228,0.0],[-140.63860022694752,-7.9585507140684371,0.0],[-140.65324866444749,-7.9695370421934513,193.7107],[-140.65843665272877,-7.97222258906838,357.645],[-140.67577063710377,-7.9755184875059228,259.399],[-140.68407141835377,-7.9840634093808944,438.3743],[-140.69261634022871,-8.0138485656309228,18.3626],[-140.6990860667913,-8.0278866515684371,185.5454],[-140.70799719960377,-8.03850676875588,298.3818]]]}}