{"type": "Feature","bbox": [-130.75308,-25.07708,-124.77807000000001,-23.92441],"geometry": {"type": "MultiPolygon","coordinates": [[[[-130.08625,-25.07513,0.0],[-130.09301,-25.06797,0.7222],[-130.10114,-25.06439,7.7236],[-130.11046,-25.06439,180.4811],[-130.12035,-25.06829,59.257],[-130.11368,-25.07383,72.8537],[-130.10534,-25.07676,95.6757],[-130.09594,-25.07708,0.0],[-130.08625,-25.07513,0.0]]],
[[[-124.78550999999999,-24.664,0.0],[-124.78653,-24.664,0.0],[-124.79711,-24.66709,0.0],[-124.78616,-24.66456,0.0],[-124.78539,-24.66448,0.0],[-124.78059000000002,-24.6666,0.0],[-124.77879999999999,-24.66872,0.0],[-124.77807000000001,-24.67254,0.0],[-124.77892,-24.66741,0.0],[-124.78059000000002,-24.66465,0.0],[-124.78550999999999,-24.664,0.0]]],
[[[-128.29015,-24.39837,0.0],[-128.29084,-24.36566,0.0],[-128.3037,-24.33465,27.8486],[-128.33019,-24.32431,0.0],[-128.35025,-24.34124,0.0],[-128.34219,-24.37176,27.5799],[-128.32067,-24.40065,27.5261],[-128.30012,-24.41367,29.0717],[-128.29015,-24.39837,0.0]]],
[[[-130.74136,-23.92441,2.1315],[-130.74527,-23.92441,0.0],[-130.74804,-23.92734,0.0],[-130.75084,-23.92718,0.0],[-130.75308,-23.92962,0.0],[-130.75084,-23.93467,0.0],[-130.74698,-23.93279,1.1188],[-130.7421,-23.92783,6.4271],[-130.74136,-23.92441,2.1315]]]]}
,"properties": {"ISO3166-1-Alpha-3": "PCN","country": "Pitcairn Islands","name": "Pitcairn Islands","area_km2": 42.51263,"hist_schema_id": "Elevation0-9000","hist_area_km2": {"0": 10.48817,"25": 29.21991,"50": 0.26954,"75": 0.26887,"100": 0.17284,"125": 0.17284,"150": 0.28807,"175": 0.4225,"200": 0.34568,"225": 0.32648,"250": 0.4033,"275": 0.09603,"300": 0.01921,"325": 0.01921}}}