{"type": "Feature","bbox": [-130.16362464101002,-25.128106378130923,-130.04686438710374,-25.011285089068423],"geometry": {"type": "Polygon","coordinates": [[[-130.04686438710374,-25.069756768755937,0.0],[-130.10521399647871,-25.011285089068423,0.0],[-130.16362464101002,-25.069756768755937,0.0],[-130.10521399647871,-25.128106378130923,0.0],[-130.04686438710374,-25.069756768755937,0.0]]]}
,"properties": {"featurecla": "Island","name": "Pitcairn I.","namealt": null,"region": "Oceania","subregion": "Polynesia","min_label": 4.7,"max_label": 11.0,"scalerank": 6,"area_km2": 76.39672,"hist_schema_id": "Elevation0-9000","hist_area_km2": {"0": 72.53655,"25": 0.32649,"50": 0.46092,"75": 0.42251,"100": 0.24967,"125": 0.28807,"150": 0.4033,"175": 0.4417,"200": 0.38409,"225": 0.32648,"250": 0.4225,"275": 0.09603,"300": 0.01921,"325": 0.01921}}}