{"type": "Feature","bbox": [-172.6550205913274,-9.53472258906838,-171.02361189992112,-8.3132870421934086],"geometry": {"type": "Polygon","coordinates": [[[-171.10399520070234,-9.5298397765684513,0.0],[-171.06316268117118,-9.5154354796934513,0.0],[-171.03697859913987,-9.4930966125059228,0.0],[-171.02416121632743,-9.464043878130866,0.0],[-171.02361189992112,-9.4297421203183944,0.0],[-171.0340489116399,-9.3914120421934086,0.0],[-171.05419051320243,-9.35076262813088,0.0],[-171.08293807179612,-9.3090145812559086,0.0],[-171.1190098491399,-9.26751067500588,0.0],[-171.16112410695234,-9.2277157531309513,0.0],[-171.20818221242115,-9.1910946593809513,0.0],[-171.25890242726487,-9.158868096880866,0.0],[-171.31206404835868,-9.1326229796934371,0.0],[-171.54228865773368,-9.04558684688088,0.0],[-171.66997420460865,-8.97759368281838,0.0],[-171.9360264507024,-8.8007138000059086,0.0],[-172.42388045460859,-8.3782284484434086,0.0],[-172.47081648976487,-8.3442929015684228,0.0],[-172.51256453663993,-8.3229305968809228,0.0],[-172.54912459523362,-8.3132870421934086,0.0],[-172.58031356007737,-8.3145077453183944,0.0],[-172.60625350148362,-8.3256161437559371,0.0],[-172.6267002788274,-8.3457577453184513,0.0],[-172.64171492726487,-8.3740780578184513,0.0],[-172.6511143413274,-8.40947844844338,0.0],[-172.6550205913274,-8.4512264953184371,0.0],[-172.6531895366399,-8.4983456359434513,0.0],[-172.64568221242118,-8.54985930781838,0.0],[-172.6131504741399,-8.6628964171933944,0.0],[-172.55705725819755,-8.7828915343809228,0.0],[-172.55705916554615,-8.7828915343809228,0.0],[-172.52953231007743,-8.82451751094338,0.0],[-172.44579207570243,-8.9172909484434513,0.0],[-172.1823643413274,-9.12407805781838,0.0],[-171.82842147023362,-9.3257382140684371,0.0],[-171.42864119679612,-9.48284270625588,0.0],[-171.2346104350774,-9.5287411437559086,0.0],[-171.16075789601487,-9.53472258906838,0.0],[-171.10399520070234,-9.5298397765684513,0.0]],
[[-172.4827784277276,-8.6293261266007022,0.0],[-172.5412510600774,-8.57085540156848,0.0],[-172.4827793803899,-8.5125057921934086,0.0],[-172.42442977101493,-8.57085540156848,0.0],[-172.4827784277276,-8.6293261266007022,0.0]],
[[-172.4827784277276,-8.6293261266007022,0.0],[-172.48277747304121,-8.6293270812558944,0.0],[-172.4827793803899,-8.6293270812558944,0.0],[-172.4827784277276,-8.6293261266007022,0.0]]]}
,"properties": {"featurecla": "Island group","name": "TOKELAU","namealt": null,"region": "Oceania","subregion": "Polynesia","min_label": 6.0,"max_label": 11.0,"scalerank": 6,"area_km2": 8443.613,"hist_schema_id": "Elevation0-9000","hist_area_km2": {"0": 8441.645,"25": 1.967}}}