{"type": "Feature","bbox": [-169.4778,-14.2382,-169.4234,-14.2119],"geometry": {"type": "MultiPolygon","coordinates": [[[[-169.4726,-14.2382,734.4651],[-169.4578,-14.2347,517.4736],[-169.4234,-14.2148,34.4904],[-169.4286,-14.2119,12.7812],[-169.4391,-14.2137,6.6743],[-169.4511,-14.2123,0.0],[-169.4778,-14.2151,11.1235],[-169.4726,-14.2382,734.4651]]]]}
,"properties": {"GID_3": "ASM.2.2.2_1","GID_0": "ASM","country": "AmericanSamoa","GID_1": "ASM.2_1","state": "Manu'a","NL_NAME_1": "NA","GID_2": "ASM.2.2_1","county": "Fitiuta","NL_NAME_2": "NA","city": "Maia","VARNAME_3": "NA","NL_NAME_3": "NA","TYPE_3": "Village","ENGTYPE_3": "Village","CC_3": "NA","HASC_3": "NA","name": "Maia.city","area_km2": 9.597943,"hist_schema_id": "Elevation0-9000","hist_area_km2": {"0": 0.349403,"25": 0.637146,"50": 0.226083,"75": 0.143871,"100": 0.184977,"125": 0.164423,"150": 0.123318,"175": 0.164423,"200": 0.184976,"225": 0.164423,"250": 0.287739,"275": 0.205527,"300": 0.349396,"325": 0.267185,"350": 0.349394,"375": 0.226079,"400": 0.205525,"425": 0.205525,"450": 0.205525,"475": 0.246629,"500": 0.102762,"525": 0.226075,"550": 0.123313,"575": 0.267178,"600": 0.12331399999999999,"625": 0.184968,"650": 0.246624,"675": 0.123313,"700": 0.123313,"725": 0.184968,"750": 0.246622,"775": 0.32883,"800": 0.369933,"825": 0.431588,"850": 0.493239,"875": 0.452135,"900": 0.349376,"925": 0.246619,"950": 0.082206}}}