{"type": "Feature","id": "4954","bbox": [-157.74214,-19.85589,-157.70722,-19.76719],"geometry": {"type": "Polygon","coordinates": [[[-157.708,-19.76719,0.0],[-157.71557,-19.77321,0.0],[-157.73754,-19.79656,0.0],[-157.74214,-19.80462,0.0],[-157.73961,-19.81845,0.0],[-157.73371,-19.82594,0.0],[-157.72688,-19.83229,0.0],[-157.72167,-19.84222,0.0],[-157.72167,-19.85589,0.4444],[-157.70824,-19.84124,7.0381],[-157.70722,-19.81585,0.0],[-157.70995,-19.78834,0.0],[-157.708,-19.76719,0.0]]]}
,"properties": {"ISO3166-1-Alpha-3": "COK","country": "Cook Islands","fill": "#F0F","name": "Mitiaro","area_km2": 20.02723,"hist_schema_id": "Elevation0-9000","hist_area_km2": {"0": 19.70814,"25": 0.31909}}}