{"type": "Feature","bbox": [-157.7244,-19.8983,-157.6781,-19.8384],"geometry": {"type": "MultiPolygon","coordinates": [[[[-157.7078,-19.8384,1.3097],[-157.7142,-19.8389,0.6189],[-157.7203,-19.8431,1.8028],[-157.7217,-19.8478,0.474],[-157.7214,-19.8603,0.7596],[-157.7244,-19.8697,0.2303],[-157.7239,-19.8778,0.0],[-157.7197,-19.8892,0.0],[-157.7106,-19.8983,0.0],[-157.683,-19.8858,0.0],[-157.6805,-19.8798,0.0],[-157.6781,-19.8614,0.0],[-157.68,-19.8514,8.3587],[-157.6842,-19.8467,3.1691],[-157.6913,-19.843,2.0517],[-157.7078,-19.8384,1.3097]]]]}
,"properties": {"GID_1": "COK.6_1","GID_0": "COK","country": "CookIslands","province": "Mitiaro","VARNAME_1": "NA","NL_NAME_1": "NA","TYPE_1": "IslandCouncil","ENGTYPE_1": "IslandCouncil","CC_1": "NA","HASC_1": "NA","ISO_1": "NA","name": "Mitiaro.province","area_km2": 24.56649,"hist_schema_id": "Elevation0-9000","hist_area_km2": {"0": 17.98625,"25": 6.58024}}}