{"type": "Feature","bbox": [-170.6914,-14.2964,-170.6768,-14.2863],"geometry": {"type": "MultiPolygon","coordinates": [[[[-170.6785,-14.2964,83.3375],[-170.6808,-14.2909,0.0],[-170.6768,-14.2864,26.7029],[-170.6873,-14.2863,102.5048],[-170.6914,-14.2922,132.7978],[-170.6785,-14.2964,83.3375]]]]}
,"properties": {"GID_3": "ASM.1.2.4_1","GID_0": "ASM","country": "AmericanSamoa","GID_1": "ASM.1_1","state": "Eastern","NL_NAME_1": "NA","GID_2": "ASM.1.2_1","county": "Ma'Oputasi","NL_NAME_2": "NA","city": "Faga'alu","VARNAME_3": "NA","NL_NAME_3": "NA","TYPE_3": "Village","ENGTYPE_3": "Village","CC_3": "NA","HASC_3": "NA","name": "Faga'alu.city","area_km2": 1.027307,"hist_schema_id": "Elevation0-9000","hist_area_km2": {"0": 0.2670996,"25": 0.184916,"50": 0.1232767,"75": 0.1438228,"100": 0.2260078,"125": 0.0616383,"150": 0.0205459}}}