{"type": "Feature","bbox": [-170.6328,-14.2748,-170.6197,-14.2624],"geometry": {"type": "MultiPolygon","coordinates": [[[[-170.6197,-14.27,6.977],[-170.6217,-14.2624,248.4268],[-170.6328,-14.2664,300.6354],[-170.6247,-14.2748,0.0],[-170.6197,-14.27,6.977]]]]}
,"properties": {"GID_3": "ASM.1.4.3_1","GID_0": "ASM","country": "AmericanSamoa","GID_1": "ASM.1_1","state": "Eastern","NL_NAME_1": "NA","GID_2": "ASM.1.4_1","county": "Sua","NL_NAME_2": "NA","city": "Amaua","VARNAME_3": "NA","NL_NAME_3": "NA","TYPE_3": "Village","ENGTYPE_3": "Village","CC_3": "NA","HASC_3": "NA","name": "Amaua.city","area_km2": 1.0685061,"hist_schema_id": "Elevation0-9000","hist_area_km2": {"0": 0.1027392,"25": 0.0616436,"50": 0.0410958,"75": 0.1027399,"100": 0.1232893,"125": 0.0616446,"150": 0.1027411,"175": 0.1027414,"200": 0.0616449,"225": 0.0616453,"250": 0.0616458,"275": 0.061645,"325": 0.1232902}}}