{"type": "Feature","bbox": [-172.3921,-13.6115,-172.3192,-13.4421],"geometry": {"type": "MultiPolygon","coordinates": [[[[-172.3192,-13.4497,4.0497],[-172.3335,-13.4421,0.0],[-172.336,-13.4439,0.0],[-172.3283,-13.4464,0.0],[-172.328,-13.4492,0.6993],[-172.3399,-13.4457,0.0],[-172.3422,-13.4592,34.7724],[-172.3567,-13.5119,206.1722],[-172.3651,-13.5259,347.806],[-172.3889,-13.5759,919.6248],[-172.3889,-13.5735,906.9927],[-172.3921,-13.6106,1104.2491],[-172.3907,-13.6115,1116.9618],[-172.3737,-13.576,817.9668],[-172.3615,-13.5461,519.0598],[-172.3508,-13.533,340.6287],[-172.3424,-13.5296,270.4457],[-172.3251,-13.4588,20.419],[-172.3192,-13.4497,4.0497]]]]}
,"properties": {"GID_2": "WSM.5.3_1","GID_0": "WSM","country": "Samoa","GID_1": "WSM.5_1","province": "Gaga'emauga","NL_NAME_1": "NA","county": "GagaemaugaII","VARNAME_2": "NA","NL_NAME_2": "NA","TYPE_2": "Unknown","ENGTYPE_2": "Unknown","CC_2": "NA","HASC_2": "NA","name": "Gagaemauga_I_I.county","area_km2": 31.02532,"hist_schema_id": "Elevation0-9000","hist_area_km2": {"0": 1.85586,"25": 1.42279,"50": 1.83513,"75": 1.69073,"100": 2.65969,"125": 2.22661,"150": 1.93792,"175": 0.74216,"200": 0.80399,"225": 0.90705,"250": 0.82458,"275": 0.5772,"300": 0.61843,"325": 0.53597,"350": 0.63903,"375": 0.51534,"400": 0.28859,"425": 0.24736,"450": 0.26797,"475": 0.35042,"500": 0.30919,"525": 0.39164,"550": 0.4947,"575": 0.47408,"600": 0.39163,"625": 0.3504,"650": 0.30917,"675": 0.39162,"700": 0.59773,"725": 0.68017,"750": 0.35038,"775": 0.26794,"800": 0.57709,"825": 0.35037,"850": 0.47403,"875": 0.51524,"900": 0.68011,"925": 0.41218,"950": 0.45339,"975": 0.41217,"1000": 0.30912,"1025": 0.22669,"1050": 0.10304,"1075": 0.2679,"1100": 0.26789,"1125": 0.02061}}}