{"type": "Feature","bbox": [-171.909,-14.0106,-171.7862,-13.9305],"geometry": {"type": "MultiPolygon","coordinates": [[[[-171.909,-13.951599999999999,172.8047],[-171.9075,-14.0061,5.1112],[-171.9027,-14.0055,0.0],[-171.9008,-14.0019,2.4015],[-171.8885,-14.0029,5.3209],[-171.8806,-13.9961,7.2862],[-171.87,-13.9906,2.2977],[-171.8631,-13.9894,2.3213],[-171.8592,-13.9847,0.0],[-171.8562,-13.9836,0.7655],[-171.851,-13.9896,0.0],[-171.8408,-13.9886,6.5101],[-171.8365,-13.9909,1.4235],[-171.8346,-13.9867,0.0],[-171.8329,-13.9867,0.0],[-171.8314,-13.9898,4.0075],[-171.8317,-13.995,1.849],[-171.8264,-14.0023,1.3235],[-171.8214,-14.0033,0.0],[-171.8208,-14.0047,4.7642],[-171.827,-14.0061,2.0035],[-171.8311,-14.0019,3.809],[-171.831,-13.9986,2.4903],[-171.8346,-13.9973,0.8783],[-171.8389,-13.9923,0.0],[-171.8401,-13.9938,6.6887],[-171.8276,-14.0085,1.4843],[-171.8114,-14.0081,0.0],[-171.804,-14.0106,1.5228],[-171.794,-14.0096,0.0],[-171.7934,-13.9946,68.0861],[-171.7896,-13.9826,158.2085],[-171.7865,-13.9602,295.7957],[-171.7862,-13.9471,590.5436],[-171.8567,-13.9369,468.337],[-171.8813,-13.9305,427.7158],[-171.909,-13.951599999999999,172.8047]]]]}
,"properties": {"GID_2": "WSM.9.4_1","GID_0": "WSM","country": "Samoa","GID_1": "WSM.9_1","province": "Tuamasaga","NL_NAME_1": "NA","county": "Safata","VARNAME_2": "NA","NL_NAME_2": "NA","TYPE_2": "Unknown","ENGTYPE_2": "Unknown","CC_2": "NA","HASC_2": "NA","name": "Safata.county","area_km2": 84.48154,"hist_schema_id": "Elevation0-9000","hist_area_km2": {"0": 7.75603,"25": 14.40141,"50": 10.90433,"75": 6.83079,"100": 5.10261,"125": 3.70357,"150": 3.76534,"175": 3.25099,"200": 2.81892,"225": 3.18933,"250": 3.23051,"275": 2.83959,"300": 2.5927,"325": 2.38695,"350": 2.03715,"375": 1.996,"400": 1.58446,"425": 1.23464,"450": 1.48157,"475": 1.15232,"500": 0.76135,"525": 0.65847,"550": 0.37039,"575": 0.22635,"600": 0.1852,"625": 0.02058}}}