{"type": "Feature","bbox": [-172.6944,-13.6306,-172.5402,-13.4919],"geometry": {"type": "MultiPolygon","coordinates": [[[[-172.5864,-13.4957,2.2466],[-172.5996,-13.4921,1.1557],[-172.6061,-13.4936,4.5153],[-172.6123,-13.4919,2.9756],[-172.6195,-13.4945,0.0],[-172.6269,-13.5016,11.3503],[-172.6337,-13.5021,0.0],[-172.6364,-13.5051,3.2122],[-172.6357,-13.5096,0.0],[-172.6322,-13.5109,1.7792],[-172.638,-13.5181,1.9144],[-172.648,-13.5175,3.0303],[-172.6546,-13.5122,0.9659],[-172.6562,-13.5084,1.3634],[-172.6615,-13.5053,0.0],[-172.6717,-13.5094,0.0],[-172.6802,-13.5177,23.1619],[-172.6802,-13.5226,59.2397],[-172.6765,-13.5318,140.5239],[-172.682,-13.5368,195.7416],[-172.6845,-13.5497,374.0373],[-172.6944,-13.5655,436.4858],[-172.668,-13.571,620.6155],[-172.5993,-13.6053,1144.2411],[-172.5927,-13.6043,1189.9503],[-172.5468,-13.6277,1519.8251],[-172.5448,-13.6258,1517.8281],[-172.5402,-13.6306,1542.0793],[-172.5459,-13.5616,585.4744],[-172.5543,-13.5366,201.5284],[-172.5697,-13.5378,158.4006],[-172.5757,-13.5425,210.7634],[-172.5864,-13.5366,140.4196],[-172.5864,-13.4957,2.2466]]]]}
,"properties": {"GID_2": "WSM.11.3_1","GID_0": "WSM","country": "Samoa","GID_1": "WSM.11_1","province": "Vaisigano","NL_NAME_1": "NA","county": "VaisiganoEast","VARNAME_2": "NA","NL_NAME_2": "NA","TYPE_2": "Unknown","ENGTYPE_2": "Unknown","CC_2": "NA","HASC_2": "NA","name": "Vaisigano_East.county","area_km2": 137.2107,"hist_schema_id": "Elevation0-9000","hist_area_km2": {"0": 3.8552,"25": 15.5647,"50": 5.4834,"75": 4.0816,"100": 3.1127,"125": 2.6179,"150": 2.5973,"175": 2.0613,"200": 2.4736,"225": 2.8652,"250": 2.7003,"275": 2.6178,"300": 2.5147,"325": 2.3704,"350": 2.1643,"375": 2.4116,"400": 2.3291,"425": 2.8032,"450": 3.2772,"475": 2.8238,"500": 2.6383,"525": 2.4527,"550": 2.4321,"575": 2.3497,"600": 2.4527,"625": 2.7206,"650": 2.4733,"675": 2.1847,"700": 1.8961,"725": 1.958,"750": 1.587,"775": 1.69,"800": 1.6488,"825": 1.5251,"850": 1.5869,"875": 1.5251,"900": 1.7106,"925": 1.8342,"950": 1.8754,"975": 2.0815,"1000": 2.2051,"1025": 1.9784,"1050": 1.4014,"1075": 1.4632,"1100": 1.5456,"1125": 1.5662,"1150": 1.1953,"1175": 1.2365,"1200": 1.4632,"1225": 1.1746,"1250": 1.5868,"1275": 1.2777,"1300": 1.0304,"1325": 1.1334,"1350": 1.2776,"1375": 0.9685,"1400": 0.783,"1425": 0.4533,"1450": 0.4739,"1475": 0.4121,"1500": 0.4739,"1525": 0.5151,"1550": 0.1648,"1575": 0.0824}}}