{"type": "Feature","bbox": [-170.6144,-14.2648,-170.604,-14.2536],"geometry": {"type": "MultiPolygon","coordinates": [[[[-170.604,-14.2648,190.985],[-170.6048,-14.2558,0.0],[-170.6117,-14.2536,0.0],[-170.6144,-14.2628,157.6878],[-170.604,-14.2648,190.985]]]]}
,"properties": {"GID_3": "ASM.1.4.9_1","GID_0": "ASM","country": "AmericanSamoa","GID_1": "ASM.1_1","state": "Eastern","NL_NAME_1": "NA","GID_2": "ASM.1.4_1","county": "Sua","NL_NAME_2": "NA","city": "Masausi","VARNAME_3": "NA","NL_NAME_3": "NA","TYPE_3": "Village","ENGTYPE_3": "Village","CC_3": "NA","HASC_3": "NA","name": "Masausi.city","area_km2": 0.9863509,"hist_schema_id": "Elevation0-9000","hist_area_km2": {"0": 0.2054926,"25": 0.1027454,"50": 0.123295,"75": 0.1232935,"100": 0.143842,"125": 0.1643898,"150": 0.1027438,"175": 0.0205487}}}