{"type": "Feature","bbox": [-171.794,-14.0453,-171.7389,-13.9266],"geometry": {"type": "MultiPolygon","coordinates": [[[[-171.7389,-13.9368,985.9166],[-171.7859,-13.9266,787.9698],[-171.7829,-13.9432,630.6027],[-171.7839,-13.9474,600.2058],[-171.7862,-13.9471,590.5436],[-171.7865,-13.9602,295.7957],[-171.7896,-13.9826,158.2085],[-171.7934,-13.9946,68.0861],[-171.794,-14.0096,0.0],[-171.788,-14.01,0.0],[-171.7838,-14.0139,0.0],[-171.7837,-14.012,0.7046],[-171.7805,-14.0131,2.4396],[-171.7794,-14.0166,0.0],[-171.7761,-14.0183,0.0],[-171.7732,-14.0286,0.0],[-171.7693,-14.0295,5.348],[-171.7658,-14.0324,1.0526],[-171.7699,-14.0369,6.626],[-171.7679,-14.0424,2.746],[-171.7618,-14.0449,0.0],[-171.7552,-14.0433,0.0],[-171.7481,-14.0453,0.0],[-171.7477,-14.0279,30.3206],[-171.7391,-13.9915,124.7646],[-171.7409,-13.9894,137.2981],[-171.7409,-13.9615,352.8868],[-171.7399,-13.9368,985.9166],[-171.7389,-13.9368,985.9166]]]]}
,"properties": {"GID_2": "WSM.9.7_1","GID_0": "WSM","country": "Samoa","GID_1": "WSM.9_1","province": "Tuamasaga","NL_NAME_1": "NA","county": "Siumu","VARNAME_2": "NA","NL_NAME_2": "NA","TYPE_2": "Unknown","ENGTYPE_2": "Unknown","CC_2": "NA","HASC_2": "NA","name": "Siumu.county","area_km2": 55.89954,"hist_schema_id": "Elevation0-9000","hist_area_km2": {"0": 1.43993,"25": 10.51148,"50": 3.9498,"75": 3.25044,"100": 2.22187,"125": 2.05732,"150": 1.60473,"175": 1.48131,"200": 1.48132,"225": 1.33732,"250": 1.23446,"275": 1.2139,"300": 1.33736,"325": 1.50198,"350": 1.19336,"375": 1.11107,"400": 0.98762,"425": 0.9259,"450": 0.94649,"475": 0.82304,"500": 0.74074,"525": 0.65843,"550": 0.74075,"575": 0.7819,"600": 0.88479,"625": 0.6996,"650": 0.84365,"675": 0.86423,"700": 0.96713,"725": 0.98772,"750": 0.98772,"775": 1.25525,"800": 0.88484,"825": 0.88485,"850": 0.53502,"875": 0.5556,"900": 0.57618,"925": 0.78196,"950": 0.30867,"975": 0.1852,"1000": 0.06173,"1025": 0.10289}}}