{"type":"Feature","properties":{"GID_2":"WLF.3.3_1","GID_0":"WLF","country":"WallisandFutuna","GID_1":"WLF.3_1","province":"Uvéa","NL_NAME_1":"NA","county":"Mua","VARNAME_2":"NA","NL_NAME_2":"NA","TYPE_2":"District","ENGTYPE_2":"District","CC_2":"NA","HASC_2":"WF.UV.MU","name":"Mua.county"},
"geometry":{"type": "MultiPolygon","coordinates": [[[[-176.2167,-13.3919,0.0],[-176.2125,-13.3889,0.4344],[-176.2131,-13.3861,0.0],[-176.2167,-13.3906,0.0],[-176.2167,-13.3919,0.0]]],
[[[-176.215,-13.3708,0.0],[-176.2197,-13.3653,1.0772],[-176.2214,-13.3658,0.0],[-176.2211,-13.3711,0.0],[-176.218,-13.3731,0.0],[-176.2206,-13.3794,0.0],[-176.2167,-13.3786,0.0],[-176.2117,-13.3808,1.514],[-176.2097,-13.3758,0.0],[-176.2122,-13.3756,9.4795],[-176.2133,-13.3717,0.0],[-176.215,-13.3708,0.0]]],
[[[-176.2231,-13.3639,0.0],[-176.2247,-13.3625,0.0],[-176.2261,-13.3633,9.2914],[-176.2247,-13.3653,0.0],[-176.2231,-13.3653,0.0],[-176.2231,-13.3639,0.0]]],
[[[-176.1703,-13.3672,0.0],[-176.1744,-13.3697,3.7831],[-176.1717,-13.3747,3.4695],[-176.1728,-13.3794,0.0],[-176.1697,-13.3811,3.0444],[-176.1725,-13.3867,5.1657],[-176.1714,-13.3892,1.1199],[-176.1678,-13.3842,1.2863],[-176.1703,-13.3672,0.0]]],
[[[-176.2133,-13.3583,3.5176],[-176.2117,-13.3586,0.0],[-176.2125,-13.3561,0.0],[-176.2136,-13.3575,0.0],[-176.2133,-13.3583,3.5176]]],
[[[-176.2326,-13.2928,38.2558],[-176.248,-13.2886,4.7239],[-176.2503,-13.2892,0.0],[-176.2511,-13.2911,0.0],[-176.2486,-13.3,2.4315],[-176.2508,-13.3067,3.9119],[-176.2464,-13.3144,23.1943],[-176.2414,-13.3144,2.8362],[-176.2397,-13.3158,1.6777],[-176.235,-13.3148,2.166],[-176.2355,-13.3178,3.6307],[-176.2319,-13.3228,0.0],[-176.23,-13.3217,0.0],[-176.2281,-13.3228,0.0],[-176.2256,-13.3203,1.0155],[-176.2247,-13.3211,1.0155],[-176.2269,-13.3267,0.0],[-176.22,-13.33,0.0],[-176.2169,-13.3383,5.8224],[-176.2192,-13.3483,0.0],[-176.2167,-13.3472,0.6134],[-176.215,-13.3503,0.0],[-176.2128,-13.3486,0.309],[-176.2064,-13.3531,0.0],[-176.2042,-13.3519,-0.1572],[-176.2036,-13.3489,-0.3713],[-176.1997,-13.3444,0.88],[-176.1972,-13.3433,1.09],[-176.1953,-13.3453,0.0],[-176.1914,-13.3453,0.0],[-176.1847,-13.3503,0.0],[-176.1758,-13.3453,6.5494],[-176.1753,-13.3414,38.8187],[-176.1803,-13.3375,0.0],[-176.1847,-13.3392,0.32],[-176.1867,-13.3375,0.0],[-176.1875,-13.3346,0.2199],[-176.1844,-13.3322,0.0],[-176.185,-13.3308,0.0],[-176.19,-13.3319,0.2967],[-176.1878,-13.3297,0.0],[-176.1892,-13.3283,-0.0492],[-176.1883,-13.3256,0.4116],[-176.1856,-13.3231,0.0677],[-176.1886,-13.3208,0.0],[-176.1886,-13.3189,0.0],[-176.1858,-13.3161,0.0],[-176.1867,-13.3147,0.0],[-176.1822,-13.3114,0.0],[-176.1864,-13.3075,0.0],[-176.1853,-13.3061,6.7131],[-176.1895,-13.3027,16.5742],[-176.1972,-13.3002,19.3381],[-176.2326,-13.2928,38.2558]]]]}}