{"type": "Feature","bbox": [-172.5864,-13.6315,-172.3715,-13.4459],"geometry": {"type": "MultiPolygon","coordinates": [[[[-172.4525,-13.6177,1649.1713],[-172.4262,-13.6135,1401.5371],[-172.3921,-13.6106,1104.2491],[-172.3896,-13.5816,963.415],[-172.39,-13.518,410.034],[-172.3884,-13.4808,187.535],[-172.3831,-13.4742,146.0448],[-172.3785,-13.475,145.0659],[-172.3715,-13.4485,1.2413],[-172.3778,-13.4462,0.0],[-172.3876,-13.4459,0.0],[-172.4058,-13.4509,0.0],[-172.4148,-13.4496,2.5652],[-172.4198,-13.465,8.8277],[-172.4247,-13.4681,0.0],[-172.4448,-13.4678,0.0],[-172.4483,-13.4692,1.2048],[-172.4542,-13.4662,0.0],[-172.4641,-13.4682,10.2596],[-172.4749,-13.4617,7.2792],[-172.482,-13.4615,2.1001],[-172.4878,-13.4671,0.0],[-172.4941,-13.4679,0.0],[-172.4991,-13.4721,2.3175],[-172.5065,-13.4729,0.0],[-172.5135,-13.4772,3.7792],[-172.5242,-13.4754,0.0],[-172.529,-13.4729,0.0],[-172.5439,-13.4752,1.6922],[-172.5533,-13.4811,0.0],[-172.5629,-13.4823,0.0],[-172.5783,-13.4885,0.0],[-172.5864,-13.4957,2.2466],[-172.5864,-13.5366,140.4196],[-172.5757,-13.5425,210.7634],[-172.5697,-13.5378,158.4006],[-172.5543,-13.5366,201.5284],[-172.5459,-13.5616,585.4744],[-172.5402,-13.6306,1542.0793],[-172.4871,-13.6315,1676.1079],[-172.4525,-13.6177,1649.1713]]]]}
,"properties": {"GID_1": "WSM.6_1","GID_0": "WSM","country": "Samoa","province": "Gagaifomauga","VARNAME_1": "NA","NL_NAME_1": "NA","TYPE_1": "Itumalo","ENGTYPE_1": "District","CC_1": "NA","HASC_1": "WS.GI","ISO_1": "NA","name": "Gagaifomauga.province","area_km2": 323.4173,"hist_schema_id": "Elevation0-9000","hist_area_km2": {"0": 5.4434,"25": 30.2049,"50": 18.4935,"75": 16.6377,"100": 13.6893,"125": 13.0089,"150": 11.38,"175": 8.308,"200": 8.2667,"225": 7.6275,"250": 6.9678,"275": 6.2874,"300": 6.2255,"325": 5.6276,"350": 4.8442,"375": 4.5968,"400": 4.2876,"425": 3.7103,"450": 3.3599,"475": 3.0919,"500": 2.8033,"525": 2.7621,"550": 2.9682,"575": 3.2773,"600": 3.0506,"625": 2.865,"650": 3.2154,"675": 3.3597,"700": 3.0505,"725": 2.9268,"750": 2.968,"775": 2.968,"800": 2.5557,"825": 2.4527,"850": 2.8443,"875": 2.4526,"900": 2.4526,"925": 2.7618,"950": 2.7205,"975": 3.6686,"1000": 4.1426,"1025": 3.1326,"1050": 2.5555,"1075": 2.7204,"1100": 2.6173,"1125": 2.4524,"1150": 2.7616,"1175": 2.1639,"1200": 2.3906,"1225": 2.1021,"1250": 1.999,"1275": 1.9578,"1300": 2.102,"1325": 2.0196,"1350": 2.0402,"1375": 2.0402,"1400": 1.9784,"1425": 2.0814,"1450": 1.999,"1475": 1.9371,"1500": 2.102,"1525": 2.1638,"1550": 2.7613,"1575": 3.4208,"1600": 3.0704,"1625": 3.6062,"1650": 4.2861,"1675": 3.297,"1700": 2.4109,"1725": 2.4109,"1750": 3.9358,"1775": 1.7515,"1800": 0.577,"1825": 0.2061,"1850": 0.0412}}}