{"type": "Feature","id": "4991","bbox": [-172.63899,-13.63687,-172.36616,-13.46282],"geometry": {"type": "Polygon","coordinates": [[[-172.41418,-13.63687,1416.3712],[-172.36616,-13.46282,53.1905],[-172.38923,-13.46697,142.8966],[-172.43147,-13.48089,83.134],[-172.45185,-13.48398,83.1154],[-172.53063,-13.48398,19.2173],[-172.54223,-13.48789,20.1987],[-172.5692,-13.5014,34.0263],[-172.58186,-13.50449,26.1546],[-172.60399,-13.50644,22.9053],[-172.61535,-13.50937,20.921],[-172.63899,-13.52207,26.4027],[-172.63181,-13.59987,997.1169],[-172.57875,-13.63265,1200.9821],[-172.41418,-13.63687,1416.3712]]]}
,"properties": {"ISO3166-1-Alpha-3": "WSM","country": "Samoa","fill": "#F0F","name": "Gaga'ifomauga","area_km2": 413.7139,"hist_schema_id": "Elevation0-9000","hist_area_km2": {"0": 0.1443,"25": 17.8946,"50": 15.3176,"75": 15.235,"100": 13.895,"125": 13.6889,"150": 12.8435,"175": 10.2252,"200": 10.8229,"225": 10.2661,"250": 9.5239,"275": 8.8848,"300": 8.2868,"325": 7.6477,"350": 6.8025,"375": 6.4726,"400": 5.9778,"425": 5.3799,"450": 5.1737,"475": 4.7202,"500": 4.3698,"525": 4.411,"550": 4.3079,"575": 4.7819,"600": 4.7201,"625": 4.5345,"650": 4.8643,"675": 4.8437,"700": 4.3902,"725": 4.452,"750": 4.3077,"775": 4.3489,"800": 3.813,"825": 3.5038,"850": 4.1427,"875": 3.6274,"900": 3.7098,"925": 4.0601,"950": 4.0189,"975": 5.1318,"1000": 6.3271,"1025": 5.4408,"1050": 4.7812,"1075": 4.4927,"1100": 4.6369,"1125": 4.5132,"1150": 4.1835,"1175": 3.524,"1200": 4.9665,"1225": 4.1215,"1250": 4.2864,"1275": 4.616,"1300": 4.513,"1325": 4.5542,"1350": 4.5336,"1375": 3.9154,"1400": 3.7711,"1425": 3.7505,"1450": 3.6886,"1475": 3.6062,"1500": 3.2147,"1525": 3.7092,"1550": 4.1625,"1575": 4.7601,"1600": 4.1831,"1625": 4.4304,"1650": 5.3988,"1675": 4.5952,"1700": 3.2558,"1725": 3.3794,"1750": 5.1103,"1775": 2.5757,"1800": 0.8448,"1825": 0.2885,"1850": 0.0412}}}