{"type":"Feature","properties":{"GID_2":"WSM.1.4_1","GID_0":"WSM","country":"Samoa","GID_1":"WSM.1_1","province":"A'ana","NL_NAME_1":"NA","county":"Falelatai&Samatau","VARNAME_2":"NA","NL_NAME_2":"NA","TYPE_2":"Unknown","ENGTYPE_2":"Unknown","CC_2":"NA","HASC_2":"NA","name":"Falelatai&Samatau.county"},
"geometry":{"type": "MultiPolygon","coordinates": [[[[-172.0109,-13.8709,218.0605],[-172.0188,-13.8757,186.2687],[-172.0168,-13.8797,170.7218],[-172.0214,-13.8855,125.3193],[-172.0216,-13.8884,107.6995],[-172.0245,-13.8896,77.1791],[-172.0289,-13.8868,61.828],[-172.032,-13.8932,59.4974],[-172.039,-13.8912,62.4492],[-172.0503,-13.8836,35.7573],[-172.0602,-13.894,6.8317],[-172.0652,-13.8898,8.5325],[-172.0664,-13.8933,0.45],[-172.0617,-13.8956,0.0],[-172.0544,-13.9033,0.0],[-172.045,-13.9072,0.0],[-172.0381,-13.9078,5.1377],[-172.0358,-13.9103,0.0],[-172.0286,-13.9133,0.0],[-172.0175,-13.9128,5.8483],[-172.01,-13.9147,0.0],[-172.0047,-13.918,2.5431],[-172.0047,-13.9197,4.5425],[-171.976,-13.9241,179.6488],[-171.9695,-13.9106,233.0047],[-171.9683,-13.9023,269.0247],[-171.9714,-13.8946,468.5241],[-171.9717,-13.8874,397.9464],[-171.9771,-13.8777,378.7242],[-171.9911,-13.8795,399.6237],[-172.0035,-13.8784,219.35059999999999],[-172.0038,-13.8729,221.4387],[-172.0109,-13.8709,218.0605]]]]}}