{"type": "Feature","bbox": [-175.1552,-21.2736,-175.0899,-21.1814],"geometry": {"type": "MultiPolygon","coordinates": [[[[-175.1289,-21.1814,1.8678],[-175.1258,-21.1864,0.0],[-175.1297,-21.1908,0.0],[-175.1328,-21.1889,1.3851],[-175.14,-21.1906,5.9508],[-175.1453,-21.1867,5.0205],[-175.1492,-21.1875,0.0],[-175.1492,-21.1928,0.0],[-175.1519,-21.1964,4.3995],[-175.1378,-21.2047,18.5526],[-175.1382,-21.2116,22.0237],[-175.1536,-21.2168,34.6822],[-175.1552,-21.22,27.2918],[-175.1439,-21.2293,25.5664],[-175.1524,-21.2669,1.0107],[-175.14,-21.2719,0.0],[-175.1278,-21.2736,0.0],[-175.1214,-21.2722,11.2894],[-175.1142,-21.2675,6.3438],[-175.1053,-21.2586,8.834],[-175.1011,-21.2519,1.1017],[-175.0986,-21.2364,20.3245],[-175.1058,-21.2153,12.9969],[-175.1027,-21.2086,5.2926],[-175.0899,-21.1949,0.0],[-175.1039,-21.1857,16.9535],[-175.1184,-21.1857,12.1103],[-175.1289,-21.1814,1.8678]]]]}
,"properties": {"GID_2": "TON.4.6_1","GID_0": "TON","country": "Tonga","GID_1": "TON.4_1","province": "Tongatapu","NL_NAME_1": "NA","county": "Tatakamotonga","VARNAME_2": "NA","NL_NAME_2": "NA","TYPE_2": "District","ENGTYPE_2": "District","CC_2": "NA","HASC_2": "NA","name": "Tatakamotonga.county","area_km2": 44.62622,"hist_schema_id": "Elevation0-9000","hist_area_km2": {"0": 2.70803,"25": 28.8567,"50": 10.7497,"75": 2.31179}}}