{"type":"Feature","properties":{"GID_2":"WSM.9.5_1","GID_0":"WSM","country":"Samoa","GID_1":"WSM.9_1","province":"Tuamasaga","NL_NAME_1":"NA","county":"SagagaleFalefa","VARNAME_2":"NA","NL_NAME_2":"NA","TYPE_2":"Unknown","ENGTYPE_2":"Unknown","CC_2":"NA","HASC_2":"NA","name":"Sagagale_Falefa.county"},
"geometry":{"type": "MultiPolygon","coordinates": [[[[-171.9065,-13.8881,543.4133],[-171.9054,-13.9054,549.3707],[-171.903,-13.9153,515.708],[-171.906,-13.9256,434.8929],[-171.8633,-13.9352,478.6865],[-171.8576,-13.9198,618.8251],[-171.8505,-13.9132,648.2945],[-171.8484,-13.9148,660.4286],[-171.8383,-13.8758,373.2369],[-171.8324,-13.8666,261.5219],[-171.8319,-13.8613,220.2489],[-171.8365,-13.8617,237.358],[-171.831,-13.8557,186.6375],[-171.8404,-13.8532,211.1532],[-171.8403,-13.8511,172.3597],[-171.8332,-13.8422,119.5563],[-171.8313,-13.8432,130.2835],[-171.8286,-13.8283,70.307],[-171.823,-13.8185,46.4711],[-171.824,-13.8166,42.8476],[-171.8221,-13.803,16.4516],[-171.8185,-13.8016,6.4148],[-171.8186,-13.8004,4.2845],[-171.8228,-13.7983,3.2519],[-171.8258,-13.7997,6.7568],[-171.8306,-13.7928,0.0],[-171.8333,-13.795,4.0097],[-171.8375,-13.7942,0.0],[-171.836,-13.799,12.5336],[-171.8373,-13.8208,45.2464],[-171.8389,-13.8245,50.2851],[-171.8424,-13.8234,55.9132],[-171.8472,-13.8363,96.9517],[-171.8513,-13.8363,108.1114],[-171.8519,-13.8428,149.2599],[-171.8472,-13.8437,125.35],[-171.8517,-13.8597,242.0622],[-171.8698,-13.8566,242.3197],[-171.8684,-13.8254,62.1699],[-171.87,-13.8226,54.0051],[-171.8774,-13.8175,53.7733],[-171.8782,-13.8002,15.4332],[-171.8763,-13.7967,0.0],[-171.8783,-13.7978,0.0],[-171.8828,-13.7967,3.2799],[-171.8895,-13.8022,1.5968],[-171.8994,-13.8011,0.568],[-171.9017,-13.7978,0.0],[-171.9055,-13.7992,0.0],[-171.9081,-13.7983,3.5443],[-171.9131,-13.8028,0.0],[-171.9189,-13.8044,0.0],[-171.9158,-13.8169,58.8409],[-171.9137,-13.819,65.9771],[-171.9106,-13.8356,141.1998],[-171.9029,-13.846,207.1082],[-171.9065,-13.8881,543.4133]]]]}}