{"type": "Feature","bbox": [-172.3469,-13.7001,-172.174,-13.5756],"geometry": {"type": "MultiPolygon","coordinates": [[[[-172.1979,-13.7001,1.3919],[-172.1986,-13.6979,0.5924],[-172.1934,-13.6922,3.7963],[-172.1929,-13.6893,0.8409],[-172.1792,-13.6784,1.0213],[-172.174,-13.6673,0.0],[-172.1771,-13.6654,1.66],[-172.189,-13.6661,28.9299],[-172.2115,-13.659,53.2256],[-172.2258,-13.6594,83.7035],[-172.2271,-13.6562,78.9302],[-172.2246,-13.6488,68.2138],[-172.224,-13.6384,79.7997],[-172.2419,-13.6389,154.2239],[-172.2421,-13.6273,160.1472],[-172.255,-13.6278,261.4211],[-172.2798,-13.5756,267.6129],[-172.2961,-13.583,347.6473],[-172.3237,-13.5909,577.9682],[-172.3265,-13.5989,638.8117],[-172.3469,-13.6215,911.2972],[-172.3411,-13.6268,925.551],[-172.3327,-13.6314,894.6245],[-172.3292,-13.6312,863.2338],[-172.2554,-13.6806,244.3968],[-172.2397,-13.6835,132.7482],[-172.2351,-13.6865,110.0703],[-172.2292,-13.6851,88.4702],[-172.2229,-13.6859,67.9998],[-172.1979,-13.7001,1.3919]]]]}
,"properties": {"GID_2": "WSM.4.2_1","GID_0": "WSM","country": "Samoa","GID_1": "WSM.4_1","province": "Fa'asaleleaga","NL_NAME_1": "NA","county": "FaasaleleagaII","VARNAME_2": "NA","NL_NAME_2": "NA","TYPE_2": "Unknown","ENGTYPE_2": "Unknown","CC_2": "NA","HASC_2": "NA","name": "Faasaleleaga_I_I.county","area_km2": 95.10956,"hist_schema_id": "Elevation0-9000","hist_area_km2": {"0": 1.85404,"25": 3.5433,"50": 4.40859,"75": 5.66544,"100": 4.0586,"125": 2.96673,"150": 2.06025,"175": 2.08087,"200": 2.47235,"225": 2.30753,"250": 2.06031,"275": 2.57559,"300": 3.83268,"325": 3.72966,"350": 3.23512,"375": 3.17332,"400": 2.88489,"425": 3.66789,"450": 2.96726,"475": 3.02907,"500": 3.09085,"525": 2.69933,"550": 2.78175,"575": 2.80237,"600": 2.6375,"625": 2.51387,"650": 1.81325,"675": 2.14297,"700": 2.10174,"725": 2.36959,"750": 1.77205,"775": 1.4424,"800": 1.0715,"825": 1.11269,"850": 0.47393,"875": 0.28848,"900": 0.47393,"925": 0.32969,"950": 0.39151,"975": 0.08242,"1000": 0.06182,"1025": 0.04121,"1050": 0.04121}}}