{"type":"Feature","properties":{"GID_1":"WSM.8_1","GID_0":"WSM","country":"Samoa","province":"Satupa'itea","VARNAME_1":"Satupaitea","NL_NAME_1":"NA","TYPE_1":"Itumalo","ENGTYPE_1":"District","CC_1":"NA","HASC_1":"WS.SA","ISO_1":"NA","name":"Satupa'itea.province"},
"geometry":{"type": "MultiPolygon","coordinates": [[[[-172.3229,-13.6637,810.9427],[-172.3602,-13.6419,948.58],[-172.3592,-13.6865,664.854],[-172.3618,-13.7043,412.6111],[-172.3615,-13.7292,196.9535],[-172.3566,-13.7304,188.1011],[-172.3573,-13.7546,25.558],[-172.356,-13.7574,22.0586],[-172.3527,-13.7571,22.5225],[-172.3504,-13.7773,8.0837],[-172.349,-13.7782,0.0],[-172.3313,-13.7786,0.0],[-172.3262,-13.7731,0.4995],[-172.3259,-13.767,1.2796],[-172.3206,-13.7601,2.4952],[-172.3235,-13.7281,204.8659],[-172.3229,-13.6637,810.9427]]],
[[[-172.6202,-13.6961,15.0635],[-172.5468,-13.6277,1519.8251],[-172.5927,-13.6043,1189.9503],[-172.5993,-13.6053,1144.2411],[-172.668,-13.571,620.6155],[-172.6722,-13.5701,614.9691],[-172.6911,-13.5889,388.2408],[-172.7119,-13.6062,2.3106],[-172.7041,-13.614,1.3021],[-172.695,-13.617,7.1064],[-172.6925,-13.6211,0.0],[-172.6887,-13.6183,8.9462],[-172.6841,-13.62,68.5751],[-172.683,-13.6231,0.0],[-172.679,-13.6267,0.0],[-172.6796,-13.6334,0.7234],[-172.6729,-13.6373,44.1052],[-172.6674,-13.6484,0.0116],[-172.6635,-13.6497,8.6955],[-172.6617,-13.6521,7.6656],[-172.6582,-13.6516,6.1367],[-172.6538,-13.6569,20.3909],[-172.6482,-13.6598,0.0],[-172.6461,-13.6679,8.4178],[-172.6338,-13.6821,0.0],[-172.6333,-13.6852,1.7761],[-172.6268,-13.6885,3.3112],[-172.6254,-13.6922,0.0],[-172.6202,-13.6961,15.0635]]]]}}