{"type":"Feature","properties":{"ISO3166-1-Alpha-3":"WSM","country":"Samoa","fill":"#F00","id":"4993","name":"Satupa'itea"},
"geometry":{"type": "MultiPolygon","coordinates": [[[[-172.31843,-13.77125,0.0],[-172.34745,-13.63858,895.3075],[-172.39102,-13.63746,1192.5886],[-172.35449,-13.78399,0.0],[-172.31843,-13.77125,0.0]]],
[[[-172.57875,-13.63265,1200.9821],[-172.63181,-13.59987,997.1169],[-172.65656,-13.58458,761.8828],[-172.70348,-13.61663,0.0],[-172.69335,-13.62412,0.0],[-172.66747,-13.63388,143.9021],[-172.65453,-13.64918,117.4079],[-172.63305,-13.6819,21.6105],[-172.62255,-13.68776,43.3952],[-172.60896,-13.69305,47.5663],[-172.57875,-13.63265,1200.9821]]]]}}