{"type": "Feature","bbox": [-170.6394,-14.2796,-170.6305,-14.2664],"geometry": {"type": "MultiPolygon","coordinates": [[[[-170.6359,-14.2792,44.374],[-170.6305,-14.2796,6.5195],[-170.6328,-14.2664,300.6354],[-170.6394,-14.2717,309.0547],[-170.6359,-14.2792,44.374]]]]}
,"properties": {"GID_3": "ASM.1.4.6_1","GID_0": "ASM","country": "AmericanSamoa","GID_1": "ASM.1_1","state": "Eastern","NL_NAME_1": "NA","GID_2": "ASM.1.4_1","county": "Sua","NL_NAME_2": "NA","city": "Avaio","VARNAME_3": "NA","NL_NAME_3": "NA","TYPE_3": "Village","ENGTYPE_3": "Village","CC_3": "NA","HASC_3": "NA","name": "Avaio.city","area_km2": 0.8219058,"hist_schema_id": "Elevation0-9000","hist_area_km2": {"50": 0.0205473,"75": 0.0205478,"100": 0.143832,"125": 0.0410957,"150": 0.0821897,"175": 0.0616427,"200": 0.0616437,"225": 0.1643814,"250": 0.1232871,"275": 0.082191,"300": 0.0205476}}}