{"type": "Feature","bbox": [-170.7019,-14.2931,-170.6839,-14.2731],"geometry": {"type": "MultiPolygon","coordinates": [[[[-170.6914,-14.2922,132.7978],[-170.6839,-14.278,1.3734],[-170.6904,-14.2739,0.0],[-170.6966,-14.2731,1.0348],[-170.6959,-14.2786,219.7044],[-170.6978,-14.287,215.9842],[-170.7019,-14.2931,549.8851],[-170.6914,-14.2922,132.7978]]]]}
,"properties": {"GID_3": "ASM.1.2.5_1","GID_0": "ASM","country": "AmericanSamoa","GID_1": "ASM.1_1","state": "Eastern","NL_NAME_1": "NA","GID_2": "ASM.1.2_1","county": "Ma'Oputasi","NL_NAME_2": "NA","city": "Fagatogo","VARNAME_3": "NA","NL_NAME_3": "NA","TYPE_3": "Village","ENGTYPE_3": "Village","CC_3": "NA","HASC_3": "NA","name": "Fagatogo.city","area_km2": 2.280697,"hist_schema_id": "Elevation0-9000","hist_area_km2": {"0": 0.431496,"25": 0.102737,"50": 0.205469,"75": 0.123283,"100": 0.123281,"125": 0.164375,"150": 0.184918,"175": 0.18492,"200": 0.184919,"225": 0.226013,"250": 0.143826,"275": 0.020546,"300": 0.041092,"325": 0.041092,"350": 0.041092,"375": 0.020546,"400": 0.020546,"425": 0.020546}}}