{"type": "Feature","id": "4952","bbox": [-157.9687,-21.9389,-157.88707,-21.87754],"geometry": {"type": "Polygon","coordinates": [[[-157.93456,-21.87754,0.0],[-157.94445,-21.88047,0.0],[-157.95515,-21.88885,0.0],[-157.96406,-21.90049,0.0],[-157.9687,-21.91229,0.0],[-157.96105,-21.92392,0.0],[-157.95287,-21.93231,65.8239],[-157.94245,-21.93719,106.422],[-157.92772,-21.9389,116.2514],[-157.91511,-21.93768,94.0764],[-157.89851,-21.93369,110.4601],[-157.88707,-21.92636,50.813],[-157.88988,-21.9153,0.0],[-157.91035,-21.8917,14.7696],[-157.92134,-21.88226,0.0],[-157.93456,-21.87754,0.0]]]}
,"properties": {"ISO3166-1-Alpha-3": "COK","country": "Cook Islands","fill": "#F0F","name": "Mangaia","area_km2": 38.75114,"hist_schema_id": "Elevation0-9000","hist_area_km2": {"0": 11.8625,"25": 4.42589,"50": 10.169739999999999,"75": 3.77654,"100": 3.30434,"125": 2.53723,"150": 1.84882,"175": 0.82607}}}