{"type": "Feature","bbox": [-157.9614,-21.9591,-157.8747,-21.8911],"geometry": {"type": "MultiPolygon","coordinates": [[[[-157.9111,-21.8911,0.0],[-157.9272,-21.8925,0.0],[-157.9439,-21.898,4.3111],[-157.9483,-21.9008,1.9002],[-157.9514,-21.9056,0.0],[-157.9611,-21.9325,0.0],[-157.9614,-21.9366,4.95],[-157.9592,-21.9425,32.839],[-157.9559,-21.9468,0.0],[-157.9335,-21.9591,5.9599],[-157.8994,-21.9544,20.9639],[-157.8883,-21.9558,19.8447],[-157.8853,-21.9578,5.0718],[-157.8791,-21.9558,1.8055],[-157.8747,-21.9497,0.0],[-157.8753,-21.9339,12.6248],[-157.8961,-21.9119,14.37],[-157.9053,-21.8956,0.0],[-157.9094,-21.8911,0.0],[-157.9111,-21.8911,0.0]]]]}
,"properties": {"GID_1": "COK.3_1","GID_0": "COK","country": "CookIslands","province": "Mangaia","VARNAME_1": "NA","NL_NAME_1": "NA","TYPE_1": "IslandCouncil","ENGTYPE_1": "IslandCouncil","CC_1": "NA","HASC_1": "NA","ISO_1": "NA","name": "Mangaia.province","area_km2": 48.62,"hist_schema_id": "Elevation0-9000","hist_area_km2": {"0": 2.7142,"25": 9.16538,"50": 20.61243,"75": 5.9202,"100": 4.30733,"125": 3.16656,"150": 1.90783,"175": 0.82607}}}