{"type":"Feature","properties":{"GID_2":"WSM.9.6_1","GID_0":"WSM","country":"Samoa","GID_1":"WSM.9_1","province":"Tuamasaga","NL_NAME_1":"NA","county":"SagagaLeUsoga","VARNAME_2":"NA","NL_NAME_2":"NA","TYPE_2":"Unknown","ENGTYPE_2":"Unknown","CC_2":"NA","HASC_2":"NA","name":"Sagaga_Le_Usoga.county"},
"geometry":{"type": "MultiPolygon","coordinates": [[[[-171.8665,-13.8575,235.9764],[-171.8517,-13.8597,242.0622],[-171.8472,-13.8437,125.35],[-171.8519,-13.8428,149.2599],[-171.8513,-13.8363,108.1114],[-171.8472,-13.8363,96.9517],[-171.8424,-13.8234,55.9132],[-171.8389,-13.8245,50.2851],[-171.8373,-13.8208,45.2464],[-171.836,-13.799,12.5336],[-171.8379,-13.7955,3.7671],[-171.8406,-13.798,5.8741],[-171.8431,-13.7967,1.7029],[-171.8443,-13.7983,2.7917],[-171.85,-13.7992,0.0],[-171.8506,-13.7955,0.0],[-171.8536,-13.7952,1.1125],[-171.8551,-13.7983,4.4],[-171.8597,-13.7998,4.8896],[-171.8606,-13.7976,0.0],[-171.8636,-13.7967,2.8314],[-171.864,-13.7999,9.4149],[-171.8672,-13.7996,11.1124],[-171.8687,-13.8016,17.0904],[-171.867,-13.806,23.394],[-171.8676,-13.8119,19.8241],[-171.866,-13.8156,21.1493],[-171.8633,-13.8173,35.7488],[-171.8627,-13.8289,65.255],[-171.8647,-13.8466,171.1761],[-171.863,-13.8488,176.3953],[-171.8665,-13.8575,235.9764]]]]}}