{"type": "Feature","bbox": [-178.1825,-14.3282,-178.1344,-14.2389],"geometry": {"type": "MultiPolygon","coordinates": [[[[-178.1599,-14.2461,0.0],[-178.1628,-14.2467,0.0],[-178.1714,-14.24,0.0],[-178.1758,-14.2389,0.0],[-178.1797,-14.2431,0.9127],[-178.1825,-14.255,1.4907],[-178.1792,-14.2572,3.1595],[-178.1783,-14.2633,0.0],[-178.1703,-14.28,5.6531],[-178.1703,-14.2836,7.8081],[-178.1681,-14.2867,8.6664],[-178.1708,-14.2894,0.0],[-178.1644,-14.2958,0.0],[-178.1597,-14.2931,0.2923],[-178.1614,-14.2972,0.0],[-178.1583,-14.3036,0.0],[-178.1489,-14.3072,0.2953],[-178.1594,-14.3187,0.0],[-178.1495,-14.3282,0.0],[-178.1408,-14.3102,1.6164],[-178.1392,-14.3114,0.0],[-178.1391,-14.3041,110.2712],[-178.1363,-14.299,173.0108],[-178.1344,-14.2854,195.1488],[-178.1387,-14.2771,403.4998],[-178.1555,-14.2615,270.207],[-178.1591,-14.2555,207.001],[-178.1599,-14.2461,0.0]]]]}
,"properties": {"GID_1": "WLF.2_1","GID_0": "WLF","country": "WallisandFutuna","province": "Singave","VARNAME_1": "Sigave","NL_NAME_1": "NA","TYPE_1": "Kingdom","ENGTYPE_1": "Kingdom","CC_1": "NA","HASC_1": "WF.SI","ISO_1": "NA","name": "Singave.province","area_km2": 22.86892,"hist_schema_id": "Elevation0-9000","hist_area_km2": {"0": 5.79403,"25": 1.10958,"50": 0.67808,"75": 0.94516,"100": 1.37664,"125": 1.45886,"150": 1.43831,"175": 1.66432,"200": 1.29447,"225": 1.27394,"250": 0.98628,"275": 0.82191,"300": 0.76026,"325": 0.63698,"350": 0.63697,"375": 0.76026,"400": 0.63698,"425": 0.4726,"450": 0.12329}}}