{"type": "Feature","id": "4995","bbox": [-178.18574,-14.31315,-178.12655,-14.2326],"geometry": {"type": "Polygon","coordinates": [[[-178.14232,-14.24358,0.0],[-178.17805,-14.2326,0.0],[-178.18574,-14.24822,0.0],[-178.17524,-14.27703,0.0],[-178.15661,-14.30511,0.0],[-178.14692,-14.31015,0.0],[-178.12655,-14.31315,0.0],[-178.12994,-14.30188,116.2373],[-178.13709,-14.28902,251.7061],[-178.13494,-14.27401,372.0145],[-178.13077,-14.25555,0.0],[-178.14232,-14.24358,0.0]]]}
,"properties": {"ISO3166-1-Alpha-3": "WLF","country": "Wallis and Futuna","fill": "#FF0","name": "Sigave","area_km2": 33.88361,"hist_schema_id": "Elevation0-9000","hist_area_km2": {"0": 11.05535,"25": 1.56163,"50": 1.15067,"75": 1.31502,"100": 2.01358,"125": 1.86981,"150": 1.80817,"175": 2.07528,"200": 1.49995,"225": 1.43833,"250": 1.15067,"275": 1.04793,"300": 0.9452,"325": 0.88356,"350": 0.73971,"375": 0.80136,"400": 0.76027,"425": 0.73972,"450": 0.5548,"475": 0.32877,"500": 0.12329,"525": 0.02055}}}