{"type":"Feature","properties":{"GID_2":"ASM.4.2_1","GID_0":"ASM","country":"AmericanSamoa","GID_1":"ASM.4_1","state":"Western","NL_NAME_1":"NA","county":"Leasina","VARNAME_2":"NA","NL_NAME_2":"NA","TYPE_2":"County","ENGTYPE_2":"County","CC_2":"NA","HASC_2":"AS.WT.LS","name":"Leasina.county"},
"geometry":{"type": "MultiPolygon","coordinates": [[[[-170.7778,-14.3294,179.3912],[-170.7763,-14.3413,35.8924],[-170.76,-14.3393,127.7144],[-170.7592,-14.3319,165.0011],[-170.7619,-14.3273,229.721],[-170.762,-14.3185,288.85],[-170.748,-14.3126,283.7646],[-170.7448,-14.3188,193.9691],[-170.744,-14.3247,50.9232],[-170.7366,-14.3243,37.7111],[-170.7321,-14.3207,40.0563],[-170.7276,-14.3049,212.5959],[-170.7316,-14.2974,326.699],[-170.7403,-14.2902,0.0],[-170.7531,-14.2937,0.0],[-170.7644,-14.2883,7.3044],[-170.7799,-14.2932,0.0],[-170.7845,-14.2882,47.3062],[-170.7898,-14.2904,8.9265],[-170.7921,-14.294,138.6147],[-170.7904,-14.3111,387.4443],[-170.7838,-14.3144,382.9616],[-170.7729,-14.3144,397.2588],[-170.7667,-14.3167,445.3689],[-170.7778,-14.3294,179.3912]]]]}}