{"type": "Feature","bbox": [-170.7222,-14.2972,-170.687,-14.2517],"geometry": {"type": "MultiPolygon","coordinates": [[[[-170.7019,-14.2931,549.8851],[-170.6978,-14.287,215.9842],[-170.6959,-14.2786,219.7044],[-170.6966,-14.2731,1.0348],[-170.6927,-14.2651,423.4364],[-170.687,-14.2647,429.2059],[-170.6904,-14.252,0.0],[-170.6957,-14.2517,0.0],[-170.7017,-14.2552,5.7328],[-170.7047,-14.2604,0.0],[-170.7103,-14.2607,0.0],[-170.7222,-14.274,0.0],[-170.7141,-14.2787,310.4827],[-170.7106,-14.2847,156.4449],[-170.7185,-14.2972,425.9694],[-170.7019,-14.2931,549.8851]]]]}
,"properties": {"GID_3": "ASM.1.2.8_1","GID_0": "ASM","country": "AmericanSamoa","GID_1": "ASM.1_1","state": "Eastern","NL_NAME_1": "NA","GID_2": "ASM.1.2_1","county": "Ma'Oputasi","NL_NAME_2": "NA","city": "PagoPago","VARNAME_3": "NA","NL_NAME_3": "NA","TYPE_3": "Village","ENGTYPE_3": "Village","CC_3": "NA","HASC_3": "NA","name": "PagoPago.city","area_km2": 9.184832,"hist_schema_id": "Elevation0-9000","hist_area_km2": {"0": 0.719188,"25": 0.534246,"50": 0.657533,"75": 0.698624,"100": 0.616437,"125": 0.554795,"150": 0.513692,"175": 0.493153,"200": 0.575345,"225": 0.657536,"250": 0.513697,"275": 0.410954,"300": 0.410955,"325": 0.45204,"350": 0.493128,"375": 0.287658,"400": 0.267108,"425": 0.143824,"450": 0.143827,"500": 0.041092}}}