{"type": "Feature","bbox": [-175.2724,-21.2669,-175.1378,-21.1562],"geometry": {"type": "MultiPolygon","coordinates": [[[[-175.2557,-21.1562,15.5954],[-175.2629,-21.1566,13.0882],[-175.2716,-21.1667,8.9695],[-175.2724,-21.1724,12.1666],[-175.2627,-21.1873,24.4208],[-175.2616,-21.199,2.7033],[-175.2554,-21.1991,1.565],[-175.2242,-21.2069,0.0],[-175.2008,-21.2183,11.6109],[-175.1947,-21.2228,4.4106],[-175.195,-21.2264,0.0],[-175.192,-21.2285,0.0],[-175.1911,-21.2333,28.9892],[-175.1806,-21.2511,23.0006],[-175.1736,-21.2567,0.0],[-175.1524,-21.2669,1.0107],[-175.1439,-21.2293,25.5664],[-175.1552,-21.22,27.2918],[-175.1536,-21.2168,34.6822],[-175.1382,-21.2116,22.0237],[-175.1378,-21.2047,18.5526],[-175.1531,-21.1961,0.0],[-175.156,-21.1922,0.0],[-175.1589,-21.1931,0.0],[-175.1611,-21.1975,0.0],[-175.1703,-21.1961,0.0],[-175.1722,-21.1864,0.0],[-175.1711,-21.1839,0.7206],[-175.1658,-21.1808,4.8957],[-175.1586,-21.1803,2.3262],[-175.1539,-21.1833,0.0],[-175.1447,-21.18,0.0],[-175.1378,-21.1725,1.6116],[-175.1381,-21.1706,0.0],[-175.1417,-21.1672,0.0],[-175.1556,-21.1674,1.1516],[-175.1578,-21.1639,1.2831],[-175.1685,-21.162,2.3435],[-175.172,-21.1594,0.0],[-175.1811,-21.1653,1.697],[-175.1861,-21.1658,0.0],[-175.1906,-21.1631,1.2614],[-175.1919,-21.1586,7.1926],[-175.1953,-21.1564,1.8653],[-175.1989,-21.1592,3.5246],[-175.2006,-21.1675,2.1644],[-175.2047,-21.1703,2.3143],[-175.2036,-21.1733,0.0],[-175.1975,-21.1778,1.6382],[-175.1975,-21.1797,0.0],[-175.1997,-21.1819,2.4529],[-175.2067,-21.1828,0.0],[-175.2253,-21.1775,0.0],[-175.2306,-21.1739,1.8443],[-175.2322,-21.1703,0.0],[-175.2287,-21.1643,4.0752],[-175.246,-21.1575,23.9308],[-175.2557,-21.1562,15.5954]]],
[[[-175.1397,-21.1819,0.0],[-175.1397,-21.1792,0.0],[-175.1428,-21.1797,0.7525],[-175.1422,-21.1817,0.0],[-175.1397,-21.1819,0.0]]]]}
,"properties": {"GID_2": "TON.4.7_1","GID_0": "TON","country": "Tonga","GID_1": "TON.4_1","province": "Tongatapu","NL_NAME_1": "NA","county": "Vaini","VARNAME_2": "NA","NL_NAME_2": "NA","TYPE_2": "District","ENGTYPE_2": "District","CC_2": "NA","HASC_2": "NA","name": "Vaini.county","area_km2": 79.74139,"hist_schema_id": "Elevation0-9000","hist_area_km2": {"0": 22.63664,"25": 50.36616,"50": 6.73859}}}