{"type": "Feature","bbox": [-170.8292,-14.3302,-170.8241,-14.3218],"geometry": {"type": "MultiPolygon","coordinates": [[[[-170.8257,-14.3218,112.0756],[-170.8292,-14.3292,0.0],[-170.8241,-14.3302,7.0043],[-170.8257,-14.3218,112.0756]]]]}
,"properties": {"GID_3": "ASM.4.1.8_1","GID_0": "ASM","country": "AmericanSamoa","GID_1": "ASM.4_1","state": "Western","NL_NAME_1": "NA","GID_2": "ASM.4.1_2","county": "Lealataua","NL_NAME_2": "NA","city": "Failolo","VARNAME_3": "NA","NL_NAME_3": "NA","TYPE_3": "Village","ENGTYPE_3": "Village","CC_3": "NA","HASC_3": "NA","name": "Failolo.city","area_km2": 0.267057,"hist_schema_id": "Elevation0-9000","hist_area_km2": {"0": 0.0410852,"25": 0.0410854,"50": 0.0205428,"75": 0.0205428,"100": 0.0821719,"125": 0.061629}}}