{"type":"Feature","properties":{"ISO3166-1-Alpha-3":"PYF","country":"French Polynesia","fill":"#F0F","id":"4965","name":"Tuamotu-Gambier"},
"geometry":{"type": "MultiPolygon","coordinates": [[[[-134.95055,-23.09694,74.4135],[-134.94298,-23.08359,80.6672],[-134.96548,-23.09051,0.0],[-134.99795,-23.11631,-0.0064],[-135.01936,-23.11761,0.0],[-135.01936,-23.1251,0.0],[-135.00455,-23.13388,0.0],[-134.99523,-23.13714,0.0],[-134.98453,-23.13877,0.0],[-134.95055,-23.09694,74.4135]]],
[[[-136.17569,-22.02988,0.0],[-136.16576,-22.02435,0.0],[-136.16389,-22.01637,0.0],[-136.16356,-22.0136,0.0],[-136.18586,-22.03444,7.0033],[-136.17569,-22.02988,0.0]]],
[[[-138.8496,-21.87127,0.0],[-138.87096,-21.87038,0.0],[-138.89159,-21.8659,0.0],[-138.91185,-21.86395,0.0],[-138.9322,-21.87127,0.0],[-138.8496,-21.87127,0.0]]],
[[[-140.60367,-21.7068,0.0],[-140.63419,-21.66082,0.0],[-140.65319,-21.64707,0.514],[-140.67195,-21.65895,0.0],[-140.67577,-21.6889,0.0],[-140.65827,-21.71266,0.0],[-140.63052,-21.72161,0.0],[-140.60367,-21.7068,0.0]]],
[[[-135.46935,-21.50945,0.0],[-135.48493,-21.49684,0.0],[-135.50377,-21.48952,0.0],[-135.52579,-21.48707,0.0],[-135.45751,-21.52801,6.9296],[-135.46935,-21.50945,0.0]]],
[[[-136.37987,-21.45908,7.1294],[-136.39147,-21.45615,0.0],[-136.40494,-21.46022,0.0],[-136.4134,-21.47137,0.0],[-136.40502,-21.46543,0.0],[-136.39582,-21.46282,0.0],[-136.38634,-21.46364,0.0],[-136.37719,-21.46836,1.3048],[-136.37987,-21.45908,7.1294]]],
[[[-136.52945,-21.34987,2.0219],[-136.52571,-21.33807,5.036],[-136.53222,-21.33131,0.5951],[-136.54939,-21.33685,0.0],[-136.54239,-21.3388,0.0],[-136.53572,-21.34238,0.0],[-136.53425,-21.34889,0.0],[-136.54312,-21.3598,3.9388],[-136.52945,-21.34987,2.0219]]],
[[[-136.63793,-21.3331,0.0],[-136.63988,-21.32643,0.0],[-136.64391,-21.32285,0.0],[-136.6516,-21.32293,0.0],[-136.6468,-21.32724,0.0],[-136.63622,-21.34157,0.0],[-136.63793,-21.3331,0.0]]],
[[[-136.74022,-21.32,0.0],[-136.73876,-21.31715,0.0],[-136.74096,-21.31699,0.0],[-136.74478,-21.31585,3.1601],[-136.74694,-21.31618,0.0922],[-136.74234,-21.32008,0.0],[-136.74022,-21.32,0.0]]],
[[[-136.73864,-21.29949,5.7714],[-136.74596,-21.29949,0.0],[-136.75219,-21.30853,0.2461],[-136.74576,-21.3034,0.0],[-136.74226,-21.30446,0.0],[-136.73917,-21.30853,0.0],[-136.73436,-21.31211,0.1344],[-136.73282,-21.3139,0.0],[-136.73217,-21.31569,0.0],[-136.73127,-21.31732,0.0],[-136.72912,-21.31805,0.0],[-136.73233,-21.30625,0.0],[-136.73864,-21.29949,5.7714]]],
[[[-139.14452,-20.80438,0.0],[-139.14147,-20.80316,0.0],[-139.13537,-20.79974,0.0],[-139.13581,-20.79974,0.0],[-139.14786,-20.80495,0.0],[-139.14452,-20.80438,0.0]]],
[[[-138.54263,-20.78037,0.0],[-138.5489,-20.77996,0.0],[-138.55435,-20.78094,0.0],[-138.56428,-20.78484,0.0],[-138.56843,-20.78818,4.4648],[-138.55012,-20.78257,0.0],[-138.54467,-20.78468,0.0],[-138.54072,-20.78973,0.0],[-138.51732,-20.84922,0.0],[-138.51944,-20.86094,0.0],[-138.5349,-20.87689,0.0],[-138.51285,-20.85768,0.0],[-138.51976,-20.81455,0.0],[-138.54263,-20.78037,0.0]]],
[[[-140.39928,-19.66172,0.0],[-140.38736,-19.657,0.0],[-140.37906,-19.64861,0.0],[-140.37702,-19.63633,0.0],[-140.38317,-19.62542,0.0],[-140.39517,-19.61541,0.0],[-140.40738,-19.61012,4.4033],[-140.41397,-19.61419,0.0],[-140.3898,-19.62884,3.6255],[-140.38663,-19.64031,0.0],[-140.39684,-19.65106,0.0],[-140.41242,-19.66383,0.0],[-140.39928,-19.66172,0.0]]],
[[[-139.19591,-19.34979,0.0],[-139.19591,-19.34092,6.0397],[-139.20295,-19.33489,0.0],[-139.21483,-19.33457,0.0],[-139.20767,-19.33733,0.0],[-139.20507,-19.34149,0.0],[-139.20409,-19.34612,0.0],[-139.20226,-19.35068,0.0],[-139.20519,-19.35914,2.0541],[-139.19591,-19.34979,0.0]]],
[[[-138.79174,-19.28387,0.0],[-138.79459,-19.28167,6.2557],[-138.8024,-19.282,9.417],[-138.81212,-19.28379,0.0],[-138.8094,-19.28729,0.0],[-138.80598,-19.28883,0.0],[-138.79674,-19.2903,0.0],[-138.79174,-19.28387,0.0]]],
[[[-141.23717,-19.19362,0.0],[-141.25235,-19.18971,0.0],[-141.26618,-19.20355,0.0],[-141.25475,-19.1994,0.0],[-141.24279,-19.20224,0.0],[-141.23371,-19.21168,0.0],[-141.23038,-19.22715,0.0],[-141.22753,-19.20843,6.534],[-141.23717,-19.19362,0.0]]],
[[[-140.6962,-19.11932,8.0366],[-140.72183,-19.13372,0.0],[-140.70397,-19.12933,0.0],[-140.68139,-19.13226,0.0],[-140.67003,-19.14275,0.0],[-140.68586,-19.16155,0.0],[-140.66088,-19.15244,0.0],[-140.67016,-19.13177,0.0],[-140.6962,-19.11932,8.0366]]],
[[[-138.79332,-18.77402,1.1718],[-138.79524,-18.77093,0.0],[-138.80158,-18.76523,0.0],[-138.81574,-18.76141,6.1882],[-138.82287,-18.76035,0.0],[-138.82974,-18.75994,0.0],[-138.7932,-18.7789,0.0],[-138.79332,-18.77402,1.1718]]],
[[[-136.45873,-18.46429,6.2978],[-136.47859,-18.47186,0.0],[-136.47289,-18.4743,0.0],[-136.46996,-18.4778,0.0],[-136.46776,-18.48187,0.0],[-136.46426,-18.48602,0.0],[-136.4652,-18.48211,0.0],[-136.46544,-18.4743,4.1323],[-136.46125,-18.46868,7.8026],[-136.44888,-18.47186,0.0],[-136.40266,-18.49668,0.0],[-136.39428,-18.50408,0.0],[-136.38903,-18.51019,0.0],[-136.38296,-18.51474,0.0],[-136.37389,-18.51865,0.0],[-136.34366,-18.52744,0.0],[-136.33129,-18.53265,0.0],[-136.32213,-18.53875,0.0],[-136.31607,-18.54632,0.0],[-136.3131,-18.55429,0.0],[-136.31273,-18.56097,0.0],[-136.31355,-18.56561,0.0],[-136.31408,-18.56732,0.0],[-136.30476,-18.54567,0.0],[-136.33043,-18.5276,0.51],[-136.38239,-18.50994,0.0],[-136.39582,-18.49424,0.0],[-136.42614,-18.47536,3.1781],[-136.45873,-18.46429,6.2978]]],
[[[-140.67862,-18.40301,2.9455],[-140.68708,-18.39056,0.0],[-140.75617,-18.35369,0.0],[-140.78181,-18.33522,0.0],[-140.77929,-18.33953,0.0],[-140.77009,-18.35027,5.9308],[-140.75206,-18.36395,0.0],[-140.69514,-18.39039,0.0],[-140.68098,-18.40228,5.4116],[-140.67483,-18.41375,0.0],[-140.67195,-18.41717,7.3109],[-140.67862,-18.40301,2.9455]]],
[[[-136.98278,-18.33587,0.0],[-137.01024,-18.30438,0.0],[-137.04235,-18.2776,2.6051],[-137.06762,-18.26629,5.3425],[-136.97142,-18.36191,0.8358],[-136.98278,-18.33587,0.0]]],
[[[-140.82995,-18.19036,3.4318],[-140.85131,-18.16953,0.0],[-140.87731,-18.15057,2.1114],[-140.89851,-18.12908,0.0],[-140.92516,-18.08473,0.0],[-140.96447,-18.06658,0.0],[-140.97362,-18.06024,0.0],[-140.93029,-18.09564,0.0],[-140.91804,-18.10817,0.0],[-140.8955,-18.14902,0.0],[-140.84838,-18.18255,0.0],[-140.82274,-18.21795,0.0],[-140.82995,-18.19036,3.4318]]],
[[[-143.07226,-17.84043,0.0],[-143.08088,-17.83758,0.0],[-143.09211,-17.85329,0.7789],[-143.08715,-17.85849,0.0],[-143.08239,-17.85752,0.0],[-143.07763,-17.85223,0.0],[-143.07282,-17.84433,0.0],[-143.07022,-17.85516,0.0],[-143.06485,-17.8637,6.8055],[-143.06029,-17.86777,2.6061],[-143.05989,-17.86582,1.3594],[-143.07226,-17.84043,0.0]]],
[[[-140.79597,-17.86273,0.0],[-140.78523,-17.85858,0.0],[-140.75805,-17.83164,0.0],[-140.72716,-17.80706,0.0],[-140.67878,-17.78037,0.0],[-140.6483,-17.74391,0.0],[-140.62849,-17.72845,0.0],[-140.61986,-17.70672,0.0],[-140.62466,-17.68727,0.0],[-140.65209,-17.68418,0.0],[-140.67195,-17.69785,0.0],[-140.74584,-17.72959,0.0],[-140.78246,-17.75164,0.0],[-140.80232,-17.78655,0.0],[-140.82274,-17.80706,2.7593],[-140.8343,-17.83001,0.0],[-140.83869,-17.84344,0.0],[-140.83703,-17.85475,0.0],[-140.82779,-17.86012,0.0],[-140.81212,-17.86305,0.0],[-140.79597,-17.86273,0.0]]],
[[[-142.55818,-17.59922,0.0],[-142.57763,-17.57171,1.0481],[-142.61246,-17.54697,1.7456],[-142.63952,-17.53265,0.0],[-142.56517,-17.60166,0.0],[-142.57746,-17.62135,0.0],[-142.55818,-17.59922,0.0]]],
[[[-143.42203,-17.44215,0.0],[-143.43765,-17.4332,0.0],[-143.45661,-17.42929,0.0],[-143.47496,-17.43027,0.0],[-143.43786,-17.4389,0.0],[-143.41356,-17.45696,0.0],[-143.42203,-17.44215,0.0]]],
[[[-145.40559,-17.44297,0.0],[-145.41942,-17.42693,0.0],[-145.43513,-17.41717,0.0],[-145.38048,-17.48496,0.0],[-145.40559,-17.44297,0.0]]],
[[[-141.43533,-17.38356,0.0],[-141.43607,-17.3707,0.0],[-141.43627,-17.36736,0.0],[-141.44518,-17.35174,0.0],[-141.46076,-17.34482,0.0],[-141.48184,-17.34857,0.0],[-141.46744,-17.34881,0.0],[-141.45385,-17.35231,0.0],[-141.44249,-17.36012,0.0],[-141.43855,-17.3681,0.0],[-141.43684,-17.38275,0.0],[-141.43684,-17.38584,0.0],[-141.43497,-17.38934,0.0],[-141.43533,-17.38356,0.0]]],
[[[-138.44774,-17.36159,0.0],[-138.45368,-17.35955,0.0],[-138.45783,-17.35882,0.0],[-138.45881,-17.35687,0.0],[-138.4549,-17.34979,6.9686],[-138.42614,-17.32488,0.0],[-138.44693,-17.3327,0.0],[-138.46093,-17.35036,0.0],[-138.46373,-17.35695,0.0],[-138.46349,-17.35996,0.0],[-138.46142,-17.36566,0.0],[-138.44172,-17.36639,0.0],[-138.44774,-17.36159,0.0]]],
[[[-145.59288,-17.3248,0.0],[-145.59341,-17.34303,0.0],[-145.59138,-17.35768,0.0],[-145.5865,-17.37038,2.5097],[-145.57848,-17.38307,3.0587],[-145.59288,-17.3248,0.0]]],
[[[-143.062,-17.00897,0.0],[-143.07018,-17.00018,0.0],[-143.07982,-16.99334,0.0],[-143.0904,-16.98952,0.0],[-143.10123,-16.99017,0.0],[-143.09773,-16.99432,0.0],[-143.09382,-16.99798,0.0],[-143.08483,-17.00457,0.0],[-143.07893,-17.00742,0.0],[-143.07315,-17.00937,0.0],[-143.06753,-17.01002,0.0],[-143.062,-17.00897,0.0]]],
[[[-144.08007,-16.71722,2.4764],[-144.10684,-16.72389,0.0],[-144.1105,-16.7317,0.0],[-144.1114,-16.73528,0.0],[-144.11071,-16.73968,0.0],[-144.09114,-16.72186,0.0],[-144.07567,-16.7304,0.0],[-144.06281,-16.74863,0.0],[-144.05089,-16.75945,0.0],[-144.05407,-16.74969,0.0],[-144.0631,-16.73073,0.0],[-144.08007,-16.71722,2.4764]]],
[[[-144.17667,-16.65537,0.0],[-144.18814,-16.64568,5.4919],[-144.19811,-16.64219,0.0],[-144.20067,-16.64837,0.0],[-144.1859,-16.65936,1.8457],[-144.17785,-16.66375,0.0],[-144.16959,-16.66725,0.0],[-144.17667,-16.65537,0.0]]],
[[[-143.44058,-16.62078,0.0],[-143.46475,-16.61468,0.0],[-143.55069,-16.62217,0.0],[-143.50617,-16.62713,0.0],[-143.45401,-16.62461,0.0],[-143.38622,-16.66985,0.0],[-143.42028,-16.63567,0.0],[-143.44058,-16.62078,0.0]]],
[[[-143.60953,-16.62998,0.0],[-143.66625,-16.58847,0.0],[-143.70153,-16.5805,0.0],[-143.66006,-16.60223,0.0],[-143.62035,-16.63201,0.0],[-143.57116,-16.63584,0.0],[-143.60953,-16.62998,0.0]]],
[[[-143.82299,-16.51637,0.0],[-143.83275,-16.49847,0.0],[-143.86197,-16.46722,0.0],[-143.87751,-16.45973,0.0],[-143.91035,-16.45534,0.0],[-143.93033,-16.44997,0.0],[-143.93423,-16.45029,0.0],[-143.91397,-16.45737,0.0],[-143.87979,-16.46941,0.0],[-143.84874,-16.49293,0.0],[-143.82144,-16.53769,0.0],[-143.81762,-16.53965,0.0],[-143.82299,-16.51637,0.0]]],
[[[-144.25133,-16.46136,5.8933],[-144.26012,-16.44232,0.0],[-144.27571,-16.42555,0.0],[-144.29117,-16.41611,0.853],[-144.26085,-16.45086,3.2023],[-144.25866,-16.4577,0.0],[-144.25646,-16.47812,0.0],[-144.25133,-16.46136,5.8933]]],
[[[-144.42715,-16.32244,0.0],[-144.42833,-16.32057,0.0],[-144.43456,-16.31992,0.0],[-144.42601,-16.33278,0.0],[-144.40612,-16.3292,0.0],[-144.37312,-16.34043,0.0],[-144.38231,-16.33229,0.0],[-144.39615,-16.32448,0.0],[-144.41222,-16.32122,0.0],[-144.42772,-16.32659,0.0],[-144.42715,-16.32244,0.0]]],
[[[-146.32877,-16.13763,9.5225],[-146.33772,-16.11338,0.0],[-146.35936,-16.10019,0.0],[-146.38728,-16.10817,0.0],[-146.40209,-16.12998,0.0],[-146.39175,-16.14723,8.8482],[-146.3671,-16.15879,0.5],[-146.33886,-16.16277,0.5],[-146.32877,-16.13763,9.5225]]],
[[[-145.49397,-16.33522,3.0363],[-145.51708,-16.2789,0.0],[-145.55919,-16.23301,0.0],[-145.56208,-16.2243,0.0],[-145.56827,-16.21258,0.0],[-145.57714,-16.16082,0.0],[-145.58218,-16.1491,4.928],[-145.59337,-16.14039,0.0],[-145.60359,-16.12029,0.0],[-145.61095,-16.09734,4.5794],[-145.61388,-16.08025,2.0204],[-145.60656,-16.12933,0.0],[-145.5904,-16.15163,0.0],[-145.57677,-16.20257,0.0],[-145.55313,-16.25213,0.0],[-145.52961,-16.27947,5.241],[-145.50227,-16.3366,0.0],[-145.48229,-16.34783,0.0],[-145.49397,-16.33522,3.0363]]],
[[[-145.61388,-16.05291,0.0],[-145.63126,-16.03834,0.0],[-145.65758,-16.04258,0.0],[-145.70885,-16.06048,0.0],[-145.61388,-16.05291,0.0]]],
[[[-142.48127,-16.01881,0.0],[-142.49527,-16.03631,0.0],[-142.50976,-16.05901,0.0],[-142.52208,-16.08416,0.0],[-142.52965,-16.10817,0.0],[-142.48127,-16.01881,0.0]]],
[[[-140.12548,-15.9533,0.0],[-140.15168,-15.9577,0.0],[-140.17227,-15.97723,0.0],[-140.14322,-15.96054,0.0],[-140.11718,-15.96168,0.0],[-140.11022,-15.97723,0.0],[-140.10709,-15.96063,0.0],[-140.12548,-15.9533,0.0]]],
[[[-145.21996,-15.89837,0.0],[-145.23591,-15.88844,0.0],[-145.16759,-15.95045,0.0],[-145.21996,-15.89837,0.0]]],
[[[-145.89859,-15.87835,0.0],[-145.9143,-15.86354,0.0],[-145.95051,-15.83961,0.0],[-145.89892,-15.88812,0.0],[-145.89859,-15.87835,0.0]]],
[[[-140.85985,-15.81992,0.0],[-140.85237,-15.81552,0.0],[-140.86144,-15.81552,0.0],[-140.88899,-15.81976,5.7105],[-140.89562,-15.82684,7.3469],[-140.89501,-15.83294,0.0],[-140.88903,-15.83733,0.0],[-140.87971,-15.83831,0.0],[-140.85985,-15.81992,0.0]]],
[[[-148.23872,-15.86395,61.8299],[-148.23078,-15.85687,55.4581],[-148.22993,-15.84808,66.8289],[-148.239,-15.83961,37.2031],[-148.24616,-15.83164,0.0],[-148.25764,-15.80788,3.8965],[-148.26207,-15.80242,0.0],[-148.27558,-15.80999,9.9381],[-148.27937,-15.8305,0.0],[-148.27172,-15.8532,63.8705],[-148.25084,-15.86745,69.8653],[-148.23872,-15.86395,61.8299]]],
[[[-146.48168,-15.82057,7.1409],[-146.48266,-15.81487,0.0],[-146.48664,-15.8034,0.0],[-146.49885,-15.79404,0.0],[-146.50304,-15.79168,6.4408],[-146.49616,-15.79949,1.3144],[-146.49059,-15.80828,0.924],[-146.48192,-15.82692,6.6088],[-146.48168,-15.82057,7.1409]]],
[[[-145.05871,-15.87591,0.0],[-145.06701,-15.85638,0.0],[-145.09252,-15.82635,0.0],[-145.11754,-15.78069,0.0],[-145.13362,-15.76312,0.0],[-145.16076,-15.75807,0.0],[-145.12987,-15.77801,5.1245],[-145.07649,-15.85866,0.0],[-145.05773,-15.90211,6.4606],[-145.05871,-15.87591,0.0]]],
[[[-144.62043,-15.747,0.0],[-144.62194,-15.73602,4.8389],[-144.6328,-15.72845,0.0],[-144.64981,-15.73016,6.96],[-144.65172,-15.74017,1.1867],[-144.64892,-15.74928,6.786],[-144.64192,-15.75514,0.0],[-144.63134,-15.7553,0.0],[-144.62043,-15.747,0.0]]],
[[[-145.43269,-15.48854,0.0],[-145.43541,-15.48301,0.0],[-145.44396,-15.47967,0.0],[-145.45588,-15.47959,0.0],[-145.48152,-15.47479,0.0],[-145.54963,-15.45208,0.0],[-145.52392,-15.47047,0.0],[-145.45735,-15.4817,0.0],[-145.43786,-15.49635,4.1492],[-145.43269,-15.48854,0.0]]],
[[[-146.19416,-15.35947,0.0],[-146.19278,-15.34629,0.0],[-146.19669,-15.33563,8.2804],[-146.20055,-15.32969,0.0],[-146.20499,-15.32773,0.0],[-146.21398,-15.32309,0.0],[-146.21719,-15.32366,0.0],[-146.20743,-15.32863,0.0],[-146.2036,-15.33148,2.6339],[-146.19831,-15.33872,0.0],[-146.19616,-15.34759,0.0],[-146.19864,-15.36981,0.0],[-146.20299,-15.38885,0.0],[-146.19416,-15.35947,0.0]]],
[[[-146.60294,-15.25693,2.8911],[-146.61172,-15.24391,0.0],[-146.62385,-15.23504,0.0],[-146.63903,-15.2326,0.0],[-146.62084,-15.23984,0.0],[-146.6101,-15.25644,0.0],[-146.59777,-15.27158,0.0],[-146.60294,-15.25693,2.8911]]],
[[[-147.23851,-15.23528,0.0],[-147.24226,-15.23235,3.322],[-147.25626,-15.23252,0.0],[-147.25088,-15.23504,4.8244],[-147.24621,-15.23675,0.0],[-147.24181,-15.23903,3.6555],[-147.23742,-15.24424,9.3421],[-147.23851,-15.23528,0.0]]],
[[[-147.74999,-15.22869,0.0],[-147.76342,-15.21941,0.0],[-147.77408,-15.21347,0.0],[-147.77896,-15.2164,9.935],[-147.73713,-15.23528,0.0],[-147.74999,-15.22869,0.0]]],
[[[-147.4925,-15.09108,0.0],[-147.51085,-15.07789,0.0],[-147.53087,-15.06902,5.9855],[-147.51203,-15.08001,0.0],[-147.45897,-15.12135,0.0],[-147.4925,-15.09108,0.0]]],
[[[-147.93659,-15.06634,0.3245],[-147.93781,-15.0709,3.2482],[-147.93668,-15.07391,4.7201],[-147.93432,-15.07692,0.0],[-147.93196,-15.08082,0.0],[-147.93659,-15.06634,0.3245]]],
[[[-148.055,-14.95989,0.0],[-148.08906,-14.93678,0.0],[-148.1341,-14.92523,0.0],[-148.1761,-14.92205,0.0],[-148.11071,-14.94036,0.0],[-148.08434,-14.95501,0.0],[-148.06627,-14.97112,0.0],[-148.05431,-14.98463,0.0],[-148.04577,-14.99774,0.4548],[-148.055,-14.95989,0.0]]],
[[[-148.62275,-14.87786,0.0],[-148.64057,-14.86492,0.0],[-148.66771,-14.85662,0.0],[-148.69066,-14.85377,0.0],[-148.64794,-14.87176,0.0],[-148.628,-14.89471,4.9371],[-148.62275,-14.87786,0.0]]],
[[[-145.24983,-14.67067,0.6496],[-145.22964,-14.62038,0.0],[-145.25324,-14.66318,0.0],[-145.26391,-14.69012,0.0],[-145.26041,-14.70233,0.0],[-145.24279,-14.69842,0.0],[-145.22297,-14.68841,4.4161],[-145.20543,-14.67523,0.0],[-145.19494,-14.66204,0.0],[-145.23351,-14.68825,0.0],[-145.25479,-14.69329,0.0],[-145.24983,-14.67067,0.6496]]],
[[[-146.23632,-14.47918,0.0],[-146.23176,-14.4568,0.0],[-146.24328,-14.43922,0.0],[-146.27115,-14.43548,0.0],[-146.23949,-14.45582,0.0],[-146.24576,-14.47601,0.0],[-146.25691,-14.49749,0.0],[-146.23632,-14.47918,0.0]]],
[[[-145.94371,-14.44183,0.0],[-145.93277,-14.43841,1.6901],[-145.92243,-14.43377,1.6239],[-145.93322,-14.4376,0.0],[-145.96618,-14.44313,0.0],[-145.9549,-14.44354,0.0],[-145.94371,-14.44183,0.0]]],
[[[-144.87963,-14.4118,2.1376],[-144.88508,-14.40797,0.0],[-144.89737,-14.41229,0.0],[-144.9178,-14.42246,0.0],[-144.96231,-14.4262,0.0],[-144.9851,-14.43231,6.5972],[-145.00308,-14.44297,0.0],[-144.95588,-14.43206,0.0],[-144.9132,-14.42816,0.0],[-144.88805,-14.41815,7.3124],[-144.91072,-14.43955,0.0],[-144.95466,-14.46347,0.0],[-145.00308,-14.51116,0.0],[-144.98583,-14.50058,0.0],[-144.95466,-14.46982,0.0],[-144.94473,-14.46331,0.0],[-144.93497,-14.45973,0.0],[-144.90274,-14.44215,0.0],[-144.88329,-14.42742,0.0],[-144.8806,-14.42213,0.0],[-144.87963,-14.4118,2.1376]]],
[[[-145.83544,-14.34271,0.0],[-145.85839,-14.33733,0.0],[-145.9143,-14.34661,0.0],[-145.86018,-14.34417,0.0],[-145.8426,-14.34661,0.0],[-145.84659,-14.36712,0.0],[-145.83544,-14.34271,0.0]]],
[[[-141.17455,-14.18963,0.0],[-141.20275,-14.17018,1.8533],[-141.2128,-14.16497,0.0],[-141.18928,-14.1902,5.7315],[-141.17951,-14.19647,0.0],[-141.17455,-14.18963,0.0]]]]}}