{"type":"Feature","properties":{"GID_2":"TON.4.5_1","GID_0":"TON","country":"Tonga","GID_1":"TON.4_1","province":"Tongatapu","NL_NAME_1":"NA","county":"Nukunuku","VARNAME_2":"NA","NL_NAME_2":"NA","TYPE_2":"District","ENGTYPE_2":"District","CC_2":"NA","HASC_2":"NA","name":"Nukunuku.county"},
"geometry":{"type": "MultiPolygon","coordinates": [[[[-175.2595,-21.1148,1.8211],[-175.2803,-21.1214,0.5892],[-175.2839,-21.1239,0.8538],[-175.3134,-21.1188,1.3371],[-175.3389,-21.1547,2.2244],[-175.3347,-21.1592,0.0],[-175.3138,-21.1691,7.6626],[-175.3056,-21.1781,0.0],[-175.2908,-21.1861,6.0519],[-175.2736,-21.1994,0.0],[-175.2616,-21.199,2.7033],[-175.2627,-21.1873,24.4208],[-175.2724,-21.1724,12.1666],[-175.2716,-21.1667,8.9695],[-175.2615,-21.155,13.0626],[-175.2555,-21.1409,10.6831],[-175.2571,-21.1195,1.8685],[-175.2595,-21.1148,1.8211]]]]}}