{"type":"Feature","properties":{"GID_2":"WSM.5.1_1","GID_0":"WSM","country":"Samoa","GID_1":"WSM.5_1","province":"Gaga'emauga","NL_NAME_1":"NA","county":"Gaga'emaugaII","VARNAME_2":"Salamumu","NL_NAME_2":"NA","TYPE_2":"Unknown","ENGTYPE_2":"Unknown","CC_2":"NA","HASC_2":"NA","name":"Gaga'emauga_I_I.county"},
"geometry":{"type": "MultiPolygon","coordinates": [[[[-171.9513,-13.9748,0.0],[-171.9497,-13.9786,1.3],[-171.9429,-13.9856,1.8695],[-171.937,-13.9892,1.3719],[-171.9325,-13.9889,2.1521],[-171.9286,-13.9943,7.1426],[-171.9239,-13.9969,0.0],[-171.9211,-14.0022,7.1534],[-171.9175,-14.0047,0.0],[-171.9085,-14.0056,5.1112],[-171.909,-13.951599999999999,172.8047],[-171.914,-13.9547,137.4697],[-171.9193,-13.9648,59.4469],[-171.924,-13.9682,44.591],[-171.9271,-13.965,53.9233],[-171.9305,-13.9646,46.0094],[-171.938,-13.968,22.5345],[-171.9398,-13.9716,24.6502],[-171.9513,-13.9748,0.0]]]]}}