{"type":"Feature","properties":{"GID_2":"WSM.1.3_1","GID_0":"WSM","country":"Samoa","GID_1":"WSM.1_1","province":"A'ana","NL_NAME_1":"NA","county":"AanaAlofiIII","VARNAME_2":"NA","NL_NAME_2":"NA","TYPE_2":"Unknown","ENGTYPE_2":"Unknown","CC_2":"NA","HASC_2":"NA","name":"Aana_Alofi_I_I_I.county"},
"geometry":{"type": "MultiPolygon","coordinates": [[[[-172.0577,-13.8759,27.7171],[-172.0507,-13.8837,35.7573],[-172.0493,-13.8769,41.8909],[-172.0534,-13.8719,37.3637],[-172.0472,-13.8645,55.5977],[-172.059,-13.8532,5.3253],[-172.0631,-13.8595,0.468],[-172.0605,-13.8619,3.0302],[-172.0577,-13.8759,27.7171]]],
[[[-171.9656,-13.8256,0.0],[-171.9719,-13.8283,2.3986],[-171.9821,-13.8274,0.0],[-172.0061,-13.8292,0.2362],[-172.0108,-13.8289,1.5724],[-172.0195,-13.8237,0.0],[-172.0225,-13.8253,1.0325],[-172.0289,-13.8253,0.0],[-172.0346,-13.8296,1.6237],[-172.025,-13.8503,64.5399],[-172.0207,-13.8567,113.0821],[-172.0174,-13.8574,122.7539],[-172.0105,-13.8719,215.5511],[-172.0038,-13.8729,221.4387],[-172.0035,-13.8784,219.35059999999999],[-171.9911,-13.8795,399.6237],[-171.9763,-13.8776,380.5699],[-171.9491,-13.879,303.2947],[-171.9537,-13.8733,268.7418],[-171.9576,-13.8625,138.8869],[-171.9656,-13.8256,0.0]]]]}}