{"type":"Feature","properties":{"GID_3":"ASM.4.1.7_1","GID_0":"ASM","country":"AmericanSamoa","GID_1":"ASM.4_1","state":"Western","NL_NAME_1":"NA","GID_2":"ASM.4.1_2","county":"Lealataua","NL_NAME_2":"NA","city":"Fagamalo","VARNAME_3":"NA","NL_NAME_3":"NA","TYPE_3":"Village","ENGTYPE_3":"Village","CC_3":"NA","HASC_3":"NA","name":"Fagamalo.city"},
"geometry":{"type": "MultiPolygon","coordinates": [[[[-170.7904,-14.3111,387.4443],[-170.7921,-14.294,138.6147],[-170.7986,-14.2896,16.956],[-170.8087,-14.2937,0.0],[-170.8119,-14.299,12.3831],[-170.7966,-14.3136,367.4258],[-170.7904,-14.3111,387.4443]]]]}}