{"type": "Feature","bbox": [-170.7921,-14.3144,-170.7701,-14.2882],"geometry": {"type": "MultiPolygon","coordinates": [[[[-170.7729,-14.3144,397.2588],[-170.7738,-14.3028,268.7105],[-170.7701,-14.2904,11.1515],[-170.7799,-14.2932,0.0],[-170.7845,-14.2882,47.3062],[-170.7898,-14.2904,8.9265],[-170.7921,-14.294,138.6147],[-170.7904,-14.3111,387.4443],[-170.7838,-14.3144,382.9616],[-170.7729,-14.3144,397.2588]]]]}
,"properties": {"GID_3": "ASM.4.2.2_1","GID_0": "ASM","country": "AmericanSamoa","GID_1": "ASM.4_1","state": "Western","NL_NAME_1": "NA","GID_2": "ASM.4.2_1","county": "Leasina","NL_NAME_2": "NA","city": "Aoloau","VARNAME_3": "NA","NL_NAME_3": "NA","TYPE_3": "Village","ENGTYPE_3": "Village","CC_3": "NA","HASC_3": "NA","name": "Aoloau.city","area_km2": 5.136274,"hist_schema_id": "Elevation0-9000","hist_area_km2": {"0": 0.226006,"25": 0.24655,"50": 0.226003,"75": 0.328731,"100": 0.308184,"125": 0.308182,"150": 0.308183,"175": 0.308181,"200": 0.225998,"225": 0.349267,"250": 0.246541,"275": 0.184904,"300": 0.246537,"325": 0.287625,"350": 0.369799,"375": 0.595786,"400": 0.369798}}}