{"type": "Feature","bbox": [-171.6328,-13.9765,-171.5361,-13.8733],"geometry": {"type": "MultiPolygon","coordinates": [[[[-171.6044,-13.8736,0.9184],[-171.6038,-13.885,68.098],[-171.6149,-13.9052,131.9833],[-171.6202,-13.9123,146.9371],[-171.6218,-13.9118,154.2837],[-171.6243,-13.9242,167.0959],[-171.6245,-13.9448,287.9765],[-171.6281,-13.9505,234.6038],[-171.6328,-13.9667,470.0825],[-171.597,-13.9765,232.2666],[-171.5976,-13.9611,261.3841],[-171.5996,-13.9558,289.8544],[-171.5983,-13.9547,289.8544],[-171.5757,-13.9546,278.6723],[-171.5771,-13.9501,158.196],[-171.5835,-13.944,164.6214],[-171.5838,-13.9419,140.6888],[-171.5724,-13.9348,293.8768],[-171.5742,-13.9266,210.208],[-171.5668,-13.9268,438.3199],[-171.5651,-13.9242,645.7175],[-171.5535,-13.9237,272.361],[-171.5361,-13.9126,0.0],[-171.5453,-13.915,25.8424],[-171.5452,-13.9109,8.1617],[-171.5489,-13.9078,0.0],[-171.5533,-13.909,0.0],[-171.5549,-13.9114,15.1519],[-171.5631,-13.9094,0.0],[-171.5634,-13.9068,54.2362],[-171.5603,-13.9006,0.0],[-171.5659,-13.9018,8.8162],[-171.5663,-13.8952,2.3724],[-171.5704,-13.8949,36.359],[-171.5694,-13.8881,0.0],[-171.5708,-13.8867,0.0],[-171.5744,-13.8911,0.0],[-171.5775,-13.89,0.0],[-171.5817,-13.8919,9.9734],[-171.5861,-13.8903,0.0],[-171.5863,-13.8844,1.1353],[-171.5831,-13.8792,0.6261],[-171.5846,-13.8778,0.0],[-171.5927,-13.8806,22.2015],[-171.5936,-13.8901,24.3562],[-171.5965,-13.8936,36.7067],[-171.5983,-13.9153,33.2135],[-171.606,-13.9103,68.9673],[-171.6021,-13.8914,57.4337],[-171.5936,-13.8733,0.9444],[-171.6044,-13.8736,0.9184]]]]}
,"properties": {"GID_2": "WSM.3.3_1","GID_0": "WSM","country": "Samoa","GID_1": "WSM.3_1","province": "Atua","NL_NAME_1": "NA","county": "AnoamaaEast","VARNAME_2": "NA","NL_NAME_2": "NA","TYPE_2": "Unknown","ENGTYPE_2": "Unknown","CC_2": "NA","HASC_2": "NA","name": "Anoamaa_East.county","area_km2": 49.63644,"hist_schema_id": "Elevation0-9000","hist_area_km2": {"0": 1.54366,"25": 8.84955,"50": 4.7127,"75": 3.12812,"100": 3.04581,"125": 3.29278,"150": 2.61358,"175": 2.79873,"200": 1.99615,"225": 1.79031,"250": 2.65447,"275": 2.07834,"300": 1.89315,"325": 1.23467,"350": 2.22229,"375": 1.21408,"400": 0.69961,"425": 0.61729,"450": 0.8025,"475": 0.57615,"500": 0.59673,"525": 0.41154,"550": 0.30866,"575": 0.22635,"600": 0.16462,"625": 0.10289,"650": 0.04116,"675": 0.02058}}}