{"type":"Feature","properties":{"GID_3":"ASM.1.2.1_1","GID_0":"ASM","country":"AmericanSamoa","GID_1":"ASM.1_1","state":"Eastern","NL_NAME_1":"NA","GID_2":"ASM.1.2_1","county":"Ma'Oputasi","NL_NAME_2":"NA","city":"Anua","VARNAME_3":"NA","NL_NAME_3":"NA","TYPE_3":"Village","ENGTYPE_3":"Village","CC_3":"NA","HASC_3":"NA","name":"Anua.city"},
"geometry":{"type": "MultiPolygon","coordinates": [[[[-170.6847,-14.2706,10.2318],[-170.687,-14.2647,429.2059],[-170.6927,-14.2651,423.4364],[-170.6904,-14.2739,0.0],[-170.6847,-14.2706,10.2318]]]]}}