{"type":"Feature","properties":{"ISO3166-1-Alpha-3":"COK","country":"Cook Islands","fill":"#F0F","id":"4956","name":"Palmerston"},
"geometry":{"type": "Polygon","coordinates": [[[-159.7851,-18.83082,0.0],[-159.79385,-18.83994,0.0],[-159.79788,-18.84653,0.0],[-159.80232,-18.86582,0.0],[-159.80081,-18.87819,0.0],[-159.79361,-18.88747,0.0],[-159.78287,-18.88795,11.396],[-159.77648,-18.87819,16.3952],[-159.77961,-18.85638,23.3547],[-159.77925,-18.85288,19.6174],[-159.76968,-18.83432,14.4266],[-159.76663,-18.83522,5.3934],[-159.76496,-18.84173,0.0],[-159.76138,-18.84539,0.0],[-159.76199,-18.83725,5.8745],[-159.77261,-18.82895,5.1442],[-159.7851,-18.83082,0.0]]]}}