{"type": "Feature","bbox": [-163.1979,-18.0961,-163.1122,-17.9875],"geometry": {"type": "MultiPolygon","coordinates": [[[[-163.1522,-17.9973,0.0],[-163.1588,-17.989,0.0],[-163.1647,-17.9875,0.0],[-163.1729,-17.9978,0.0],[-163.1722,-18.0188,0.0],[-163.1739,-18.028,0.0],[-163.1793,-18.0382,0.0],[-163.1966,-18.0541,0.0],[-163.1979,-18.0583,0.0],[-163.1842,-18.0707,0.0],[-163.18,-18.0766,0.0],[-163.1773,-18.0907,0.0],[-163.1727,-18.0936,0.0],[-163.1574,-18.0961,0.0],[-163.1524,-18.0861,0.0],[-163.1468,-18.0812,0.0],[-163.1327,-18.0758,0.0],[-163.1286,-18.0664,0.0],[-163.123,-18.0588,0.0],[-163.1149,-18.0529,0.0],[-163.1122,-18.0366,0.0],[-163.1125,-18.0339,0.0],[-163.1166,-18.0309,0.0],[-163.1251,-18.0299,0.0],[-163.129,-18.0275,0.0],[-163.1342,-18.0156,0.0],[-163.1426,-18.0102,0.0],[-163.1522,-17.9973,0.0]],
[[-163.1641,-18.0038,0.0],[-163.162,-18.0001,0.0],[-163.1586,-18.0001,0.0],[-163.1449,-18.0156,0.0],[-163.1386,-18.0197,0.0],[-163.1329,-18.0314,0.0],[-163.1266,-18.0376,0.0],[-163.1222,-18.0394,4.8494],[-163.1222,-18.0443,0.0],[-163.126,-18.0538,0.0],[-163.1377,-18.067,0.0],[-163.1561,-18.0807,0.0],[-163.1637,-18.0818,0.0],[-163.171,-18.0801,0.0],[-163.1746,-18.071,0.0],[-163.1828,-18.0592,0.0],[-163.1862,-18.0584,0.0],[-163.1685,-18.0312,0.0],[-163.1641,-18.0038,0.0]]]]}
,"properties": {"GID_1": "COK.7_1","GID_0": "COK","country": "CookIslands","province": "Palmerston","VARNAME_1": "NA","NL_NAME_1": "NA","TYPE_1": "IslandCouncil","ENGTYPE_1": "IslandCouncil","CC_1": "NA","HASC_1": "NA","ISO_1": "NA","name": "Palmerston.province","area_km2": 23.72728,"hist_schema_id": "Elevation0-9000","hist_area_km2": {"0": 23.12248,"25": 0.60481}}}