{"type": "Feature","bbox": [-171.5465,-14.0454,-171.4921,-14.0032],"geometry": {"type": "MultiPolygon","coordinates": [[[[-171.5439,-14.0032,356.0654],[-171.5465,-14.0437,0.0],[-171.5451,-14.0454,0.0],[-171.5375,-14.0446,0.0],[-171.5275,-14.0401,0.0],[-171.5208,-14.0426,0.218],[-171.5147,-14.0417,0.0],[-171.5079,-14.043,0.0],[-171.4921,-14.0408,0.0],[-171.4927,-14.0126,376.0612],[-171.5439,-14.0032,356.0654]]]]}
,"properties": {"GID_2": "WSM.3.6_1","GID_0": "WSM","country": "Samoa","GID_1": "WSM.3_1","province": "Atua","NL_NAME_1": "NA","county": "Lepa","VARNAME_2": "NA","NL_NAME_2": "NA","TYPE_2": "Unknown","ENGTYPE_2": "Unknown","CC_2": "NA","HASC_2": "NA","name": "Lepa.county","area_km2": 22.01005,"hist_schema_id": "Elevation0-9000","hist_area_km2": {"0": 1.00787,"25": 0.80218,"50": 1.17243,"75": 1.23415,"100": 1.09017,"125": 1.29588,"150": 1.2136,"175": 1.46045,"200": 1.66616,"225": 1.81018,"250": 1.85135,"275": 1.91308,"300": 1.25483,"325": 1.37827,"350": 1.37829,"375": 1.06972,"400": 0.288,"425": 0.12343}}}