{"type": "Feature","bbox": [-170.7706,-14.3475,-170.76,-14.3393],"geometry": {"type": "MultiPolygon","coordinates": [[[[-170.7636,-14.3475,62.853],[-170.76,-14.3393,127.7144],[-170.7706,-14.3407,46.0334],[-170.7681,-14.3445,51.8365],[-170.7636,-14.3475,62.853]]]]}
,"properties": {"GID_3": "ASM.4.3.2_1","GID_0": "ASM","country": "AmericanSamoa","GID_1": "ASM.4_1","state": "Western","NL_NAME_1": "NA","GID_2": "ASM.4.3_1","county": "Tualatai","NL_NAME_2": "NA","city": "Malaeloa/Ituau","VARNAME_3": "NA","NL_NAME_3": "NA","TYPE_3": "Village","ENGTYPE_3": "Village","CC_3": "NA","HASC_3": "NA","name": "Malaeloa_Ituau.city","area_km2": 0.5546166,"hist_schema_id": "Elevation0-9000","hist_area_km2": {"50": 0.3902852,"75": 0.0410825,"100": 0.0205416,"125": 0.0821659,"150": 0.0205414}}}