{"type": "Feature","bbox": [-176.248,-13.3074,-176.1242,-13.2574],"geometry": {"type": "MultiPolygon","coordinates": [[[[-176.1628,-13.2644,1.6903],[-176.1642,-13.2631,1.6903],[-176.1749,-13.2644,120.2486],[-176.1851,-13.2574,73.3911],[-176.2242,-13.268,0.0746],[-176.2256,-13.2719,6.2361],[-176.2242,-13.2761,0.0625],[-176.2278,-13.2822,1.9985],[-176.2347,-13.2844,0.0],[-176.2361,-13.2836,0.0],[-176.2403,-13.2867,5.213],[-176.248,-13.2886,4.7239],[-176.2136,-13.2976,41.2368],[-176.1972,-13.3002,19.3381],[-176.1814,-13.3074,1.9993],[-176.1796,-13.3051,3.4977],[-176.1794,-13.3011,0.0],[-176.1828,-13.2972,0.0],[-176.1817,-13.2931,-0.2445],[-176.1756,-13.2844,3.5666],[-176.1708,-13.2825,-0.466],[-176.1683,-13.2764,-0.2828],[-176.1614,-13.2672,0.0],[-176.1628,-13.2644,1.6903]]],
[[[-176.1436,-13.2794,0.0],[-176.1458,-13.2778,0.0],[-176.1494,-13.2822,0.0],[-176.1453,-13.2833,0.0],[-176.1433,-13.2819,0.0],[-176.1436,-13.2794,0.0]]],
[[[-176.1458,-13.2714,0.0],[-176.1478,-13.2703,3.6535],[-176.1519,-13.2733,2.8466],[-176.1475,-13.275,0.0],[-176.145,-13.2733,0.0],[-176.1458,-13.2714,0.0]]],
[[[-176.1253,-13.2875,0.0],[-176.1292,-13.2889,4.9641],[-176.1255,-13.2903,0.0],[-176.1242,-13.2889,2.6767],[-176.1253,-13.2875,0.0]]],
[[[-176.1325,-13.2758,0.0],[-176.1289,-13.2747,0.0],[-176.1292,-13.2714,0.0],[-176.1336,-13.2747,0.0],[-176.1325,-13.2758,0.0]]]]}
,"properties": {"GID_2": "WLF.3.1_1","GID_0": "WLF","country": "WallisandFutuna","GID_1": "WLF.3_1","province": "Uvéa","NL_NAME_1": "NA","county": "Hahake","VARNAME_2": "NA","NL_NAME_2": "NA","TYPE_2": "District","ENGTYPE_2": "District","CC_2": "NA","HASC_2": "WF.UV.HA","name": "Hahake.county","area_km2": 26.37178,"hist_schema_id": "Elevation0-9000","hist_area_km2": {"0": 3.59045,"25": 7.73805,"50": 5.53019,"75": 5.34467,"100": 3.34298,"125": 0.76353,"150": 0.06191}}}