{"type": "Feature","bbox": [-170.6048,-14.2717,-170.5933,-14.2555],"geometry": {"type": "MultiPolygon","coordinates": [[[[-170.5958,-14.2717,191.2401],[-170.5933,-14.2586,42.9045],[-170.5992,-14.2555,0.0],[-170.6048,-14.2558,0.0],[-170.604,-14.2648,190.985],[-170.5958,-14.2717,191.2401]]]]}
,"properties": {"GID_3": "ASM.1.4.11_1","GID_0": "ASM","country": "AmericanSamoa","GID_1": "ASM.1_1","state": "Eastern","NL_NAME_1": "NA","GID_2": "ASM.1.4_1","county": "Sua","NL_NAME_2": "NA","city": "Sa'ilele","VARNAME_3": "NA","NL_NAME_3": "NA","TYPE_3": "Village","ENGTYPE_3": "Village","CC_3": "NA","HASC_3": "NA","name": "Sa'ilele.city","area_km2": 1.45896,"hist_schema_id": "Elevation0-9000","hist_area_km2": {"0": 0.061648,"25": 0.082197,"50": 0.143844,"75": 0.102745,"100": 0.164391,"125": 0.16439,"150": 0.14384,"175": 0.226034,"200": 0.164388,"225": 0.12329,"250": 0.082193}}}