{"type":"Feature","properties":{"GID_2":"WSM.4.3_1","GID_0":"WSM","country":"Samoa","GID_1":"WSM.4_1","province":"Fa'asaleleaga","NL_NAME_1":"NA","county":"FaasaleleagaIII","VARNAME_2":"NA","NL_NAME_2":"NA","TYPE_2":"Unknown","ENGTYPE_2":"Unknown","CC_2":"NA","HASC_2":"NA","name":"Faasaleleaga_I_I_I.county"},
"geometry":{"type": "MultiPolygon","coordinates": [[[[-172.1777,-13.6654,1.66],[-172.1865,-13.6531,0.6461],[-172.1881,-13.6443,0.0],[-172.1919,-13.6404,0.0],[-172.1916,-13.6376,0.0],[-172.1974,-13.632,2.7781],[-172.1952,-13.6256,6.3076],[-172.2421,-13.6273,160.1472],[-172.2419,-13.6389,154.2239],[-172.224,-13.6384,79.7997],[-172.2246,-13.6488,68.2138],[-172.2271,-13.6562,78.9302],[-172.2258,-13.6594,83.7035],[-172.2115,-13.659,53.2256],[-172.189,-13.6661,28.9299],[-172.1777,-13.6654,1.66]]]]}}