{"type": "Feature","bbox": [-170.7807,-14.3639,-170.7636,-14.3475],"geometry": {"type": "MultiPolygon","coordinates": [[[[-170.7749,-14.3497,32.0537],[-170.7749,-14.3545,23.4144],[-170.7807,-14.3583,6.4043],[-170.7704,-14.3639,22.1706],[-170.7636,-14.3475,62.853],[-170.7749,-14.3497,32.0537]]]]}
,"properties": {"GID_3": "ASM.4.3.3_1","GID_0": "ASM","country": "AmericanSamoa","GID_1": "ASM.4_1","state": "Western","NL_NAME_1": "NA","GID_2": "ASM.4.3_1","county": "Tualatai","NL_NAME_2": "NA","city": "Taputimu","VARNAME_3": "NA","NL_NAME_3": "NA","TYPE_3": "Village","ENGTYPE_3": "Village","CC_3": "NA","HASC_3": "NA","name": "Taputimu.city","area_km2": 1.561056,"hist_schema_id": "Elevation0-9000","hist_area_km2": {"0": 0.06162,"25": 0.780525,"50": 0.534051,"75": 0.123241,"100": 0.061619}}}