{"type":"Feature","properties":{"GID_2":"WSM.1.1_1","GID_0":"WSM","country":"Samoa","GID_1":"WSM.1_1","province":"A'ana","NL_NAME_1":"NA","county":"AanaAlofiI","VARNAME_2":"NA","NL_NAME_2":"NA","TYPE_2":"Unknown","ENGTYPE_2":"Unknown","CC_2":"NA","HASC_2":"NA","name":"Aana_Alofi_I.county"},
"geometry":{"type": "MultiPolygon","coordinates": [[[[-171.9301,-13.8832,346.0568],[-171.929,-13.8868,364.8563],[-171.9065,-13.8881,543.4133],[-171.9029,-13.846,207.1082],[-171.9106,-13.8356,141.1998],[-171.9137,-13.819,65.9771],[-171.9158,-13.8169,58.8409],[-171.9189,-13.8044,0.0],[-171.9217,-13.8036,0.8047],[-171.9342,-13.81,4.4723],[-171.9414,-13.8097,5.7277],[-171.9456,-13.8144,1.1523],[-171.9506,-13.8153,3.2591],[-171.9499,-13.8208,16.8801],[-171.9445,-13.8327,63.246],[-171.9413,-13.8362,91.4145],[-171.936,-13.8512,180.3815],[-171.9346,-13.8596,236.3211],[-171.9384,-13.8655,250.9174],[-171.9382,-13.8755,303.0164],[-171.932,-13.8772,316.505],[-171.9301,-13.8832,346.0568]]]]}}