{"type": "Feature","bbox": [-170.844,-14.3292,-170.8257,-14.3189],"geometry": {"type": "MultiPolygon","coordinates": [[[[-170.8257,-14.3218,112.0756],[-170.831,-14.3189,112.3168],[-170.844,-14.3227,8.2694],[-170.8377,-14.3257,0.0],[-170.8324,-14.3257,0.5576],[-170.8292,-14.3292,0.0],[-170.8257,-14.3218,112.0756]]]]}
,"properties": {"GID_3": "ASM.4.1.4_1","GID_0": "ASM","country": "AmericanSamoa","GID_1": "ASM.4_1","state": "Western","NL_NAME_1": "NA","GID_2": "ASM.4.1_2","county": "Lealataua","NL_NAME_2": "NA","city": "Amanave","VARNAME_3": "NA","NL_NAME_3": "NA","TYPE_3": "Village","ENGTYPE_3": "Village","CC_3": "NA","HASC_3": "NA","name": "Amanave.city","area_km2": 1.0477008,"hist_schema_id": "Elevation0-9000","hist_area_km2": {"0": 0.3081444,"25": 0.0821725,"50": 0.1438016,"75": 0.2054324,"100": 0.12326,"125": 0.1643466,"150": 0.0205434}}}