{"type":"Feature","properties":{"GID_2":"WSM.3.7_1","GID_0":"WSM","country":"Samoa","GID_1":"WSM.3_1","province":"Atua","NL_NAME_1":"NA","county":"Lotofaga","VARNAME_2":"NA","NL_NAME_2":"NA","TYPE_2":"Unknown","ENGTYPE_2":"Unknown","CC_2":"NA","HASC_2":"NA","name":"Lotofaga.county"},
"geometry":{"type": "MultiPolygon","coordinates": [[[[-171.5641,-13.9542,492.5975],[-171.5983,-13.9547,289.8544],[-171.5996,-13.9558,289.8544],[-171.5976,-13.9611,261.3841],[-171.5978,-13.9847,219.4135],[-171.5942,-13.9887,210.1112],[-171.5928,-14.0008,175.2481],[-171.5903,-14.0044,167.7104],[-171.5848,-14.0074,138.5196],[-171.5865,-14.0131,106.1656],[-171.5919,-14.0202,80.7377],[-171.5974,-14.0211,60.9416],[-171.5977,-14.0354,34.111],[-171.6001,-14.0425,4.2385],[-171.5863,-14.0431,0.0],[-171.5838,-14.0461,6.2965],[-171.5814,-14.0465,0.0],[-171.5784,-14.0447,0.0],[-171.5636,-14.0442,16.4502],[-171.5606,-14.0461,0.0],[-171.5464,-14.0436,0.0],[-171.5439,-14.0032,356.0654],[-171.5621,-13.9997,272.7826],[-171.5639,-13.9737,382.2561],[-171.5664,-13.9701,275.7159],[-171.5664,-13.9627,259.9365],[-171.5641,-13.9542,492.5975]]]]}}